{"type":"FeatureCollection","features":[{"type":"Feature","properties":{"name":"Fuata Nyayo Village","source_tags":"landuse=residential; place=informal"},"geometry":{"type":"Polygon","coordinates":[[[36.83778,-1.30872],[36.83769,-1.30893],[36.83799,-1.30905],[36.83827,-1.30916],[36.83875,-1.30933],[36.83885,-1.30936],[36.83893,-1.30935],[36.83908,-1.30933],[36.83915,-1.30932],[36.83934,-1.30936],[36.83965,-1.30944],[36.84004,-1.30949],[36.84003,-1.30974],[36.84003,-1.30994],[36.83984,-1.31096],[36.83977,-1.31122],[36.83972,-1.31128],[36.83978,-1.31128],[36.84028,-1.31131],[36.84065,-1.31143],[36.84144,-1.31175],[36.84173,-1.31187],[36.84185,-1.31192],[36.84196,-1.3117],[36.84211,-1.31143],[36.84234,-1.3112],[36.84246,-1.31124],[36.84263,-1.31112],[36.84304,-1.31078],[36.84314,-1.31069],[36.84295,-1.31051],[36.8426,-1.3103],[36.84236,-1.31016],[36.84227,-1.31012],[36.84217,-1.31005],[36.84207,-1.31],[36.84202,-1.30997],[36.84198,-1.30995],[36.84188,-1.30996],[36.84183,-1.30995],[36.84172,-1.30993],[36.84163,-1.30992],[36.84154,-1.3099],[36.84133,-1.30986],[36.84119,-1.30985],[36.84109,-1.30984],[36.84102,-1.30982],[36.84098,-1.3098],[36.84094,-1.30979],[36.84092,-1.30978],[36.84091,-1.30977],[36.84088,-1.30972],[36.84084,-1.30968],[36.84078,-1.30957],[36.84071,-1.30935],[36.84071,-1.30922],[36.84073,-1.30915],[36.84078,-1.30904],[36.84081,-1.30897],[36.84084,-1.30891],[36.8409,-1.3088],[36.84095,-1.30871],[36.84097,-1.30864],[36.84105,-1.30849],[36.84114,-1.3084],[36.84127,-1.30829],[36.84134,-1.3082],[36.84139,-1.30808],[36.84148,-1.3078],[36.84148,-1.30758],[36.84148,-1.30742],[36.84149,-1.30732],[36.84148,-1.30721],[36.84143,-1.30695],[36.84136,-1.30682],[36.84101,-1.30659],[36.84083,-1.30647],[36.84075,-1.30642],[36.84067,-1.30638],[36.84059,-1.30636],[36.84052,-1.30635],[36.84048,-1.30635],[36.84046,-1.30635],[36.84043,-1.30636],[36.8404,-1.30637],[36.84034,-1.30643],[36.84028,-1.30649],[36.84014,-1.30662],[36.83985,-1.30688],[36.83978,-1.30695],[36.8397,-1.30701],[36.83963,-1.30707],[36.83959,-1.3071],[36.83956,-1.30713],[36.83949,-1.30719],[36.83938,-1.30726],[36.83929,-1.30733],[36.8392,-1.30738],[36.83916,-1.30741],[36.83911,-1.30745],[36.83864,-1.30757],[36.83842,-1.30762],[36.83821,-1.30766],[36.83787,-1.30773],[36.83782,-1.30777],[36.83782,-1.30787],[36.83781,-1.30803],[36.83781,-1.30814],[36.83778,-1.30872]]]}},{"type":"Feature","properties":{"name":"Mukuru Kayaba Village","source_tags":"landuse=residential; place=informal"},"geometry":{"type":"Polygon","coordinates":[[[36.84076,-1.30924],[36.84076,-1.30935],[36.84078,-1.30944],[36.84081,-1.30953],[36.84085,-1.3096],[36.84092,-1.3097],[36.84096,-1.30974],[36.84097,-1.30976],[36.84109,-1.30981],[36.84116,-1.30981],[36.8413,-1.30981],[36.84147,-1.30982],[36.84177,-1.30987],[36.84187,-1.30988],[36.84197,-1.3099],[36.84211,-1.30991],[36.84218,-1.30994],[36.84236,-1.31004],[36.84253,-1.31014],[36.84255,-1.31015],[36.84263,-1.3102],[36.84275,-1.31028],[36.84289,-1.31037],[36.84301,-1.31045],[36.84306,-1.31049],[36.84314,-1.31055],[36.84318,-1.31058],[36.84321,-1.31062],[36.84325,-1.31068],[36.8433,-1.31078],[36.84332,-1.31086],[36.84338,-1.31102],[36.84346,-1.31119],[36.84348,-1.31124],[36.84351,-1.31128],[36.84352,-1.3113],[36.84355,-1.31132],[36.8436,-1.31136],[36.84363,-1.31138],[36.84375,-1.31144],[36.84389,-1.3115],[36.84398,-1.31153],[36.84401,-1.31156],[36.84404,-1.31159],[36.84409,-1.31167],[36.84418,-1.31179],[36.84425,-1.31191],[36.84435,-1.31203],[36.84443,-1.31213],[36.84454,-1.31226],[36.8446,-1.31231],[36.84468,-1.31234],[36.84501,-1.31242],[36.84512,-1.31243],[36.84522,-1.31245],[36.84535,-1.31251],[36.84546,-1.31259],[36.84558,-1.31268],[36.84581,-1.31282],[36.84601,-1.31292],[36.84606,-1.31294],[36.84614,-1.31299],[36.84638,-1.31315],[36.84666,-1.31333],[36.84677,-1.31339],[36.84685,-1.31343],[36.84714,-1.31354],[36.84726,-1.31358],[36.84738,-1.31362],[36.84747,-1.31364],[36.84755,-1.31362],[36.84771,-1.31356],[36.84787,-1.31354],[36.84815,-1.31348],[36.84839,-1.3134],[36.84863,-1.31333],[36.84888,-1.31329],[36.84903,-1.3133],[36.84933,-1.31335],[36.8495,-1.31336],[36.84968,-1.31336],[36.8498,-1.31338],[36.85,-1.31336],[36.85022,-1.31335],[36.85034,-1.31336],[36.85057,-1.31343],[36.85063,-1.31346],[36.85079,-1.31367],[36.85082,-1.31371],[36.85088,-1.31369],[36.8509,-1.31365],[36.85097,-1.31357],[36.85107,-1.31343],[36.85119,-1.3133],[36.85088,-1.31303],[36.85074,-1.3129],[36.85056,-1.31275],[36.85049,-1.3127],[36.85036,-1.31258],[36.85,-1.31227],[36.85021,-1.312],[36.85003,-1.31182],[36.84978,-1.31161],[36.84977,-1.31165],[36.84971,-1.31184],[36.84963,-1.31182],[36.84937,-1.3116],[36.84933,-1.31165],[36.84931,-1.31168],[36.8494,-1.31175],[36.84935,-1.3118],[36.84932,-1.31184],[36.8493,-1.31186],[36.84929,-1.31187],[36.84929,-1.31191],[36.84921,-1.31191],[36.84917,-1.31191],[36.84899,-1.3119],[36.84869,-1.31191],[36.84812,-1.31193],[36.84703,-1.31195],[36.847,-1.31167],[36.84645,-1.31166],[36.84604,-1.31151],[36.84545,-1.31122],[36.84537,-1.31116],[36.84516,-1.31097],[36.84492,-1.31082],[36.84483,-1.31074],[36.8448,-1.31071],[36.84478,-1.31071],[36.84451,-1.31087],[36.84437,-1.31095],[36.84422,-1.31103],[36.84407,-1.31112],[36.84321,-1.31051],[36.84312,-1.31044],[36.84241,-1.30995],[36.84193,-1.30964],[36.84185,-1.30966],[36.84145,-1.30958],[36.84132,-1.30956],[36.84119,-1.30959],[36.84111,-1.30962],[36.84101,-1.3096],[36.84097,-1.30952],[36.84097,-1.30943],[36.84099,-1.30942],[36.84107,-1.30944],[36.84112,-1.3089],[36.84113,-1.30884],[36.84095,-1.30879],[36.84088,-1.30891],[36.84079,-1.30912],[36.84076,-1.30924]]]}},{"type":"Feature","properties":{"name":"Hazina Village","source_tags":"landuse=residential; place=informal"},"geometry":{"type":"Polygon","coordinates":[[[36.84747,-1.31395],[36.84741,-1.31411],[36.84761,-1.31419],[36.84789,-1.31423],[36.84812,-1.31433],[36.84833,-1.31444],[36.84843,-1.31459],[36.84847,-1.31475],[36.84849,-1.31493],[36.8485,-1.31563],[36.84906,-1.31563],[36.84937,-1.31532],[36.84952,-1.31516],[36.84966,-1.31501],[36.84959,-1.31413],[36.84951,-1.31411],[36.84952,-1.3139],[36.84954,-1.31382],[36.84954,-1.31379],[36.84955,-1.31377],[36.84957,-1.31375],[36.84961,-1.31375],[36.84968,-1.31374],[36.84971,-1.31372],[36.84973,-1.31369],[36.84974,-1.31364],[36.84977,-1.31345],[36.84956,-1.31344],[36.84946,-1.31343],[36.84929,-1.31341],[36.84906,-1.31338],[36.84895,-1.31337],[36.84885,-1.31337],[36.84873,-1.31337],[36.84862,-1.3134],[36.84836,-1.3135],[36.84819,-1.31355],[36.84796,-1.31358],[36.84779,-1.31364],[36.8477,-1.31366],[36.8476,-1.31369],[36.84751,-1.31371],[36.8475,-1.31372],[36.84747,-1.31395]]]}},{"type":"Feature","properties":{"name":"Mariguine Village","source_tags":"landuse=residential; place=informal"},"geometry":{"type":"Polygon","coordinates":[[[36.83585,-1.30851],[36.83582,-1.30861],[36.83615,-1.30901],[36.83689,-1.30976],[36.8374,-1.3093],[36.83738,-1.30927],[36.83772,-1.30896],[36.83767,-1.30894],[36.83777,-1.30872],[36.83779,-1.30837],[36.83782,-1.30777],[36.83736,-1.30786],[36.83676,-1.30786],[36.83662,-1.30786],[36.83637,-1.30776],[36.83624,-1.30769],[36.83613,-1.30763],[36.8361,-1.30761],[36.83609,-1.30767],[36.83598,-1.30804],[36.83597,-1.30808],[36.83585,-1.30851]]]}},{"type":"Feature","properties":{"name":"Kisii Village","source_tags":"landuse=residential; place=informal"},"geometry":{"type":"Polygon","coordinates":[[[36.84212,-1.31143],[36.84186,-1.31193],[36.84234,-1.31215],[36.84239,-1.31218],[36.84242,-1.3122],[36.84244,-1.31224],[36.84249,-1.3123],[36.84402,-1.31255],[36.84403,-1.31256],[36.84442,-1.31259],[36.84457,-1.31262],[36.8447,-1.31266],[36.84483,-1.31247],[36.84467,-1.31244],[36.84451,-1.31237],[36.84442,-1.31227],[36.84428,-1.31207],[36.84416,-1.31187],[36.8441,-1.31177],[36.844,-1.31164],[36.84398,-1.31162],[36.84395,-1.3116],[36.84387,-1.31157],[36.84384,-1.31156],[36.84372,-1.31152],[36.84365,-1.31148],[36.84359,-1.31145],[36.84348,-1.31133],[36.84334,-1.31112],[36.84326,-1.31086],[36.84315,-1.3107],[36.84298,-1.31085],[36.8428,-1.311],[36.84265,-1.31111],[36.84247,-1.31126],[36.84234,-1.31121],[36.84212,-1.31143]]]}},{"type":"Feature","properties":{"name":"Masai A Village","source_tags":"landuse=residential; place=informal"},"geometry":{"type":"Polygon","coordinates":[[[36.84977,-1.3138],[36.84976,-1.31386],[36.85101,-1.31466],[36.85114,-1.31478],[36.85127,-1.3149],[36.85147,-1.31509],[36.85154,-1.31517],[36.85159,-1.3152],[36.85178,-1.3153],[36.85183,-1.31532],[36.85203,-1.31544],[36.85217,-1.31554],[36.85238,-1.31564],[36.85247,-1.31571],[36.85255,-1.31576],[36.85256,-1.31578],[36.85257,-1.31579],[36.85248,-1.31584],[36.8523,-1.31596],[36.85216,-1.31606],[36.85208,-1.31611],[36.85196,-1.31617],[36.85185,-1.31624],[36.85162,-1.31634],[36.85159,-1.31635],[36.85145,-1.31642],[36.85129,-1.31649],[36.85123,-1.31652],[36.85108,-1.31658],[36.85098,-1.31661],[36.85101,-1.3167],[36.85103,-1.31676],[36.85106,-1.31678],[36.85112,-1.31677],[36.85121,-1.31675],[36.8513,-1.31673],[36.85139,-1.31669],[36.85143,-1.31667],[36.85157,-1.3166],[36.8517,-1.31655],[36.85175,-1.31652],[36.85191,-1.31644],[36.85207,-1.31638],[36.85208,-1.31637],[36.85214,-1.31635],[36.85221,-1.31632],[36.85229,-1.31626],[36.85231,-1.31624],[36.85235,-1.31621],[36.85238,-1.3162],[36.8526,-1.3161],[36.85273,-1.31603],[36.85284,-1.31593],[36.85289,-1.3159],[36.85297,-1.31587],[36.85309,-1.31582],[36.85312,-1.31581],[36.85313,-1.3158],[36.85311,-1.31578],[36.85306,-1.31575],[36.85297,-1.3157],[36.85288,-1.31564],[36.85283,-1.31561],[36.8527,-1.31557],[36.8526,-1.31553],[36.85251,-1.31548],[36.85248,-1.31546],[36.85244,-1.31544],[36.85219,-1.31534],[36.85216,-1.31531],[36.85213,-1.31524],[36.85212,-1.31518],[36.85193,-1.31504],[36.8517,-1.3149],[36.85142,-1.31471],[36.85126,-1.3146],[36.85119,-1.31453],[36.85115,-1.31444],[36.8511,-1.3143],[36.85104,-1.31412],[36.85102,-1.31409],[36.85101,-1.31407],[36.85099,-1.31404],[36.85097,-1.31401],[36.85076,-1.31375],[36.85058,-1.31353],[36.85057,-1.31352],[36.85056,-1.31351],[36.85055,-1.31349],[36.85053,-1.31349],[36.85052,-1.31348],[36.85051,-1.31348],[36.85048,-1.31347],[36.85043,-1.31345],[36.85033,-1.31343],[36.85023,-1.31342],[36.85021,-1.31342],[36.85017,-1.31342],[36.85012,-1.31342],[36.85007,-1.31342],[36.85004,-1.31342],[36.85001,-1.31343],[36.84988,-1.31345],[36.84985,-1.31347],[36.84983,-1.31348],[36.84982,-1.3135],[36.84982,-1.31352],[36.84981,-1.31357],[36.8498,-1.31361],[36.84977,-1.3138]]]}},{"type":"Feature","properties":{"name":"Hazina Market Village","source_tags":"amenity=marketplace; place=informal"},"geometry":{"type":"Polygon","coordinates":[[[36.84485,-1.31247],[36.84473,-1.31268],[36.84488,-1.31276],[36.84504,-1.31286],[36.84517,-1.31296],[36.84545,-1.31314],[36.84557,-1.31322],[36.8457,-1.31331],[36.84591,-1.31342],[36.84626,-1.31358],[36.8465,-1.3137],[36.84674,-1.31382],[36.84682,-1.31385],[36.84718,-1.314],[36.84738,-1.31409],[36.84745,-1.31394],[36.84747,-1.31372],[36.8474,-1.3137],[36.84726,-1.31366],[36.84718,-1.31363],[36.84704,-1.31358],[36.84692,-1.31353],[36.84687,-1.31352],[36.84679,-1.31348],[36.84673,-1.31344],[36.84668,-1.31342],[36.84662,-1.31337],[36.8465,-1.3133],[36.84638,-1.31321],[36.84623,-1.31312],[36.84604,-1.31299],[36.84594,-1.31295],[36.84582,-1.3129],[36.84575,-1.31286],[36.84566,-1.31281],[36.84553,-1.31273],[36.8454,-1.31263],[36.8453,-1.31256],[36.84523,-1.31254],[36.8451,-1.31252],[36.84499,-1.31249],[36.84485,-1.31247]]]}},{"type":"Feature","properties":{"name":"Kenya Wine Village","source_tags":"landuse=residential; place=informal"},"geometry":{"type":"Polygon","coordinates":[[[36.83887,-1.30669],[36.83873,-1.30681],[36.83915,-1.30738],[36.83917,-1.30736],[36.83928,-1.30727],[36.83943,-1.30716],[36.83959,-1.30704],[36.83979,-1.30687],[36.83998,-1.3067],[36.84011,-1.30659],[36.84033,-1.30639],[36.84037,-1.30635],[36.84039,-1.30635],[36.84041,-1.30634],[36.84042,-1.30633],[36.84042,-1.30632],[36.84037,-1.30631],[36.84029,-1.3063],[36.84023,-1.3063],[36.83997,-1.30632],[36.83975,-1.30637],[36.83969,-1.30637],[36.83915,-1.30646],[36.83907,-1.30651],[36.83902,-1.30656],[36.83887,-1.30669]]]}},{"type":"Feature","properties":{"name":"Kaferera Village","source_tags":"landuse=residential; place=informal"},"geometry":{"type":"Polygon","coordinates":[[[36.83552,-1.30617],[36.83549,-1.30619],[36.83561,-1.3063],[36.83575,-1.30652],[36.83579,-1.30658],[36.83582,-1.30664],[36.83584,-1.3067],[36.83585,-1.30679],[36.83587,-1.3071],[36.83588,-1.30716],[36.83589,-1.30719],[36.8359,-1.30722],[36.83604,-1.30747],[36.83614,-1.30758],[36.83638,-1.30771],[36.83666,-1.30782],[36.83676,-1.30782],[36.83674,-1.30778],[36.83673,-1.30776],[36.83653,-1.30733],[36.83631,-1.30692],[36.83614,-1.30662],[36.83604,-1.30649],[36.83593,-1.30638],[36.83589,-1.30635],[36.83586,-1.3063],[36.83582,-1.30622],[36.83578,-1.30615],[36.83572,-1.30611],[36.83567,-1.30612],[36.83556,-1.30616],[36.83552,-1.30617]]]}},{"type":"Feature","properties":{"name":"Commercial Village","source_tags":"landuse=residential; place=informal"},"geometry":{"type":"Polygon","coordinates":[[[36.83774,-1.30768],[36.83765,-1.30772],[36.83768,-1.30776],[36.83775,-1.30775],[36.83783,-1.30772],[36.83803,-1.30766],[36.8382,-1.30763],[36.8384,-1.3076],[36.83861,-1.30756],[36.83881,-1.3075],[36.839,-1.30744],[36.83914,-1.30739],[36.83872,-1.30684],[36.83871,-1.30682],[36.83859,-1.30695],[36.83845,-1.30707],[36.83821,-1.30728],[36.83815,-1.30732],[36.83807,-1.30739],[36.83794,-1.30751],[36.83785,-1.3076],[36.83779,-1.30762],[36.83772,-1.30764],[36.83774,-1.30768]]]}},{"type":"Feature","properties":{"name":"Masai Mater village","source_tags":"landuse=residential; place=informal"},"geometry":{"type":"Polygon","coordinates":[[[36.83387,-1.30794],[36.83372,-1.30792],[36.83375,-1.3081],[36.83377,-1.30819],[36.83382,-1.30819],[36.83397,-1.30819],[36.83415,-1.30818],[36.83433,-1.30819],[36.83446,-1.3082],[36.83462,-1.30821],[36.83474,-1.30825],[36.835,-1.30835],[36.83516,-1.30844],[36.83528,-1.30852],[36.83535,-1.30858],[36.83564,-1.3088],[36.83596,-1.3091],[36.83602,-1.30906],[36.83533,-1.30839],[36.83483,-1.30813],[36.83475,-1.3081],[36.83464,-1.30807],[36.83431,-1.30801],[36.83417,-1.30798],[36.83403,-1.30796],[36.83387,-1.30794]]]}},{"type":"Feature","properties":{"name":"Kangemi","source_tags":"landuse=residential"},"geometry":{"type":"Polygon","coordinates":[[[36.74134,-1.26477],[36.74118,-1.26481],[36.74129,-1.26532],[36.74135,-1.26552],[36.74139,-1.26567],[36.74143,-1.26582],[36.74159,-1.26619],[36.74165,-1.26647],[36.74172,-1.26676],[36.74196,-1.26769],[36.74206,-1.26808],[36.74216,-1.26871],[36.74237,-1.26861],[36.74285,-1.26863],[36.74312,-1.26871],[36.74354,-1.26873],[36.74435,-1.26879],[36.74463,-1.26883],[36.74508,-1.26881],[36.74527,-1.26879],[36.7455,-1.26873],[36.7457,-1.26859],[36.74586,-1.26853],[36.74601,-1.26855],[36.74625,-1.26863],[36.74655,-1.26872],[36.74686,-1.26876],[36.7471,-1.26869],[36.74729,-1.2687],[36.74762,-1.26879],[36.74776,-1.26879],[36.74796,-1.26876],[36.74814,-1.26875],[36.74828,-1.26874],[36.74835,-1.26877],[36.74855,-1.2689],[36.7487,-1.26897],[36.74893,-1.26895],[36.74932,-1.26885],[36.74962,-1.26882],[36.74996,-1.2688],[36.75019,-1.26879],[36.75045,-1.26889],[36.75073,-1.26905],[36.75098,-1.26936],[36.75125,-1.26963],[36.75146,-1.26985],[36.75156,-1.27017],[36.75158,-1.27063],[36.75157,-1.27088],[36.75162,-1.27126],[36.75173,-1.2714],[36.75182,-1.2717],[36.75191,-1.27184],[36.75193,-1.27192],[36.75196,-1.27205],[36.75196,-1.27223],[36.75197,-1.27235],[36.75202,-1.27262],[36.75203,-1.27284],[36.75203,-1.27317],[36.75203,-1.27333],[36.75194,-1.27367],[36.75191,-1.27388],[36.7519,-1.27446],[36.75188,-1.27488],[36.75214,-1.27465],[36.75237,-1.27445],[36.7526,-1.2744],[36.75283,-1.27431],[36.75306,-1.27428],[36.75327,-1.27421],[36.75344,-1.27412],[36.75379,-1.27406],[36.75405,-1.27397],[36.75403,-1.27381],[36.75405,-1.27365],[36.7544,-1.27358],[36.75463,-1.2736],[36.75469,-1.27359],[36.75482,-1.27356],[36.75496,-1.27353],[36.75524,-1.27359],[36.75544,-1.27377],[36.75561,-1.27372],[36.75567,-1.27372],[36.75582,-1.27372],[36.7559,-1.2737],[36.75598,-1.27367],[36.75608,-1.27362],[36.75618,-1.27359],[36.75635,-1.27352],[36.75652,-1.27347],[36.75679,-1.27352],[36.75691,-1.27351],[36.75708,-1.27352],[36.75717,-1.27353],[36.75723,-1.27352],[36.75737,-1.27352],[36.75748,-1.27353],[36.75759,-1.27352],[36.75776,-1.27352],[36.75791,-1.27352],[36.75798,-1.27351],[36.75806,-1.27351],[36.7581,-1.27349],[36.75816,-1.2735],[36.75823,-1.27349],[36.75829,-1.2735],[36.75838,-1.27343],[36.75847,-1.27339],[36.75853,-1.27337],[36.75867,-1.27326],[36.75886,-1.27305],[36.75891,-1.27293],[36.75891,-1.27292],[36.75898,-1.27274],[36.75897,-1.27256],[36.75899,-1.27234],[36.75901,-1.2722],[36.75893,-1.27209],[36.7589,-1.27197],[36.75886,-1.27191],[36.75882,-1.27188],[36.75864,-1.27183],[36.75851,-1.27174],[36.75845,-1.27162],[36.75845,-1.27156],[36.75843,-1.2715],[36.75842,-1.27142],[36.75843,-1.27129],[36.75844,-1.27116],[36.75861,-1.27095],[36.75902,-1.27081],[36.76,-1.27033],[36.76075,-1.27009],[36.76101,-1.2705],[36.76121,-1.27057],[36.76143,-1.27059],[36.76179,-1.27053],[36.76193,-1.27042],[36.76207,-1.27033],[36.76233,-1.27012],[36.76273,-1.27003],[36.7627,-1.26966],[36.76327,-1.26941],[36.76359,-1.26947],[36.76418,-1.26925],[36.76422,-1.26914],[36.76422,-1.26895],[36.76423,-1.26885],[36.76414,-1.26876],[36.76406,-1.26866],[36.76404,-1.26858],[36.76405,-1.26846],[36.764,-1.2683],[36.76341,-1.26799],[36.76331,-1.26796],[36.76279,-1.26771],[36.76236,-1.26754],[36.75991,-1.26663],[36.75924,-1.26648],[36.75849,-1.26619],[36.75692,-1.26576],[36.75628,-1.26558],[36.75568,-1.26537],[36.75514,-1.26512],[36.7552,-1.26435],[36.75437,-1.26429],[36.75393,-1.2643],[36.75323,-1.26436],[36.75257,-1.26437],[36.75188,-1.2644],[36.75053,-1.26444],[36.74963,-1.26452],[36.74923,-1.26448],[36.74902,-1.26446],[36.7482,-1.26448],[36.74747,-1.26442],[36.74683,-1.26445],[36.74597,-1.26457],[36.74508,-1.2646],[36.74447,-1.2646],[36.74353,-1.26465],[36.74258,-1.2647],[36.74208,-1.26472],[36.74157,-1.26476],[36.74134,-1.26477]]]}},{"type":"Feature","properties":{"name":"Kayole Soweto","source_tags":"place=neighbourhood"},"geometry":{"type":"Polygon","coordinates":[[[36.9078,-1.28822],[36.90683,-1.28926],[36.90761,-1.29013],[36.90759,-1.29025],[36.90792,-1.29066],[36.90852,-1.29161],[36.90897,-1.29244],[36.90923,-1.29202],[36.90975,-1.29193],[36.91014,-1.29208],[36.91096,-1.29243],[36.91145,-1.29258],[36.91207,-1.29202],[36.91222,-1.29155],[36.91243,-1.29092],[36.91268,-1.29058],[36.91295,-1.29069],[36.9133,-1.29092],[36.91345,-1.29092],[36.9136,-1.29106],[36.91401,-1.29099],[36.9145,-1.2908],[36.9148,-1.2906],[36.91529,-1.29032],[36.91562,-1.29001],[36.91566,-1.28983],[36.91583,-1.28961],[36.91607,-1.28938],[36.91589,-1.28916],[36.91579,-1.28905],[36.91556,-1.28872],[36.9154,-1.28834],[36.9152,-1.28816],[36.91501,-1.28778],[36.91501,-1.28739],[36.9151,-1.28727],[36.91526,-1.28721],[36.91544,-1.28709],[36.91568,-1.2869],[36.91609,-1.28685],[36.91637,-1.28683],[36.91645,-1.28679],[36.91654,-1.28663],[36.91665,-1.28629],[36.91672,-1.28606],[36.91692,-1.28565],[36.91688,-1.28547],[36.91696,-1.2853],[36.91717,-1.28515],[36.9174,-1.28491],[36.91765,-1.28466],[36.91778,-1.28452],[36.91791,-1.28436],[36.91804,-1.28415],[36.91815,-1.28395],[36.91832,-1.2837],[36.91837,-1.28346],[36.91844,-1.2832],[36.91849,-1.28305],[36.91857,-1.28293],[36.91867,-1.28269],[36.91856,-1.28268],[36.91835,-1.28266],[36.91797,-1.28262],[36.91733,-1.28257],[36.91678,-1.28245],[36.9161,-1.28224],[36.91566,-1.282],[36.91531,-1.28177],[36.91484,-1.28152],[36.91442,-1.28133],[36.91371,-1.28102],[36.91323,-1.28081],[36.91282,-1.28067],[36.91232,-1.28052],[36.91204,-1.28045],[36.91175,-1.28035],[36.91149,-1.28025],[36.91126,-1.28015],[36.91087,-1.27993],[36.91065,-1.27976],[36.91049,-1.27962],[36.90998,-1.27916],[36.90957,-1.27886],[36.90929,-1.27869],[36.90872,-1.27842],[36.90828,-1.27821],[36.90798,-1.27807],[36.90796,-1.27811],[36.90747,-1.27861],[36.90704,-1.27899],[36.90707,-1.27901],[36.90719,-1.27908],[36.90737,-1.27919],[36.90759,-1.27928],[36.90849,-1.27961],[36.90783,-1.28142],[36.90784,-1.28148],[36.90791,-1.28162],[36.90868,-1.28307],[36.90937,-1.28352],[36.91019,-1.28338],[36.90965,-1.28462],[36.90954,-1.28497],[36.90926,-1.28556],[36.90953,-1.28575],[36.90929,-1.2862],[36.90889,-1.28698],[36.90818,-1.28822],[36.90781,-1.28817],[36.9078,-1.28822]]]}},{"type":"Feature","properties":{"name":"Githogoro","source_tags":"boundary=administrative; landuse=residential; place=suburb"},"geometry":{"type":"Polygon","coordinates":[[[36.82749,-1.21689],[36.82757,-1.21656],[36.82015,-1.21224],[36.82036,-1.2141],[36.82064,-1.21537],[36.82081,-1.21601],[36.82098,-1.21628],[36.82098,-1.21673],[36.82099,-1.21692],[36.82105,-1.21702],[36.82101,-1.21791],[36.82098,-1.21836],[36.82096,-1.21883],[36.82102,-1.21879],[36.8211,-1.21862],[36.82136,-1.21844],[36.82188,-1.21804],[36.82257,-1.21777],[36.82386,-1.21771],[36.82474,-1.21771],[36.82533,-1.2181],[36.826,-1.21856],[36.82638,-1.21798],[36.8265,-1.21784],[36.82727,-1.21803],[36.82749,-1.21689]]]}},{"type":"Feature","properties":{"name":"Korogocho","source_tags":"description=may be refer to as informal settlement; landuse=residential; place=neighbourhood"},"geometry":{"type":"Polygon","coordinates":[[[36.88698,-1.254],[36.88531,-1.25577],[36.88602,-1.25643],[36.88579,-1.25676],[36.88545,-1.25727],[36.88556,-1.25739],[36.88578,-1.25762],[36.8858,-1.25762],[36.88658,-1.25792],[36.88673,-1.25782],[36.887,-1.25703],[36.88691,-1.2568],[36.88706,-1.25623],[36.88745,-1.25583],[36.88762,-1.25591],[36.88796,-1.25579],[36.8881,-1.2557],[36.88831,-1.25521],[36.88833,-1.25495],[36.88842,-1.2549],[36.88829,-1.25462],[36.88851,-1.25441],[36.88904,-1.25458],[36.88925,-1.25425],[36.88956,-1.25433],[36.89028,-1.25412],[36.89048,-1.25379],[36.8903,-1.25353],[36.89005,-1.25318],[36.89063,-1.25269],[36.8906,-1.25268],[36.89087,-1.25236],[36.89151,-1.25208],[36.89164,-1.25236],[36.89188,-1.25234],[36.8921,-1.25293],[36.89246,-1.25289],[36.89282,-1.25287],[36.8932,-1.25265],[36.89329,-1.25254],[36.89329,-1.25247],[36.89329,-1.25239],[36.89275,-1.25175],[36.89306,-1.25149],[36.89286,-1.25097],[36.8928,-1.25081],[36.89277,-1.25079],[36.89265,-1.25071],[36.89252,-1.25058],[36.89247,-1.25054],[36.8925,-1.25048],[36.89253,-1.25027],[36.89234,-1.24968],[36.89213,-1.24911],[36.89205,-1.24885],[36.89197,-1.2486],[36.89147,-1.24735],[36.89124,-1.24733],[36.89147,-1.24693],[36.89148,-1.24685],[36.89145,-1.24685],[36.89128,-1.24685],[36.89131,-1.24676],[36.89178,-1.24638],[36.89174,-1.24636],[36.89167,-1.24628],[36.89158,-1.24616],[36.89154,-1.24609],[36.89148,-1.24601],[36.89147,-1.24599],[36.8914,-1.2459],[36.8913,-1.24575],[36.89117,-1.24586],[36.89111,-1.24591],[36.89108,-1.24594],[36.89107,-1.24595],[36.89101,-1.24597],[36.89063,-1.246],[36.89037,-1.24623],[36.89006,-1.24704],[36.88917,-1.24706],[36.88912,-1.24721],[36.8886,-1.24787],[36.88851,-1.24816],[36.88873,-1.2486],[36.88847,-1.24873],[36.88808,-1.2492],[36.88758,-1.2493],[36.8875,-1.24963],[36.88683,-1.24954],[36.88665,-1.24985],[36.88667,-1.25122],[36.88678,-1.25144],[36.88683,-1.25165],[36.88673,-1.25194],[36.88649,-1.25226],[36.88617,-1.25245],[36.88639,-1.25265],[36.88713,-1.2518],[36.8877,-1.25249],[36.88741,-1.25267],[36.88733,-1.25281],[36.88727,-1.25287],[36.88722,-1.25293],[36.88713,-1.25288],[36.88704,-1.25296],[36.88677,-1.25295],[36.8867,-1.2532],[36.88653,-1.25363],[36.88698,-1.254]]]}},{"type":"Feature","properties":{"name":"Makina","source_tags":"admin_level=10; boundary=administrative; place=village; source=aerial.maps.jsintl.org"},"geometry":{"type":"Polygon","coordinates":[[[36.78242,-1.30749],[36.78175,-1.30831],[36.78183,-1.30839],[36.78211,-1.30858],[36.78255,-1.30885],[36.78254,-1.309],[36.78254,-1.30907],[36.78254,-1.30916],[36.78253,-1.30939],[36.7828,-1.30941],[36.78313,-1.30941],[36.78311,-1.30911],[36.78309,-1.30882],[36.78387,-1.30879],[36.7839,-1.30963],[36.78477,-1.30963],[36.78479,-1.30989],[36.78481,-1.31015],[36.78506,-1.31013],[36.78508,-1.31042],[36.7851,-1.31059],[36.78533,-1.31059],[36.78534,-1.31073],[36.78536,-1.31091],[36.78538,-1.31104],[36.78538,-1.3111],[36.78536,-1.31114],[36.78538,-1.31119],[36.78542,-1.31121],[36.78546,-1.3112],[36.7856,-1.31115],[36.78571,-1.31111],[36.78576,-1.31106],[36.78581,-1.31111],[36.786,-1.31134],[36.78605,-1.31141],[36.78617,-1.31156],[36.78618,-1.31157],[36.78637,-1.31149],[36.78652,-1.31141],[36.78662,-1.31137],[36.78674,-1.31152],[36.78706,-1.31137],[36.78728,-1.31125],[36.78961,-1.31006],[36.79007,-1.30985],[36.79051,-1.30971],[36.79101,-1.30958],[36.79115,-1.30955],[36.79148,-1.30948],[36.79186,-1.30943],[36.79236,-1.30943],[36.79293,-1.30945],[36.79293,-1.30939],[36.79276,-1.30924],[36.7925,-1.30926],[36.79214,-1.30928],[36.79203,-1.30925],[36.79182,-1.30918],[36.79166,-1.30914],[36.79148,-1.30908],[36.79134,-1.30899],[36.7912,-1.30889],[36.79115,-1.30883],[36.7911,-1.30873],[36.79107,-1.30869],[36.79102,-1.3086],[36.79097,-1.30851],[36.79092,-1.30844],[36.79087,-1.30836],[36.79083,-1.30829],[36.7908,-1.30822],[36.79074,-1.30811],[36.79066,-1.30795],[36.79058,-1.30779],[36.79051,-1.30766],[36.79045,-1.30755],[36.79032,-1.30734],[36.79015,-1.307],[36.79007,-1.3069],[36.78987,-1.30671],[36.78971,-1.30663],[36.78958,-1.30654],[36.78946,-1.30648],[36.78938,-1.30646],[36.78924,-1.30636],[36.78911,-1.30629],[36.78903,-1.30625],[36.78897,-1.30622],[36.78876,-1.3061],[36.78856,-1.30596],[36.78827,-1.30578],[36.788,-1.30564],[36.78776,-1.30558],[36.78751,-1.30594],[36.78729,-1.30611],[36.78704,-1.30627],[36.78692,-1.30629],[36.78684,-1.30629],[36.78671,-1.30627],[36.78659,-1.30623],[36.78635,-1.30614],[36.78611,-1.30606],[36.78593,-1.30599],[36.78575,-1.30591],[36.78563,-1.30587],[36.7855,-1.30585],[36.7854,-1.30583],[36.7852,-1.30582],[36.78502,-1.30584],[36.78477,-1.30592],[36.78462,-1.30599],[36.78442,-1.30607],[36.78414,-1.30619],[36.78394,-1.3063],[36.7838,-1.30639],[36.78367,-1.30647],[36.78359,-1.30652],[36.78339,-1.30665],[36.78319,-1.30679],[36.7829,-1.30701],[36.78273,-1.30716],[36.78256,-1.30732],[36.78242,-1.30749]]]}},{"type":"Feature","properties":{"name":"Soweto Slum","source_tags":"landuse=residential; residential=urban"},"geometry":{"type":"Polygon","coordinates":[[[36.90659,-1.18749],[36.90639,-1.18884],[36.90639,-1.18905],[36.90644,-1.18967],[36.90647,-1.18991],[36.90738,-1.19015],[36.90819,-1.19011],[36.90727,-1.19113],[36.90879,-1.19197],[36.91021,-1.19306],[36.91068,-1.19231],[36.91094,-1.19189],[36.91093,-1.19177],[36.91096,-1.19164],[36.91097,-1.19158],[36.911,-1.19149],[36.91106,-1.19136],[36.91125,-1.19136],[36.91136,-1.19138],[36.91145,-1.19141],[36.91185,-1.19159],[36.91246,-1.19193],[36.91285,-1.19207],[36.91294,-1.19209],[36.913,-1.19212],[36.91303,-1.19214],[36.91313,-1.19219],[36.91318,-1.19222],[36.91321,-1.19223],[36.91323,-1.19225],[36.91324,-1.19225],[36.91326,-1.19226],[36.91327,-1.19227],[36.9133,-1.19228],[36.91334,-1.1923],[36.91352,-1.19238],[36.91356,-1.19241],[36.9136,-1.19242],[36.91368,-1.19247],[36.91379,-1.19253],[36.91404,-1.19268],[36.91421,-1.19274],[36.91431,-1.19278],[36.9144,-1.19278],[36.91443,-1.19271],[36.91446,-1.19265],[36.91453,-1.19251],[36.91458,-1.1924],[36.91461,-1.19232],[36.91462,-1.19223],[36.91463,-1.19212],[36.91463,-1.1918],[36.91464,-1.19167],[36.9146,-1.19154],[36.91454,-1.19142],[36.9145,-1.19129],[36.91446,-1.19121],[36.91416,-1.19058],[36.91398,-1.19037],[36.91388,-1.19041],[36.91358,-1.1906],[36.91272,-1.1912],[36.91209,-1.18961],[36.91215,-1.18911],[36.91203,-1.18908],[36.91184,-1.18918],[36.90975,-1.18691],[36.90963,-1.18688],[36.90868,-1.18656],[36.90713,-1.18598],[36.90695,-1.18611],[36.90683,-1.18645],[36.90659,-1.18749]]]}},{"type":"Feature","properties":{"name":"New Mathare","source_tags":"landuse=residential"},"geometry":{"type":"Polygon","coordinates":[[[36.87414,-1.26099],[36.87408,-1.26201],[36.87459,-1.26209],[36.87545,-1.26222],[36.87638,-1.26236],[36.87715,-1.26246],[36.87754,-1.26249],[36.87791,-1.26247],[36.8785,-1.26239],[36.87868,-1.26215],[36.87881,-1.26191],[36.87879,-1.26128],[36.87878,-1.26036],[36.87876,-1.2591],[36.87874,-1.2583],[36.87867,-1.25729],[36.87864,-1.25625],[36.87863,-1.25546],[36.87853,-1.25542],[36.8784,-1.25543],[36.87651,-1.25652],[36.87508,-1.25732],[36.87449,-1.25766],[36.8744,-1.25774],[36.87436,-1.25781],[36.87434,-1.2583],[36.87425,-1.25962],[36.87414,-1.26099]]]}},{"type":"Feature","properties":{"name":"Kiamaiko","source_tags":"landuse=residential"},"geometry":{"type":"Polygon","coordinates":[[[36.87286,-1.25382],[36.87273,-1.25388],[36.87287,-1.25419],[36.8734,-1.25548],[36.87362,-1.25595],[36.87387,-1.25658],[36.8741,-1.25711],[36.87435,-1.25763],[36.87492,-1.25729],[36.87556,-1.25694],[36.87643,-1.25644],[36.87731,-1.25594],[36.87814,-1.25548],[36.87862,-1.25522],[36.87861,-1.2544],[36.87858,-1.25386],[36.87857,-1.25329],[36.87856,-1.25289],[36.87853,-1.25171],[36.87848,-1.25137],[36.87842,-1.25103],[36.87834,-1.25075],[36.87823,-1.2504],[36.87811,-1.2501],[36.87795,-1.24985],[36.87782,-1.24997],[36.87773,-1.25008],[36.87767,-1.25016],[36.87755,-1.25026],[36.87742,-1.25037],[36.87727,-1.25056],[36.87718,-1.25069],[36.87716,-1.2508],[36.87719,-1.25096],[36.87724,-1.25106],[36.87731,-1.25127],[36.87727,-1.2514],[36.87719,-1.25151],[36.87706,-1.25158],[36.87693,-1.25165],[36.87684,-1.25172],[36.87679,-1.25179],[36.87675,-1.25186],[36.87674,-1.25193],[36.87671,-1.252],[36.87666,-1.25205],[36.87656,-1.25209],[36.87641,-1.25217],[36.87632,-1.25219],[36.87622,-1.2522],[36.87601,-1.25217],[36.87588,-1.25219],[36.87578,-1.25223],[36.87568,-1.25227],[36.87556,-1.25234],[36.87544,-1.25238],[36.87536,-1.25243],[36.87527,-1.25249],[36.87521,-1.25251],[36.87505,-1.25255],[36.87484,-1.25259],[36.8746,-1.25263],[36.87446,-1.25265],[36.87437,-1.25264],[36.87426,-1.25261],[36.87416,-1.25264],[36.87407,-1.25269],[36.87394,-1.25278],[36.87373,-1.25296],[36.87356,-1.25307],[36.87336,-1.25317],[36.87328,-1.25323],[36.8732,-1.2533],[36.87306,-1.25341],[36.87299,-1.25353],[36.87295,-1.25362],[36.87292,-1.25373],[36.87286,-1.25382]]]}},{"type":"Feature","properties":{"name":"Gatwekera","source_tags":"admin_level=10; boundary=administrative; place=village"},"geometry":{"type":"Polygon","coordinates":[[[36.77854,-1.31655],[36.77844,-1.31661],[36.77853,-1.31672],[36.77866,-1.31692],[36.77867,-1.31705],[36.77868,-1.3173],[36.77866,-1.31734],[36.77867,-1.31739],[36.77873,-1.31753],[36.7788,-1.3176],[36.77885,-1.31762],[36.7789,-1.31763],[36.77902,-1.3176],[36.77909,-1.31761],[36.77918,-1.31759],[36.77928,-1.31758],[36.77935,-1.3176],[36.77951,-1.31752],[36.77969,-1.31748],[36.77994,-1.31744],[36.78006,-1.31752],[36.78009,-1.31755],[36.78019,-1.31759],[36.78032,-1.3176],[36.78052,-1.31757],[36.78079,-1.31752],[36.78084,-1.31751],[36.78102,-1.31736],[36.78113,-1.31725],[36.78122,-1.31719],[36.78132,-1.31716],[36.7814,-1.31715],[36.78159,-1.31717],[36.78172,-1.31722],[36.78186,-1.31728],[36.78203,-1.31733],[36.78225,-1.3174],[36.78252,-1.31743],[36.78271,-1.31735],[36.78296,-1.31725],[36.78306,-1.31715],[36.78313,-1.31702],[36.78322,-1.31693],[36.78337,-1.31681],[36.78346,-1.31674],[36.78354,-1.3167],[36.78359,-1.31665],[36.78371,-1.31658],[36.78375,-1.31664],[36.78381,-1.3166],[36.78383,-1.31657],[36.78389,-1.31655],[36.78394,-1.31651],[36.78397,-1.3165],[36.78404,-1.31648],[36.78408,-1.31646],[36.78414,-1.31647],[36.78418,-1.31646],[36.78424,-1.31645],[36.7843,-1.31642],[36.78437,-1.31639],[36.78441,-1.31636],[36.78445,-1.31633],[36.78449,-1.3163],[36.78454,-1.31629],[36.78457,-1.31626],[36.78461,-1.31626],[36.78466,-1.31623],[36.7847,-1.31622],[36.78478,-1.31619],[36.78485,-1.31614],[36.78494,-1.3161],[36.785,-1.3161],[36.78503,-1.31609],[36.78506,-1.31609],[36.78507,-1.31606],[36.78514,-1.31604],[36.78517,-1.31605],[36.78524,-1.31601],[36.78528,-1.31602],[36.78531,-1.31604],[36.78541,-1.31604],[36.78543,-1.31603],[36.78546,-1.316],[36.78548,-1.316],[36.7855,-1.31603],[36.78554,-1.31604],[36.78561,-1.31605],[36.78566,-1.31607],[36.78576,-1.31613],[36.78579,-1.31614],[36.78586,-1.31617],[36.78591,-1.3162],[36.78594,-1.31619],[36.78599,-1.31618],[36.78602,-1.3162],[36.78606,-1.31616],[36.7861,-1.31616],[36.78614,-1.31614],[36.78619,-1.31611],[36.78623,-1.31609],[36.78627,-1.31608],[36.7863,-1.31606],[36.78633,-1.31606],[36.78636,-1.31607],[36.78641,-1.31605],[36.78646,-1.31603],[36.78652,-1.316],[36.78657,-1.31597],[36.78664,-1.31595],[36.78672,-1.31595],[36.78679,-1.31592],[36.78688,-1.3159],[36.78696,-1.31588],[36.78705,-1.31587],[36.78711,-1.31589],[36.78713,-1.31589],[36.78719,-1.31586],[36.78724,-1.31584],[36.78729,-1.31583],[36.78733,-1.31581],[36.7874,-1.31581],[36.78753,-1.31576],[36.7876,-1.3157],[36.78764,-1.31569],[36.78766,-1.31568],[36.78768,-1.31563],[36.78772,-1.31563],[36.78776,-1.31561],[36.78779,-1.31561],[36.78782,-1.3156],[36.78788,-1.31554],[36.78791,-1.3155],[36.78796,-1.31547],[36.78799,-1.31545],[36.78801,-1.31543],[36.78803,-1.31543],[36.78804,-1.31542],[36.78806,-1.3154],[36.78807,-1.31539],[36.78808,-1.31538],[36.7881,-1.31536],[36.78813,-1.31536],[36.78815,-1.31532],[36.78817,-1.31531],[36.78819,-1.31529],[36.78821,-1.31526],[36.78822,-1.31523],[36.78825,-1.31521],[36.7883,-1.31518],[36.78832,-1.31516],[36.78833,-1.31514],[36.78836,-1.31513],[36.78839,-1.3151],[36.78841,-1.31508],[36.78844,-1.31504],[36.78844,-1.31501],[36.78845,-1.31497],[36.78847,-1.31493],[36.7885,-1.31489],[36.78853,-1.31485],[36.78856,-1.31478],[36.78859,-1.31473],[36.78863,-1.31468],[36.78866,-1.31464],[36.78869,-1.31461],[36.78855,-1.31461],[36.78844,-1.31464],[36.78835,-1.31467],[36.78823,-1.31471],[36.78803,-1.31476],[36.78786,-1.31477],[36.78777,-1.31477],[36.78773,-1.31475],[36.78761,-1.31475],[36.78748,-1.31475],[36.78738,-1.31474],[36.78727,-1.31472],[36.7871,-1.3147],[36.78703,-1.31468],[36.78697,-1.31465],[36.78686,-1.3146],[36.78678,-1.31453],[36.78673,-1.31452],[36.78658,-1.31448],[36.78646,-1.31444],[36.7863,-1.31438],[36.78627,-1.31432],[36.78621,-1.31431],[36.78607,-1.31429],[36.78601,-1.31428],[36.78595,-1.31429],[36.78588,-1.31431],[36.78577,-1.31431],[36.78566,-1.31431],[36.78559,-1.31427],[36.78557,-1.31422],[36.78554,-1.3142],[36.7855,-1.31419],[36.78532,-1.3141],[36.78527,-1.31407],[36.78523,-1.31404],[36.78516,-1.31398],[36.78509,-1.31392],[36.7851,-1.3139],[36.78505,-1.31387],[36.78505,-1.31385],[36.78497,-1.31382],[36.78488,-1.31379],[36.78481,-1.31375],[36.78475,-1.31373],[36.78468,-1.31372],[36.78463,-1.31372],[36.78455,-1.31373],[36.78446,-1.31374],[36.78427,-1.31372],[36.78407,-1.31367],[36.78402,-1.31365],[36.78392,-1.31363],[36.78372,-1.31351],[36.78367,-1.31348],[36.78361,-1.31344],[36.78358,-1.31343],[36.78351,-1.31339],[36.78336,-1.31327],[36.78331,-1.31328],[36.78318,-1.31334],[36.78292,-1.31346],[36.78274,-1.31354],[36.78263,-1.31359],[36.78249,-1.31365],[36.78211,-1.31383],[36.78176,-1.31399],[36.78167,-1.31403],[36.78158,-1.31408],[36.78141,-1.31416],[36.78131,-1.31422],[36.78113,-1.3143],[36.7809,-1.31441],[36.78084,-1.31444],[36.78059,-1.31456],[36.78042,-1.31465],[36.7803,-1.3147],[36.78033,-1.31475],[36.78007,-1.31487],[36.78005,-1.31482],[36.77994,-1.31487],[36.77972,-1.31497],[36.77964,-1.31501],[36.77948,-1.31509],[36.7794,-1.31512],[36.77932,-1.31516],[36.77917,-1.31522],[36.77898,-1.31529],[36.7789,-1.31532],[36.77867,-1.31534],[36.77869,-1.31553],[36.77869,-1.3156],[36.77872,-1.31565],[36.77869,-1.31569],[36.77864,-1.31578],[36.77866,-1.31581],[36.77866,-1.31584],[36.77861,-1.3159],[36.77859,-1.31595],[36.7786,-1.31596],[36.77858,-1.31603],[36.77857,-1.31613],[36.77855,-1.31617],[36.77857,-1.31623],[36.7786,-1.31628],[36.7786,-1.31633],[36.77861,-1.31637],[36.77862,-1.3164],[36.77862,-1.31642],[36.77861,-1.31647],[36.77858,-1.31652],[36.77854,-1.31655]]]}},{"type":"Feature","properties":{"name":"Lindi","source_tags":"admin_level=10; boundary=administrative; place=village"},"geometry":{"type":"Polygon","coordinates":[[[36.78969,-1.31282],[36.78958,-1.31292],[36.78967,-1.313],[36.78973,-1.31303],[36.78982,-1.3131],[36.7898,-1.31312],[36.78992,-1.3132],[36.79003,-1.3133],[36.79018,-1.3134],[36.79021,-1.31343],[36.79024,-1.31345],[36.79032,-1.31348],[36.79079,-1.31374],[36.7906,-1.31412],[36.79017,-1.3146],[36.78998,-1.31482],[36.78993,-1.31487],[36.78993,-1.31495],[36.78995,-1.31501],[36.78998,-1.315],[36.79005,-1.31501],[36.79015,-1.31508],[36.79019,-1.31508],[36.79023,-1.31512],[36.79027,-1.31514],[36.79032,-1.31518],[36.79037,-1.31526],[36.79034,-1.31531],[36.79031,-1.31536],[36.79029,-1.31543],[36.79025,-1.31549],[36.79024,-1.31554],[36.79023,-1.31558],[36.79024,-1.31567],[36.79022,-1.31579],[36.79019,-1.31597],[36.79018,-1.31606],[36.79021,-1.31622],[36.79017,-1.31638],[36.79014,-1.31652],[36.79017,-1.31661],[36.79017,-1.31666],[36.79024,-1.3167],[36.79033,-1.31675],[36.79036,-1.31683],[36.79043,-1.31684],[36.79051,-1.31686],[36.79056,-1.31684],[36.79067,-1.3168],[36.79086,-1.31677],[36.791,-1.31677],[36.79109,-1.31679],[36.79111,-1.31681],[36.79118,-1.31678],[36.79125,-1.31676],[36.79131,-1.31676],[36.79135,-1.31677],[36.79142,-1.31679],[36.79151,-1.31688],[36.79157,-1.31699],[36.79159,-1.31709],[36.7916,-1.31712],[36.79161,-1.31712],[36.79162,-1.31714],[36.79168,-1.31721],[36.79173,-1.31724],[36.79176,-1.31726],[36.79181,-1.31727],[36.79185,-1.3173],[36.79189,-1.31731],[36.79196,-1.31731],[36.79198,-1.31735],[36.792,-1.31742],[36.792,-1.31745],[36.792,-1.31751],[36.792,-1.31765],[36.79199,-1.31779],[36.792,-1.31785],[36.79205,-1.31791],[36.7921,-1.31795],[36.79214,-1.31798],[36.79217,-1.31801],[36.79224,-1.31803],[36.79234,-1.3181],[36.79241,-1.31818],[36.79245,-1.31821],[36.7925,-1.31824],[36.79257,-1.31829],[36.7926,-1.3183],[36.79263,-1.31831],[36.79271,-1.31834],[36.79274,-1.31835],[36.79278,-1.31835],[36.79278,-1.31838],[36.79281,-1.31838],[36.79284,-1.31837],[36.79287,-1.31836],[36.7929,-1.31834],[36.79293,-1.31833],[36.79296,-1.31832],[36.79298,-1.31835],[36.79303,-1.31834],[36.79308,-1.31832],[36.79314,-1.31829],[36.79321,-1.31827],[36.79329,-1.31826],[36.79337,-1.31828],[36.7934,-1.31829],[36.79345,-1.31832],[36.79353,-1.31835],[36.7936,-1.31836],[36.79372,-1.31841],[36.79377,-1.31844],[36.79382,-1.31848],[36.79385,-1.31851],[36.79387,-1.31848],[36.79389,-1.31845],[36.79393,-1.31839],[36.79402,-1.31825],[36.79406,-1.31825],[36.79418,-1.3181],[36.79435,-1.3182],[36.79442,-1.3181],[36.79428,-1.31801],[36.79416,-1.31792],[36.79412,-1.3179],[36.79415,-1.31779],[36.7942,-1.31773],[36.79418,-1.31771],[36.79419,-1.31762],[36.79425,-1.31754],[36.79424,-1.31752],[36.79425,-1.31749],[36.79426,-1.31747],[36.79431,-1.31742],[36.79435,-1.31737],[36.79437,-1.31738],[36.79447,-1.31724],[36.79453,-1.31715],[36.79459,-1.31706],[36.79463,-1.31705],[36.79471,-1.31696],[36.79474,-1.31697],[36.79476,-1.31694],[36.79479,-1.3169],[36.79483,-1.31686],[36.79486,-1.31681],[36.79485,-1.3168],[36.79492,-1.3167],[36.79494,-1.31667],[36.79499,-1.31658],[36.79502,-1.31649],[36.7951,-1.31641],[36.79514,-1.31637],[36.79518,-1.31627],[36.79521,-1.31614],[36.79524,-1.31593],[36.79526,-1.31573],[36.7953,-1.31548],[36.79535,-1.31527],[36.79538,-1.31515],[36.7954,-1.31505],[36.7954,-1.31504],[36.79542,-1.31496],[36.79542,-1.31495],[36.79544,-1.31485],[36.79555,-1.31463],[36.79564,-1.31466],[36.79564,-1.31455],[36.79559,-1.31447],[36.79557,-1.31442],[36.79548,-1.31433],[36.79541,-1.3142],[36.79533,-1.31412],[36.79528,-1.31407],[36.79522,-1.31406],[36.79515,-1.31409],[36.79501,-1.31409],[36.79489,-1.31408],[36.79477,-1.31403],[36.79471,-1.31397],[36.79468,-1.31394],[36.79461,-1.31384],[36.79451,-1.31377],[36.79446,-1.31372],[36.79435,-1.31362],[36.79425,-1.31356],[36.79416,-1.31355],[36.79405,-1.31352],[36.794,-1.31345],[36.79395,-1.31344],[36.79381,-1.31346],[36.79366,-1.31347],[36.79355,-1.31347],[36.79351,-1.31346],[36.7934,-1.3134],[36.79328,-1.31339],[36.79324,-1.31341],[36.79317,-1.31346],[36.79303,-1.31347],[36.79293,-1.31346],[36.79283,-1.31344],[36.79276,-1.3134],[36.79267,-1.31338],[36.79262,-1.31333],[36.79247,-1.31329],[36.7924,-1.31317],[36.79237,-1.31317],[36.79224,-1.31312],[36.79218,-1.31308],[36.79217,-1.31302],[36.79215,-1.313],[36.79214,-1.31299],[36.79204,-1.31304],[36.79195,-1.31308],[36.79182,-1.31311],[36.79175,-1.31303],[36.79173,-1.31295],[36.79171,-1.31281],[36.79169,-1.3127],[36.79165,-1.31259],[36.79154,-1.31241],[36.791,-1.31216],[36.7909,-1.31204],[36.79078,-1.3119],[36.79075,-1.31182],[36.79072,-1.31178],[36.79068,-1.3118],[36.79064,-1.31184],[36.79062,-1.31189],[36.7906,-1.3119],[36.7906,-1.31193],[36.79055,-1.31197],[36.79049,-1.31201],[36.7905,-1.31203],[36.79044,-1.31207],[36.79041,-1.31207],[36.79039,-1.31207],[36.79036,-1.3121],[36.79032,-1.31212],[36.7903,-1.31209],[36.79024,-1.31212],[36.7902,-1.31208],[36.79019,-1.31205],[36.79016,-1.31203],[36.79013,-1.31199],[36.79002,-1.31205],[36.79014,-1.31225],[36.79016,-1.31229],[36.79011,-1.31232],[36.79014,-1.31237],[36.79017,-1.31242],[36.7902,-1.31248],[36.79017,-1.3125],[36.79014,-1.31252],[36.79013,-1.31253],[36.79007,-1.31257],[36.79006,-1.31259],[36.78998,-1.31266],[36.78992,-1.31272],[36.78985,-1.31279],[36.78983,-1.31279],[36.78981,-1.31281],[36.7898,-1.31281],[36.78977,-1.31284],[36.78974,-1.31287],[36.78969,-1.31282]]]}},{"type":"Feature","properties":{"name":"Soweto East","source_tags":"admin_level=10; boundary=administrative; place=village"},"geometry":{"type":"Polygon","coordinates":[[[36.79719,-1.3158],[36.79707,-1.3159],[36.79727,-1.31602],[36.79747,-1.31615],[36.79779,-1.31623],[36.79794,-1.31618],[36.79804,-1.31615],[36.79845,-1.31603],[36.79904,-1.31605],[36.79917,-1.31613],[36.79936,-1.31626],[36.79952,-1.31635],[36.7996,-1.31637],[36.79968,-1.3164],[36.79977,-1.31644],[36.79996,-1.31653],[36.80012,-1.3166],[36.8003,-1.3167],[36.80045,-1.3168],[36.80075,-1.31696],[36.80107,-1.31699],[36.80113,-1.31678],[36.80116,-1.31667],[36.8013,-1.31629],[36.80139,-1.31629],[36.8015,-1.31635],[36.80193,-1.31653],[36.80219,-1.31654],[36.80226,-1.31593],[36.80248,-1.31588],[36.80296,-1.31581],[36.80318,-1.31576],[36.80344,-1.31571],[36.80379,-1.31565],[36.80406,-1.3156],[36.80409,-1.31559],[36.80417,-1.31556],[36.80429,-1.3155],[36.80446,-1.31543],[36.8047,-1.31531],[36.80489,-1.31523],[36.80497,-1.31519],[36.80504,-1.31517],[36.80534,-1.31504],[36.80572,-1.31488],[36.80606,-1.31474],[36.80749,-1.31421],[36.80749,-1.3142],[36.80746,-1.31418],[36.80745,-1.31415],[36.80743,-1.31414],[36.80734,-1.31418],[36.80703,-1.31429],[36.80671,-1.31441],[36.80637,-1.31453],[36.80632,-1.31445],[36.80573,-1.31466],[36.80523,-1.31482],[36.80513,-1.31479],[36.80531,-1.31457],[36.80542,-1.31443],[36.80549,-1.31433],[36.80556,-1.31424],[36.80558,-1.3142],[36.80562,-1.31409],[36.80565,-1.31401],[36.80568,-1.31393],[36.80573,-1.31381],[36.80581,-1.31353],[36.80587,-1.31328],[36.80596,-1.31295],[36.80605,-1.31261],[36.80609,-1.31236],[36.80613,-1.31218],[36.80614,-1.31208],[36.80581,-1.31149],[36.80574,-1.3117],[36.80568,-1.31192],[36.80558,-1.31228],[36.80553,-1.31247],[36.80548,-1.31264],[36.80545,-1.31278],[36.80542,-1.31293],[36.8054,-1.31305],[36.80539,-1.31317],[36.80537,-1.31327],[36.80534,-1.31335],[36.80531,-1.31346],[36.80528,-1.31351],[36.80527,-1.31357],[36.80523,-1.31369],[36.80519,-1.31377],[36.80511,-1.31393],[36.80506,-1.31403],[36.80499,-1.31413],[36.80495,-1.31418],[36.8049,-1.31424],[36.80485,-1.31431],[36.80478,-1.31439],[36.80472,-1.31446],[36.80466,-1.31451],[36.80463,-1.31452],[36.80452,-1.31461],[36.80439,-1.31468],[36.80426,-1.31474],[36.80414,-1.3148],[36.80415,-1.31484],[36.80407,-1.31489],[36.804,-1.31492],[36.80383,-1.31496],[36.8036,-1.315],[36.80337,-1.31502],[36.80309,-1.315],[36.80284,-1.31495],[36.80269,-1.31492],[36.8025,-1.31484],[36.80238,-1.31475],[36.80225,-1.31467],[36.80217,-1.31449],[36.80197,-1.31443],[36.80187,-1.31431],[36.80177,-1.31421],[36.80159,-1.31402],[36.80151,-1.31394],[36.80137,-1.31381],[36.80124,-1.31368],[36.80096,-1.31342],[36.80074,-1.31319],[36.80061,-1.31307],[36.80051,-1.31297],[36.80036,-1.31282],[36.80021,-1.31268],[36.79994,-1.31243],[36.79976,-1.3123],[36.79956,-1.31215],[36.79941,-1.31204],[36.79934,-1.31199],[36.79933,-1.31196],[36.79932,-1.31192],[36.79935,-1.31181],[36.79937,-1.31173],[36.79937,-1.31168],[36.79936,-1.31154],[36.79936,-1.31139],[36.79933,-1.3114],[36.79923,-1.31157],[36.79916,-1.31166],[36.79914,-1.31169],[36.79909,-1.31176],[36.79906,-1.31181],[36.79898,-1.31192],[36.79892,-1.31201],[36.79886,-1.31219],[36.79883,-1.31224],[36.79879,-1.31232],[36.79866,-1.31256],[36.79843,-1.31284],[36.79831,-1.31284],[36.79821,-1.31292],[36.79811,-1.313],[36.79798,-1.31309],[36.79788,-1.31316],[36.79778,-1.31322],[36.79762,-1.31319],[36.79752,-1.3132],[36.7974,-1.31322],[36.79711,-1.31326],[36.79716,-1.31334],[36.79725,-1.31348],[36.79728,-1.3135],[36.7973,-1.31352],[36.79761,-1.31386],[36.79759,-1.31402],[36.79761,-1.3142],[36.79767,-1.31443],[36.79763,-1.31463],[36.79757,-1.31476],[36.79752,-1.31487],[36.79746,-1.31502],[36.79744,-1.31513],[36.79742,-1.31518],[36.79743,-1.31523],[36.79744,-1.31534],[36.79739,-1.31554],[36.79736,-1.31566],[36.79719,-1.3158]]]}},{"type":"Feature","properties":{"name":"Mathare North Area3","source_tags":"landuse=residential"},"geometry":{"type":"Polygon","coordinates":[[[36.86391,-1.25715],[36.86387,-1.25735],[36.86388,-1.25766],[36.86394,-1.25787],[36.86402,-1.25809],[36.86409,-1.25823],[36.8642,-1.25806],[36.8643,-1.25784],[36.8644,-1.25766],[36.86449,-1.25748],[36.86459,-1.25733],[36.86467,-1.25721],[36.86475,-1.25714],[36.86482,-1.25712],[36.86494,-1.2571],[36.86506,-1.25712],[36.86524,-1.25718],[36.86531,-1.25721],[36.8654,-1.25722],[36.86552,-1.25721],[36.86572,-1.25718],[36.86585,-1.25718],[36.86601,-1.25719],[36.86626,-1.25719],[36.86645,-1.25714],[36.86667,-1.25707],[36.86693,-1.25699],[36.86715,-1.25693],[36.86735,-1.25686],[36.86762,-1.25673],[36.86784,-1.25663],[36.86798,-1.25658],[36.86814,-1.25655],[36.86831,-1.25654],[36.86846,-1.25654],[36.86866,-1.25652],[36.86876,-1.25647],[36.86884,-1.25639],[36.86891,-1.25626],[36.86896,-1.25617],[36.86906,-1.25606],[36.86914,-1.2559],[36.86922,-1.25574],[36.86927,-1.2556],[36.86932,-1.25548],[36.8694,-1.25537],[36.86952,-1.25524],[36.86959,-1.25514],[36.86962,-1.25506],[36.86966,-1.25497],[36.86975,-1.25487],[36.86982,-1.25475],[36.86989,-1.25467],[36.86999,-1.25458],[36.87009,-1.25449],[36.87032,-1.25431],[36.87048,-1.25424],[36.87075,-1.25415],[36.87068,-1.25386],[36.87056,-1.25341],[36.87088,-1.25333],[36.87098,-1.2533],[36.87113,-1.25327],[36.87127,-1.25317],[36.87132,-1.25314],[36.87134,-1.25309],[36.87134,-1.25292],[36.87125,-1.25264],[36.87119,-1.25237],[36.87114,-1.2522],[36.87103,-1.2517],[36.87089,-1.25124],[36.87039,-1.25137],[36.86921,-1.25165],[36.86903,-1.25169],[36.86835,-1.25187],[36.86783,-1.25202],[36.86762,-1.25209],[36.86756,-1.25211],[36.86752,-1.25214],[36.86742,-1.25221],[36.86739,-1.25225],[36.86733,-1.25231],[36.86725,-1.25241],[36.86721,-1.25248],[36.86718,-1.2526],[36.86717,-1.25269],[36.86706,-1.25332],[36.86702,-1.25354],[36.86693,-1.254],[36.86692,-1.25407],[36.86686,-1.25441],[36.8668,-1.25478],[36.86676,-1.25487],[36.86675,-1.25489],[36.86669,-1.255],[36.86657,-1.25517],[36.86629,-1.25542],[36.86626,-1.25545],[36.86609,-1.25559],[36.86563,-1.25588],[36.86508,-1.25614],[36.86489,-1.25624],[36.86455,-1.25643],[36.86431,-1.25659],[36.86415,-1.25673],[36.86405,-1.25686],[36.86396,-1.25703],[36.86391,-1.25715]]]}},{"type":"Feature","properties":{"name":"Laini Saba","source_tags":"admin_level=10; boundary=administrative; place=village"},"geometry":{"type":"Polygon","coordinates":[[[36.79299,-1.30935],[36.79296,-1.30969],[36.79303,-1.31003],[36.79309,-1.31035],[36.79317,-1.31092],[36.79323,-1.31106],[36.79331,-1.31117],[36.79335,-1.31128],[36.7933,-1.31138],[36.79326,-1.31149],[36.79326,-1.3116],[36.79328,-1.31174],[36.79336,-1.31211],[36.79346,-1.31225],[36.7935,-1.31238],[36.79373,-1.31243],[36.79388,-1.31264],[36.79389,-1.31272],[36.79387,-1.31284],[36.7938,-1.31304],[36.79381,-1.31311],[36.7939,-1.31317],[36.79401,-1.31321],[36.79422,-1.31338],[36.7943,-1.31349],[36.79435,-1.31357],[36.79444,-1.31365],[36.79454,-1.31374],[36.79466,-1.31384],[36.7948,-1.314],[36.79488,-1.31404],[36.795,-1.31405],[36.79513,-1.31405],[36.7952,-1.31401],[36.79527,-1.31402],[36.79539,-1.31412],[36.79542,-1.31417],[36.79547,-1.31423],[36.79547,-1.31424],[36.79553,-1.31432],[36.79561,-1.3144],[36.79568,-1.31453],[36.79566,-1.31466],[36.79569,-1.31467],[36.79576,-1.31467],[36.79584,-1.31467],[36.7959,-1.31463],[36.79592,-1.31462],[36.79601,-1.31456],[36.79606,-1.31452],[36.79612,-1.31448],[36.79617,-1.31444],[36.79629,-1.31462],[36.79642,-1.31481],[36.79649,-1.31491],[36.7966,-1.31502],[36.7967,-1.31514],[36.79687,-1.3152],[36.79704,-1.31526],[36.79716,-1.3153],[36.79728,-1.31532],[36.79734,-1.31532],[36.79742,-1.31533],[36.79739,-1.31515],[36.79745,-1.31493],[36.79751,-1.31479],[36.79754,-1.31475],[36.7976,-1.31462],[36.79762,-1.31457],[36.79762,-1.31456],[36.79762,-1.31452],[36.79764,-1.31444],[36.79764,-1.31443],[36.79762,-1.31438],[36.79759,-1.31424],[36.79758,-1.31415],[36.79755,-1.31403],[36.79758,-1.31387],[36.79745,-1.31372],[36.7973,-1.31353],[36.79725,-1.31349],[36.79714,-1.31336],[36.79706,-1.31322],[36.79709,-1.31322],[36.79742,-1.31319],[36.79751,-1.31317],[36.79762,-1.31316],[36.79778,-1.31319],[36.79785,-1.31316],[36.79789,-1.31312],[36.79809,-1.31297],[36.79829,-1.31281],[36.79837,-1.3128],[36.7984,-1.3128],[36.79856,-1.31264],[36.79865,-1.31249],[36.7987,-1.31241],[36.79876,-1.31232],[36.79881,-1.31221],[36.79886,-1.31212],[36.79885,-1.31201],[36.79891,-1.31187],[36.79894,-1.3118],[36.79896,-1.31177],[36.79831,-1.31145],[36.79804,-1.31131],[36.79775,-1.31117],[36.79762,-1.31109],[36.79747,-1.31101],[36.79712,-1.31084],[36.79678,-1.31066],[36.79644,-1.3105],[36.7962,-1.31037],[36.79588,-1.31016],[36.7954,-1.30992],[36.79515,-1.3098],[36.79488,-1.30966],[36.7948,-1.30965],[36.79454,-1.30961],[36.79432,-1.30956],[36.794,-1.3095],[36.79375,-1.30946],[36.79352,-1.30952],[36.79314,-1.30939],[36.79299,-1.30935]]]}},{"type":"Feature","properties":{"name":"Silanga","source_tags":"admin_level=10; boundary=administrative; place=village"},"geometry":{"type":"Polygon","coordinates":[[[36.7939,-1.31855],[36.79387,-1.31858],[36.79393,-1.31863],[36.79399,-1.31866],[36.79405,-1.31869],[36.79411,-1.31872],[36.79416,-1.31875],[36.79422,-1.31881],[36.79429,-1.31888],[36.79443,-1.31907],[36.79462,-1.31928],[36.79468,-1.31939],[36.79472,-1.31947],[36.79476,-1.3195],[36.79482,-1.3195],[36.79488,-1.3195],[36.79495,-1.31947],[36.79511,-1.31948],[36.79539,-1.31944],[36.79544,-1.31933],[36.79548,-1.31928],[36.79551,-1.31925],[36.79553,-1.31922],[36.79556,-1.3192],[36.79567,-1.31915],[36.79578,-1.31912],[36.79588,-1.31908],[36.79596,-1.31901],[36.79604,-1.31899],[36.79628,-1.31903],[36.79632,-1.31908],[36.79645,-1.31907],[36.79665,-1.31906],[36.79693,-1.31896],[36.79711,-1.31888],[36.79728,-1.3189],[36.79753,-1.31892],[36.79771,-1.31902],[36.798,-1.31901],[36.79829,-1.31895],[36.79862,-1.31894],[36.79905,-1.31881],[36.79953,-1.31866],[36.79975,-1.3186],[36.80004,-1.31847],[36.80032,-1.31826],[36.80043,-1.31807],[36.80055,-1.31797],[36.80061,-1.31789],[36.8007,-1.31785],[36.80083,-1.31771],[36.80096,-1.31744],[36.80102,-1.31707],[36.80067,-1.31699],[36.80042,-1.31685],[36.80039,-1.31684],[36.80031,-1.31676],[36.80027,-1.31673],[36.80016,-1.31664],[36.79999,-1.3166],[36.79992,-1.31656],[36.79962,-1.31642],[36.79954,-1.31639],[36.79944,-1.31633],[36.79909,-1.31611],[36.79902,-1.31611],[36.79887,-1.31608],[36.7988,-1.31608],[36.79851,-1.31607],[36.79838,-1.3161],[36.79828,-1.31612],[36.79821,-1.31613],[36.79814,-1.31616],[36.79805,-1.31619],[36.79792,-1.31623],[36.79778,-1.31627],[36.79757,-1.31621],[36.7975,-1.3162],[36.79744,-1.31619],[36.79729,-1.31607],[36.79719,-1.316],[36.79706,-1.31592],[36.79681,-1.3158],[36.79666,-1.31572],[36.79652,-1.31563],[36.79635,-1.31552],[36.79624,-1.31544],[36.79618,-1.31535],[36.79611,-1.31526],[36.79605,-1.31523],[36.79594,-1.31517],[36.79584,-1.31512],[36.7956,-1.31477],[36.79563,-1.31469],[36.79556,-1.31467],[36.79541,-1.3152],[36.79537,-1.31534],[36.79535,-1.31547],[36.79534,-1.31551],[36.79531,-1.3157],[36.79529,-1.31591],[36.79523,-1.31628],[36.79516,-1.31638],[36.79508,-1.31647],[36.79501,-1.31659],[36.79496,-1.31667],[36.79487,-1.31679],[36.79488,-1.31681],[36.79474,-1.31698],[36.79471,-1.31698],[36.79464,-1.31707],[36.7946,-1.31708],[36.79449,-1.31725],[36.79438,-1.3174],[36.79435,-1.31739],[36.79428,-1.31748],[36.79427,-1.31749],[36.79426,-1.31752],[36.79427,-1.31753],[36.7942,-1.31763],[36.7942,-1.31771],[36.79422,-1.31773],[36.79417,-1.31779],[36.79413,-1.31789],[36.79443,-1.3181],[36.79435,-1.31822],[36.79418,-1.31812],[36.79408,-1.31827],[36.79402,-1.31827],[36.79399,-1.31831],[36.79397,-1.31835],[36.79388,-1.31852],[36.7939,-1.31855]]]}},{"type":"Feature","properties":{"name":"Mathare 4A","source_tags":"landuse=residential"},"geometry":{"type":"Polygon","coordinates":[[[36.85541,-1.26114],[36.85526,-1.26134],[36.85531,-1.26138],[36.85538,-1.26142],[36.85546,-1.26146],[36.85551,-1.2615],[36.85554,-1.26155],[36.85558,-1.26166],[36.85562,-1.26175],[36.85571,-1.26186],[36.85593,-1.26209],[36.85618,-1.26234],[36.8563,-1.26246],[36.85637,-1.26248],[36.85651,-1.26252],[36.85661,-1.26258],[36.85669,-1.2626],[36.85674,-1.26261],[36.85686,-1.26258],[36.85698,-1.26255],[36.85707,-1.26254],[36.85714,-1.26253],[36.85721,-1.2625],[36.85738,-1.26241],[36.85755,-1.26234],[36.85765,-1.26231],[36.85776,-1.2623],[36.85783,-1.2623],[36.85791,-1.26231],[36.858,-1.26234],[36.85804,-1.26236],[36.85816,-1.26234],[36.8583,-1.26234],[36.85845,-1.26237],[36.8586,-1.26244],[36.85887,-1.26255],[36.85894,-1.26256],[36.85901,-1.26251],[36.85908,-1.2625],[36.85918,-1.2625],[36.85922,-1.26246],[36.85927,-1.26245],[36.85933,-1.26247],[36.85942,-1.26247],[36.85951,-1.26244],[36.85974,-1.26231],[36.85992,-1.26224],[36.86018,-1.26213],[36.86029,-1.26187],[36.86057,-1.26166],[36.86062,-1.26162],[36.86079,-1.26156],[36.86094,-1.2615],[36.86104,-1.26143],[36.86124,-1.26126],[36.86141,-1.26116],[36.86158,-1.26108],[36.86171,-1.26105],[36.86183,-1.261],[36.86194,-1.26091],[36.86201,-1.26083],[36.86205,-1.2607],[36.86205,-1.26057],[36.86202,-1.26046],[36.86193,-1.26032],[36.86189,-1.26023],[36.86186,-1.26015],[36.86185,-1.26006],[36.86186,-1.2598],[36.86191,-1.25946],[36.86198,-1.25928],[36.86201,-1.25911],[36.86204,-1.25902],[36.86211,-1.25893],[36.86215,-1.2589],[36.8622,-1.25888],[36.86223,-1.25888],[36.86229,-1.25889],[36.86236,-1.25893],[36.86245,-1.25896],[36.8625,-1.25895],[36.86258,-1.2589],[36.86273,-1.25882],[36.86284,-1.25875],[36.86289,-1.25869],[36.86326,-1.25852],[36.86337,-1.25849],[36.86351,-1.25845],[36.8637,-1.2584],[36.86396,-1.25823],[36.86387,-1.25804],[36.86381,-1.25788],[36.86375,-1.2577],[36.86371,-1.25759],[36.86369,-1.25749],[36.86369,-1.25742],[36.86371,-1.25729],[36.86374,-1.25717],[36.86383,-1.25696],[36.86394,-1.25663],[36.86391,-1.25636],[36.8638,-1.25584],[36.86366,-1.25527],[36.86352,-1.25529],[36.86346,-1.25533],[36.86331,-1.25546],[36.86319,-1.25561],[36.86316,-1.25567],[36.86315,-1.25578],[36.86313,-1.25594],[36.86308,-1.25612],[36.86296,-1.25651],[36.86289,-1.25666],[36.86284,-1.25671],[36.86278,-1.25674],[36.86271,-1.25676],[36.86266,-1.25675],[36.86258,-1.25672],[36.86249,-1.25672],[36.8624,-1.25674],[36.86232,-1.25679],[36.86219,-1.25699],[36.86214,-1.2572],[36.86208,-1.25725],[36.86204,-1.25729],[36.86198,-1.25732],[36.86195,-1.25739],[36.86191,-1.2574],[36.86188,-1.25739],[36.8618,-1.25738],[36.86164,-1.25743],[36.8616,-1.25742],[36.86147,-1.25751],[36.86137,-1.25755],[36.86128,-1.25757],[36.86122,-1.25761],[36.86111,-1.25775],[36.86106,-1.25784],[36.86103,-1.25805],[36.86103,-1.25811],[36.86097,-1.25818],[36.86089,-1.25826],[36.86081,-1.25842],[36.86071,-1.25858],[36.86054,-1.25883],[36.86045,-1.25905],[36.86037,-1.25926],[36.86032,-1.25939],[36.86026,-1.25949],[36.86019,-1.25956],[36.86008,-1.25965],[36.86002,-1.25971],[36.85999,-1.25978],[36.85995,-1.25986],[36.85983,-1.25999],[36.85977,-1.2601],[36.85975,-1.26018],[36.85976,-1.26028],[36.85973,-1.26034],[36.85967,-1.26039],[36.8596,-1.26042],[36.85953,-1.26043],[36.85946,-1.26043],[36.85939,-1.26045],[36.85932,-1.26046],[36.8593,-1.26046],[36.85924,-1.26046],[36.85916,-1.26045],[36.85906,-1.26048],[36.85899,-1.2605],[36.85892,-1.26053],[36.8587,-1.26071],[36.85859,-1.2608],[36.85851,-1.26087],[36.85848,-1.26092],[36.85843,-1.26098],[36.85837,-1.26103],[36.85831,-1.26108],[36.85827,-1.2611],[36.85823,-1.26113],[36.85817,-1.26118],[36.85813,-1.26119],[36.85808,-1.2612],[36.85784,-1.26121],[36.85781,-1.26122],[36.85777,-1.26125],[36.85772,-1.26127],[36.85767,-1.26127],[36.85759,-1.26129],[36.85748,-1.26133],[36.85743,-1.26136],[36.85737,-1.26138],[36.85729,-1.2614],[36.85718,-1.2614],[36.85702,-1.2614],[36.85698,-1.2614],[36.85696,-1.26143],[36.8569,-1.26144],[36.85679,-1.26145],[36.85673,-1.26147],[36.85666,-1.26151],[36.85662,-1.26151],[36.85659,-1.26152],[36.85654,-1.26152],[36.85649,-1.26152],[36.85643,-1.26153],[36.85637,-1.26153],[36.85629,-1.26149],[36.85594,-1.26117],[36.85575,-1.261],[36.85561,-1.26088],[36.85553,-1.26096],[36.85541,-1.26114]]]}},{"type":"Feature","properties":{"name":"Kosovo","source_tags":"landuse=residential"},"geometry":{"type":"Polygon","coordinates":[[[36.84801,-1.26287],[36.84795,-1.26297],[36.84796,-1.26306],[36.84812,-1.26331],[36.84828,-1.26351],[36.84852,-1.2637],[36.84871,-1.26381],[36.84874,-1.26383],[36.84877,-1.26399],[36.84879,-1.26408],[36.84888,-1.26414],[36.84902,-1.26418],[36.84914,-1.26417],[36.84923,-1.26413],[36.84927,-1.26412],[36.84933,-1.26411],[36.84942,-1.26409],[36.84957,-1.26404],[36.84976,-1.26399],[36.84992,-1.26396],[36.85006,-1.26388],[36.85023,-1.26385],[36.85034,-1.26377],[36.85041,-1.26367],[36.85038,-1.26357],[36.85052,-1.26345],[36.85055,-1.26345],[36.8506,-1.26345],[36.85067,-1.26345],[36.85075,-1.26349],[36.85082,-1.26354],[36.8509,-1.26359],[36.85096,-1.26363],[36.85103,-1.26368],[36.85109,-1.26373],[36.85118,-1.26375],[36.85125,-1.26378],[36.85143,-1.26386],[36.85162,-1.26393],[36.85173,-1.26399],[36.85195,-1.26421],[36.85202,-1.26421],[36.85212,-1.26415],[36.85226,-1.26409],[36.85244,-1.26383],[36.85256,-1.26374],[36.85261,-1.26372],[36.85274,-1.26373],[36.85279,-1.26373],[36.85285,-1.26373],[36.8529,-1.26374],[36.85296,-1.26371],[36.85304,-1.26368],[36.85314,-1.26363],[36.8533,-1.2636],[36.85342,-1.2636],[36.85358,-1.26363],[36.85381,-1.26373],[36.85399,-1.26373],[36.85422,-1.2638],[36.85434,-1.26383],[36.85448,-1.26385],[36.85469,-1.26387],[36.85476,-1.26387],[36.85485,-1.26387],[36.85499,-1.26386],[36.85509,-1.26381],[36.85522,-1.26379],[36.85577,-1.264],[36.85586,-1.26405],[36.85596,-1.26405],[36.8561,-1.26402],[36.85619,-1.26399],[36.85629,-1.26395],[36.8564,-1.26394],[36.85652,-1.26392],[36.85658,-1.26394],[36.85673,-1.26398],[36.85691,-1.26402],[36.85732,-1.26411],[36.85788,-1.26414],[36.85816,-1.26413],[36.85822,-1.26411],[36.85835,-1.26407],[36.85862,-1.26399],[36.85892,-1.26394],[36.859,-1.26383],[36.85895,-1.26367],[36.85885,-1.26347],[36.85883,-1.26333],[36.85878,-1.26319],[36.85897,-1.26306],[36.85923,-1.26284],[36.85934,-1.26272],[36.85934,-1.26256],[36.85917,-1.26252],[36.85909,-1.26253],[36.85902,-1.26255],[36.85896,-1.26259],[36.85887,-1.26258],[36.85872,-1.26252],[36.85858,-1.26247],[36.85847,-1.26243],[36.85829,-1.26239],[36.85817,-1.26238],[36.85805,-1.2624],[36.8579,-1.2624],[36.85774,-1.26238],[36.8576,-1.26238],[36.8575,-1.26241],[36.85733,-1.26253],[36.8572,-1.26266],[36.85711,-1.26269],[36.85696,-1.26271],[36.85682,-1.2627],[36.85674,-1.26266],[36.85664,-1.26262],[36.85655,-1.26262],[36.85649,-1.26263],[36.85642,-1.26262],[36.85633,-1.26256],[36.85622,-1.26247],[36.85609,-1.26232],[36.85589,-1.2621],[36.85564,-1.26183],[36.85556,-1.26171],[36.85554,-1.26163],[36.85551,-1.26154],[36.85542,-1.26147],[36.85534,-1.26144],[36.85525,-1.26137],[36.85516,-1.26129],[36.85503,-1.26113],[36.85495,-1.26107],[36.85489,-1.26097],[36.85475,-1.26075],[36.8546,-1.26061],[36.85442,-1.26048],[36.8541,-1.26025],[36.85362,-1.26091],[36.85413,-1.26134],[36.85461,-1.26178],[36.85491,-1.26209],[36.85497,-1.26215],[36.85501,-1.26222],[36.85501,-1.26226],[36.85499,-1.26231],[36.85485,-1.26244],[36.85453,-1.26273],[36.85439,-1.26285],[36.85437,-1.26286],[36.85355,-1.26277],[36.85271,-1.26268],[36.85201,-1.26264],[36.85164,-1.2626],[36.85146,-1.26259],[36.85127,-1.26257],[36.85083,-1.26254],[36.85052,-1.26251],[36.85035,-1.2625],[36.85018,-1.26252],[36.85007,-1.26254],[36.85001,-1.26256],[36.84996,-1.26259],[36.84992,-1.26261],[36.84981,-1.26261],[36.84971,-1.26261],[36.84963,-1.26263],[36.84957,-1.26262],[36.84943,-1.26255],[36.84937,-1.26256],[36.84926,-1.26269],[36.84916,-1.26284],[36.84908,-1.26296],[36.84904,-1.26304],[36.84896,-1.26316],[36.84874,-1.26356],[36.84815,-1.26285],[36.84801,-1.26287]]]}},{"type":"Feature","properties":{"name":"Mathare Village 1","source_tags":"landuse=residential"},"geometry":{"type":"Polygon","coordinates":[[[36.84298,-1.26342],[36.84298,-1.26348],[36.84298,-1.26363],[36.843,-1.26377],[36.84302,-1.26399],[36.84304,-1.26407],[36.84306,-1.26414],[36.84308,-1.26419],[36.84314,-1.26434],[36.84316,-1.26444],[36.84319,-1.26454],[36.84324,-1.2646],[36.84329,-1.26466],[36.8433,-1.2647],[36.84335,-1.26497],[36.84342,-1.26525],[36.84355,-1.26602],[36.84362,-1.26634],[36.8437,-1.26671],[36.84382,-1.26722],[36.84385,-1.26728],[36.84403,-1.26722],[36.84442,-1.26712],[36.84456,-1.26709],[36.8447,-1.26706],[36.84483,-1.26703],[36.84518,-1.26697],[36.84527,-1.26695],[36.84587,-1.26681],[36.84641,-1.2667],[36.84726,-1.26653],[36.84761,-1.26645],[36.84747,-1.26584],[36.84735,-1.26523],[36.84721,-1.26446],[36.84711,-1.26387],[36.84708,-1.26364],[36.84699,-1.26302],[36.84682,-1.26291],[36.84654,-1.26283],[36.84637,-1.26279],[36.84628,-1.26275],[36.84621,-1.2627],[36.84611,-1.26264],[36.84596,-1.26264],[36.84588,-1.26258],[36.84577,-1.26262],[36.84568,-1.2627],[36.84562,-1.26283],[36.84549,-1.26301],[36.84537,-1.26311],[36.8453,-1.26313],[36.84524,-1.2632],[36.84513,-1.26325],[36.84483,-1.26318],[36.84469,-1.26317],[36.84455,-1.26311],[36.84435,-1.2631],[36.84425,-1.26309],[36.84411,-1.26313],[36.84393,-1.26313],[36.84374,-1.26318],[36.84354,-1.26323],[36.84335,-1.26325],[36.84319,-1.26325],[36.84311,-1.2633],[36.84302,-1.26336],[36.84298,-1.26342]]]}},{"type":"Feature","properties":{"name":"Mathare North Area4","source_tags":"landuse=residential"},"geometry":{"type":"Polygon","coordinates":[[[36.86198,-1.25352],[36.86156,-1.2536],[36.86165,-1.2542],[36.8617,-1.25448],[36.86189,-1.25544],[36.86198,-1.25607],[36.86209,-1.2566],[36.86211,-1.25693],[36.8622,-1.2568],[36.86224,-1.25674],[36.86234,-1.25666],[36.86243,-1.25663],[36.86252,-1.25662],[36.86266,-1.25663],[36.86274,-1.25664],[36.8628,-1.2566],[36.86283,-1.25653],[36.86286,-1.25644],[36.86286,-1.25617],[36.86287,-1.25611],[36.86289,-1.25608],[36.86298,-1.25604],[36.86299,-1.256],[36.86299,-1.25582],[36.863,-1.25575],[36.86303,-1.25571],[36.86306,-1.25567],[36.86312,-1.25559],[36.86316,-1.25549],[36.86322,-1.25541],[36.86332,-1.25534],[36.86338,-1.25528],[36.86345,-1.25523],[36.86355,-1.2552],[36.86366,-1.25518],[36.86382,-1.25584],[36.86393,-1.25635],[36.86396,-1.2565],[36.86399,-1.25673],[36.86424,-1.25654],[36.86434,-1.25647],[36.86453,-1.25634],[36.86489,-1.25613],[36.86535,-1.25587],[36.86595,-1.25553],[36.8662,-1.25534],[36.86648,-1.25511],[36.86654,-1.25503],[36.86661,-1.25493],[36.86667,-1.25481],[36.8667,-1.2547],[36.8668,-1.25419],[36.86691,-1.25351],[36.86693,-1.25342],[36.86706,-1.25274],[36.86709,-1.25259],[36.8671,-1.25252],[36.86709,-1.25245],[36.86708,-1.2524],[36.86704,-1.25237],[36.86699,-1.25235],[36.86692,-1.25234],[36.86681,-1.25235],[36.86663,-1.25239],[36.86631,-1.25247],[36.866,-1.25255],[36.86584,-1.25258],[36.86543,-1.25269],[36.86454,-1.25293],[36.8636,-1.25315],[36.86326,-1.25322],[36.86304,-1.25327],[36.86284,-1.25332],[36.86231,-1.25344],[36.86198,-1.25352]]]}},{"type":"Feature","properties":{"name":"Kianda","source_tags":"admin_level=10; boundary=administrative; landuse=residential; place=village"},"geometry":{"type":"Polygon","coordinates":[[[36.77184,-1.30954],[36.77176,-1.30962],[36.77182,-1.30965],[36.77196,-1.30979],[36.77198,-1.30985],[36.77196,-1.30994],[36.77192,-1.31004],[36.77189,-1.31009],[36.77188,-1.31015],[36.77188,-1.31024],[36.77188,-1.31031],[36.77188,-1.31041],[36.7719,-1.31048],[36.77192,-1.31058],[36.77194,-1.31064],[36.77196,-1.31067],[36.772,-1.31071],[36.77203,-1.31078],[36.77206,-1.31081],[36.77209,-1.31084],[36.77211,-1.31088],[36.77213,-1.31094],[36.77217,-1.31101],[36.77217,-1.31102],[36.77219,-1.31105],[36.7722,-1.31107],[36.77224,-1.31112],[36.77226,-1.31118],[36.77229,-1.31128],[36.77232,-1.31132],[36.77234,-1.31136],[36.77237,-1.3114],[36.77239,-1.31146],[36.77244,-1.31154],[36.77251,-1.31168],[36.77256,-1.31174],[36.77262,-1.31178],[36.77266,-1.31177],[36.77275,-1.31181],[36.7728,-1.31186],[36.77284,-1.3119],[36.77288,-1.31193],[36.77297,-1.31202],[36.773,-1.31207],[36.77302,-1.31209],[36.77305,-1.31215],[36.77309,-1.31224],[36.77314,-1.31233],[36.77316,-1.31236],[36.77321,-1.31239],[36.77323,-1.31251],[36.77326,-1.31254],[36.77331,-1.31256],[36.77335,-1.31262],[36.77343,-1.31267],[36.77347,-1.3127],[36.77351,-1.31274],[36.77356,-1.31276],[36.77358,-1.31281],[36.77364,-1.31289],[36.77376,-1.31299],[36.77394,-1.3132],[36.77401,-1.31325],[36.77414,-1.31341],[36.77421,-1.31349],[36.77428,-1.31354],[36.77433,-1.31357],[36.77443,-1.31363],[36.77448,-1.31364],[36.77455,-1.31363],[36.77462,-1.31365],[36.77472,-1.3136],[36.77479,-1.31358],[36.77489,-1.31357],[36.77492,-1.31358],[36.77496,-1.31357],[36.77501,-1.31357],[36.77504,-1.31359],[36.77507,-1.31357],[36.77519,-1.31356],[36.77531,-1.31357],[36.77543,-1.3136],[36.77547,-1.31363],[36.77554,-1.31368],[36.77555,-1.3137],[36.77558,-1.3137],[36.77566,-1.31369],[36.77592,-1.31369],[36.77617,-1.31364],[36.7762,-1.31364],[36.77616,-1.31341],[36.77612,-1.31319],[36.77612,-1.31312],[36.77612,-1.31304],[36.77614,-1.31295],[36.77617,-1.31276],[36.77622,-1.31264],[36.77624,-1.3126],[36.77627,-1.31249],[36.7763,-1.3124],[36.77632,-1.31237],[36.77635,-1.31227],[36.77646,-1.31207],[36.7765,-1.31199],[36.77655,-1.31188],[36.77663,-1.31176],[36.77671,-1.31163],[36.77679,-1.31148],[36.77676,-1.31146],[36.77669,-1.3114],[36.77652,-1.31127],[36.77637,-1.31119],[36.77628,-1.31114],[36.77616,-1.31111],[36.77608,-1.31109],[36.77589,-1.31106],[36.77577,-1.31106],[36.77573,-1.31106],[36.77563,-1.31106],[36.77546,-1.31105],[36.77542,-1.31105],[36.77521,-1.31104],[36.77511,-1.31104],[36.77505,-1.31103],[36.77487,-1.311],[36.77471,-1.31097],[36.7745,-1.31089],[36.77432,-1.3108],[36.7743,-1.31078],[36.77414,-1.31068],[36.77411,-1.31066],[36.77405,-1.3106],[36.77396,-1.31054],[36.77389,-1.3105],[36.77382,-1.31041],[36.7738,-1.31034],[36.7737,-1.31026],[36.77365,-1.31022],[36.77358,-1.31013],[36.77351,-1.31004],[36.77346,-1.30992],[36.77344,-1.30987],[36.77338,-1.30973],[36.77334,-1.30962],[36.77331,-1.30951],[36.77329,-1.30946],[36.77328,-1.30942],[36.77328,-1.30936],[36.77325,-1.30929],[36.77324,-1.30923],[36.77324,-1.30916],[36.77324,-1.30912],[36.77323,-1.30907],[36.77322,-1.30899],[36.77321,-1.30884],[36.77319,-1.30871],[36.77316,-1.3085],[36.77312,-1.30833],[36.7731,-1.30827],[36.77308,-1.30822],[36.77303,-1.30814],[36.77295,-1.30805],[36.77293,-1.30803],[36.77289,-1.308],[36.7728,-1.30795],[36.77275,-1.30793],[36.77268,-1.30791],[36.77256,-1.30789],[36.77245,-1.30787],[36.77235,-1.30787],[36.77227,-1.30789],[36.77218,-1.30794],[36.77206,-1.30804],[36.77194,-1.30816],[36.7719,-1.30823],[36.77188,-1.30826],[36.77187,-1.30829],[36.77186,-1.30832],[36.77184,-1.30838],[36.77183,-1.30848],[36.77184,-1.30857],[36.77185,-1.30867],[36.77186,-1.30879],[36.77187,-1.30886],[36.77188,-1.30893],[36.77189,-1.30898],[36.77191,-1.30908],[36.77195,-1.3093],[36.7719,-1.30941],[36.77184,-1.30954]]]}},{"type":"Feature","properties":{"name":"Diamond village(Mukuru)","source_tags":"landuse=residential"},"geometry":{"type":"Polygon","coordinates":[[[36.87517,-1.31489],[36.8748,-1.3154],[36.87549,-1.31585],[36.87583,-1.31612],[36.87596,-1.31616],[36.87618,-1.31633],[36.87631,-1.31638],[36.87651,-1.31651],[36.87653,-1.31654],[36.87676,-1.31667],[36.87687,-1.31675],[36.87714,-1.31689],[36.87776,-1.31598],[36.87844,-1.31496],[36.87894,-1.31422],[36.87923,-1.3138],[36.87975,-1.31302],[36.88032,-1.31218],[36.8811,-1.31104],[36.88066,-1.31091],[36.87895,-1.31355],[36.87875,-1.31333],[36.87863,-1.3132],[36.87859,-1.31275],[36.87858,-1.31264],[36.87849,-1.31247],[36.87831,-1.31217],[36.87819,-1.31217],[36.87772,-1.31245],[36.87732,-1.31276],[36.87679,-1.31317],[36.87668,-1.31342],[36.87652,-1.31353],[36.8764,-1.31368],[36.87625,-1.31389],[36.8758,-1.31416],[36.87559,-1.3143],[36.87543,-1.31451],[36.87517,-1.31489]]]}},{"type":"Feature","properties":{"name":"Gateway village(Mukuru)","source_tags":"landuse=residential"},"geometry":{"type":"Polygon","coordinates":[[[36.87432,-1.31623],[36.87263,-1.3186],[36.87359,-1.31926],[36.87465,-1.31998],[36.87421,-1.32075],[36.87446,-1.32092],[36.87497,-1.32018],[36.87539,-1.31954],[36.87625,-1.31824],[36.87712,-1.31695],[36.87586,-1.31614],[36.87479,-1.31543],[36.87432,-1.31623]]]}},{"type":"Feature","properties":{"name":"Mathare North Area1","source_tags":"landuse=residential"},"geometry":{"type":"Polygon","coordinates":[[[36.87256,-1.25316],[36.87248,-1.2532],[36.8725,-1.25332],[36.87259,-1.25362],[36.8727,-1.25385],[36.87277,-1.25383],[36.87285,-1.2538],[36.87289,-1.25372],[36.87292,-1.25362],[36.87296,-1.25352],[36.873,-1.25345],[36.87304,-1.25339],[36.87318,-1.25328],[36.87327,-1.2532],[36.87335,-1.25315],[36.87355,-1.25305],[36.8737,-1.25294],[36.87393,-1.25276],[36.87405,-1.25266],[36.87415,-1.25261],[36.87426,-1.25258],[36.87437,-1.25261],[36.87446,-1.25262],[36.87459,-1.2526],[36.87484,-1.25257],[36.87521,-1.25249],[36.87534,-1.25241],[36.87542,-1.25236],[36.87555,-1.25231],[36.87567,-1.25225],[36.87577,-1.2522],[36.87588,-1.25216],[36.87601,-1.25214],[36.87614,-1.25216],[36.87629,-1.25217],[36.8764,-1.25214],[36.87654,-1.25207],[36.87664,-1.25203],[36.87669,-1.25199],[36.87672,-1.25193],[36.87672,-1.25186],[36.87676,-1.25177],[36.87683,-1.2517],[36.87692,-1.25162],[36.87704,-1.25155],[36.87717,-1.25149],[36.87724,-1.25139],[36.87728,-1.25127],[36.87721,-1.25107],[36.87717,-1.25096],[36.87713,-1.25079],[36.87715,-1.25069],[36.87724,-1.25054],[36.87732,-1.25044],[36.8774,-1.25035],[36.87754,-1.25023],[36.87765,-1.25014],[36.87771,-1.25006],[36.87779,-1.24995],[36.87786,-1.24987],[36.87788,-1.24974],[36.87769,-1.24938],[36.87752,-1.24914],[36.87716,-1.24874],[36.87675,-1.24843],[36.87644,-1.24822],[36.87634,-1.24837],[36.8763,-1.24847],[36.87617,-1.24855],[36.87604,-1.24861],[36.8758,-1.24873],[36.87563,-1.24882],[36.87558,-1.24887],[36.87545,-1.24899],[36.87534,-1.24912],[36.87536,-1.24917],[36.87548,-1.2491],[36.87565,-1.24944],[36.87576,-1.2494],[36.87592,-1.24937],[36.87604,-1.24936],[36.87612,-1.24939],[36.87621,-1.24982],[36.87508,-1.25011],[36.87472,-1.25021],[36.87472,-1.2503],[36.87413,-1.25051],[36.87433,-1.25141],[36.87371,-1.25156],[36.87374,-1.25169],[36.87377,-1.25185],[36.87374,-1.25197],[36.87365,-1.25203],[36.87356,-1.25209],[36.8735,-1.25216],[36.87345,-1.25231],[36.87343,-1.25242],[36.87339,-1.25254],[36.87336,-1.25269],[36.87334,-1.2528],[36.8733,-1.25286],[36.87325,-1.25291],[36.87317,-1.25296],[36.87305,-1.25301],[36.87272,-1.25311],[36.87256,-1.25316]]]}},{"type":"Feature","properties":{"name":"Mashimoni","source_tags":"admin_level=10; boundary=administrative; place=village"},"geometry":{"type":"Polygon","coordinates":[[[36.78984,-1.31004],[36.78966,-1.31011],[36.78968,-1.31015],[36.7897,-1.31021],[36.78972,-1.31027],[36.78974,-1.31032],[36.78977,-1.31037],[36.78978,-1.31041],[36.78979,-1.31046],[36.78967,-1.31055],[36.78966,-1.3106],[36.78966,-1.31063],[36.78968,-1.31068],[36.7897,-1.31072],[36.78974,-1.31077],[36.78977,-1.31081],[36.7898,-1.31079],[36.78987,-1.31087],[36.78992,-1.3109],[36.78994,-1.31094],[36.78999,-1.31097],[36.79004,-1.31101],[36.79004,-1.31103],[36.79009,-1.31109],[36.79015,-1.31115],[36.79018,-1.31118],[36.79021,-1.3112],[36.79024,-1.31125],[36.79026,-1.31128],[36.79026,-1.31129],[36.79026,-1.3113],[36.79031,-1.31136],[36.7903,-1.31138],[36.79034,-1.31143],[36.79033,-1.31144],[36.79039,-1.31149],[36.79041,-1.31148],[36.79044,-1.3115],[36.7905,-1.31154],[36.79049,-1.31157],[36.79056,-1.31161],[36.7906,-1.31164],[36.79066,-1.31169],[36.79081,-1.3118],[36.79082,-1.31189],[36.79103,-1.31211],[36.79158,-1.31237],[36.79162,-1.31235],[36.79167,-1.31246],[36.79172,-1.31255],[36.7918,-1.3127],[36.79179,-1.31285],[36.7918,-1.31293],[36.79182,-1.313],[36.79185,-1.31305],[36.79193,-1.31305],[36.79206,-1.31299],[36.79219,-1.31294],[36.79224,-1.31298],[36.79224,-1.31305],[36.79226,-1.31308],[36.79235,-1.31311],[36.79244,-1.31314],[36.79252,-1.31325],[36.79255,-1.31327],[36.79261,-1.31329],[36.79268,-1.31329],[36.7927,-1.31334],[36.79275,-1.31335],[36.79281,-1.31336],[36.79288,-1.3134],[36.79298,-1.31341],[36.79306,-1.31343],[36.79317,-1.31342],[36.7933,-1.31334],[36.79344,-1.31335],[36.79349,-1.3134],[36.79358,-1.31342],[36.79364,-1.31342],[36.79368,-1.31342],[36.79383,-1.31342],[36.79396,-1.3134],[36.79404,-1.31341],[36.79409,-1.31347],[36.7942,-1.31351],[36.79428,-1.31351],[36.79423,-1.31346],[36.79422,-1.31342],[36.79418,-1.31338],[36.79399,-1.31324],[36.7938,-1.31311],[36.79377,-1.31304],[36.79383,-1.31286],[36.79387,-1.31277],[36.79387,-1.31266],[36.7938,-1.31255],[36.79374,-1.31246],[36.7936,-1.31243],[36.79348,-1.31239],[36.79346,-1.31231],[36.7934,-1.31219],[36.79334,-1.31213],[36.79331,-1.31193],[36.79328,-1.31182],[36.79327,-1.3117],[36.79325,-1.31145],[36.79334,-1.3113],[36.7933,-1.31117],[36.79321,-1.31108],[36.79314,-1.31085],[36.79307,-1.31034],[36.79299,-1.31002],[36.79292,-1.30971],[36.79294,-1.30948],[36.79283,-1.30948],[36.79257,-1.30947],[36.79244,-1.30948],[36.79221,-1.30948],[36.79209,-1.30948],[36.79198,-1.30948],[36.79189,-1.30949],[36.7918,-1.30949],[36.79161,-1.30952],[36.79152,-1.30954],[36.79142,-1.30956],[36.79128,-1.30959],[36.79109,-1.30964],[36.79097,-1.30965],[36.7908,-1.30969],[36.79059,-1.30975],[36.79041,-1.3098],[36.79026,-1.30986],[36.79009,-1.30992],[36.78998,-1.30997],[36.78984,-1.31004]]]}},{"type":"Feature","properties":{"name":"Kambi Muru","source_tags":"admin_level=10; boundary=administrative; place=village; source=Yahoo"},"geometry":{"type":"Polygon","coordinates":[[[36.78538,-1.31229],[36.78504,-1.31246],[36.7851,-1.31257],[36.78516,-1.31265],[36.78518,-1.31266],[36.78527,-1.31268],[36.78542,-1.31272],[36.78545,-1.31273],[36.78554,-1.31276],[36.78567,-1.31276],[36.78568,-1.31275],[36.78571,-1.31274],[36.78574,-1.31272],[36.78578,-1.31273],[36.7858,-1.3127],[36.78591,-1.31267],[36.78592,-1.31263],[36.78593,-1.31261],[36.78596,-1.31256],[36.78606,-1.31255],[36.78607,-1.31257],[36.78607,-1.31269],[36.78615,-1.31273],[36.78627,-1.31274],[36.78627,-1.31291],[36.78637,-1.31292],[36.78637,-1.31294],[36.78657,-1.31297],[36.78668,-1.31298],[36.78667,-1.31305],[36.78666,-1.31308],[36.78664,-1.31323],[36.78678,-1.31327],[36.78682,-1.31329],[36.78702,-1.3133],[36.78704,-1.31325],[36.78707,-1.31322],[36.78712,-1.3132],[36.7872,-1.31318],[36.78729,-1.31317],[36.7873,-1.31327],[36.7873,-1.31333],[36.78729,-1.31336],[36.78729,-1.31338],[36.78752,-1.31339],[36.78761,-1.31339],[36.7877,-1.31336],[36.78772,-1.31335],[36.78773,-1.31335],[36.78787,-1.31335],[36.7879,-1.31333],[36.78799,-1.31332],[36.78805,-1.31331],[36.78811,-1.31329],[36.78813,-1.31329],[36.78815,-1.31337],[36.78822,-1.31335],[36.78823,-1.31338],[36.78839,-1.31334],[36.7884,-1.31341],[36.7884,-1.3135],[36.78842,-1.31362],[36.78843,-1.31367],[36.78853,-1.31365],[36.78857,-1.31364],[36.7886,-1.31365],[36.78863,-1.31366],[36.78865,-1.31366],[36.78869,-1.31365],[36.78879,-1.31364],[36.78907,-1.31359],[36.78921,-1.31356],[36.78936,-1.31352],[36.78946,-1.3135],[36.78956,-1.31347],[36.7897,-1.31342],[36.78976,-1.31339],[36.78987,-1.31327],[36.78969,-1.31313],[36.78952,-1.31298],[36.78957,-1.31292],[36.78963,-1.31287],[36.78969,-1.31281],[36.78973,-1.31286],[36.78977,-1.31284],[36.78979,-1.31281],[36.78981,-1.31281],[36.78983,-1.31278],[36.78985,-1.31278],[36.78987,-1.31276],[36.78992,-1.31271],[36.78994,-1.31268],[36.78998,-1.31265],[36.79004,-1.3126],[36.79006,-1.31259],[36.79007,-1.31257],[36.79013,-1.31253],[36.79013,-1.31251],[36.79019,-1.31248],[36.79017,-1.31243],[36.79014,-1.31237],[36.7901,-1.31232],[36.79015,-1.31229],[36.79013,-1.31225],[36.79009,-1.31218],[36.79001,-1.31205],[36.79013,-1.31198],[36.79016,-1.31203],[36.79019,-1.31205],[36.7902,-1.31207],[36.79024,-1.31212],[36.7903,-1.31208],[36.79033,-1.31211],[36.79035,-1.31209],[36.79039,-1.31207],[36.79041,-1.31206],[36.79044,-1.31206],[36.79049,-1.31202],[36.79049,-1.31201],[36.79055,-1.31197],[36.79058,-1.31194],[36.79059,-1.31193],[36.7906,-1.3119],[36.79062,-1.31189],[36.79063,-1.31183],[36.79066,-1.31181],[36.79071,-1.31177],[36.79064,-1.31171],[36.79063,-1.3117],[36.79061,-1.31168],[36.79059,-1.31167],[36.79045,-1.31157],[36.79046,-1.31155],[36.79044,-1.31153],[36.79041,-1.31151],[36.79039,-1.31152],[36.79036,-1.3115],[36.79034,-1.31149],[36.7903,-1.31144],[36.79031,-1.31143],[36.79028,-1.3114],[36.79026,-1.31138],[36.79028,-1.31136],[36.79022,-1.3113],[36.79023,-1.31128],[36.79021,-1.31126],[36.79019,-1.31122],[36.79016,-1.3112],[36.79011,-1.31116],[36.79006,-1.3111],[36.79002,-1.31106],[36.79001,-1.31105],[36.79,-1.31103],[36.78998,-1.311],[36.78995,-1.31098],[36.7899,-1.31095],[36.78989,-1.31091],[36.78984,-1.31089],[36.78982,-1.31086],[36.78979,-1.31083],[36.78976,-1.31085],[36.78966,-1.31079],[36.78964,-1.31074],[36.78963,-1.31067],[36.78963,-1.31064],[36.78963,-1.3106],[36.78963,-1.31058],[36.78963,-1.31056],[36.78964,-1.31052],[36.78966,-1.31051],[36.78971,-1.31048],[36.78975,-1.31044],[36.78974,-1.3104],[36.78971,-1.31034],[36.78968,-1.31027],[36.78966,-1.31023],[36.78964,-1.31018],[36.78964,-1.31014],[36.78963,-1.31012],[36.78941,-1.31024],[36.78936,-1.31027],[36.78932,-1.31029],[36.78927,-1.31032],[36.78923,-1.31035],[36.78915,-1.3104],[36.78913,-1.31041],[36.7891,-1.31043],[36.78895,-1.31051],[36.78882,-1.31058],[36.78875,-1.31062],[36.78868,-1.31066],[36.78848,-1.31076],[36.78839,-1.31081],[36.78831,-1.31086],[36.78825,-1.31089],[36.78819,-1.31092],[36.78813,-1.31095],[36.78807,-1.31098],[36.78797,-1.31104],[36.78791,-1.31107],[36.78783,-1.31111],[36.78773,-1.31117],[36.78765,-1.3112],[36.78748,-1.31128],[36.78729,-1.31137],[36.7871,-1.31147],[36.78672,-1.31167],[36.786,-1.312],[36.78569,-1.31214],[36.78538,-1.31229]]]}},{"type":"Feature","properties":{"name":"Raila","source_tags":"admin_level=10; boundary=administrative; landuse=residential; place=village"},"geometry":{"type":"Polygon","coordinates":[[[36.774,-1.31673],[36.77397,-1.31684],[36.77399,-1.31694],[36.77429,-1.31699],[36.77434,-1.317],[36.77438,-1.317],[36.77447,-1.317],[36.77453,-1.31701],[36.77461,-1.317],[36.77471,-1.31699],[36.77497,-1.31704],[36.77522,-1.31708],[36.77554,-1.31717],[36.7756,-1.31719],[36.77571,-1.31722],[36.77583,-1.31726],[36.77603,-1.3173],[36.77646,-1.31735],[36.77654,-1.31734],[36.77668,-1.31736],[36.7768,-1.31742],[36.77706,-1.3175],[36.77717,-1.31756],[36.77729,-1.3176],[36.77728,-1.3176],[36.77737,-1.31771],[36.77745,-1.31785],[36.77749,-1.31792],[36.77756,-1.31797],[36.77764,-1.31806],[36.77762,-1.31822],[36.7776,-1.31828],[36.77767,-1.31841],[36.77774,-1.31843],[36.77778,-1.31844],[36.77779,-1.31859],[36.7778,-1.31869],[36.77783,-1.31879],[36.77784,-1.31891],[36.77784,-1.31901],[36.77783,-1.31908],[36.77781,-1.31909],[36.77782,-1.31919],[36.77792,-1.31943],[36.77794,-1.31959],[36.77794,-1.31975],[36.7779,-1.3201],[36.77806,-1.32053],[36.77828,-1.32057],[36.77833,-1.32058],[36.77845,-1.32023],[36.77844,-1.31949],[36.77861,-1.31945],[36.77863,-1.31926],[36.77926,-1.31922],[36.7793,-1.31922],[36.7797,-1.3192],[36.77974,-1.31943],[36.78001,-1.3194],[36.78026,-1.31939],[36.78025,-1.31915],[36.78025,-1.31902],[36.78038,-1.31894],[36.78073,-1.31883],[36.78077,-1.31865],[36.78084,-1.3185],[36.78094,-1.31843],[36.78096,-1.31828],[36.78096,-1.31804],[36.78096,-1.31795],[36.78091,-1.31781],[36.78085,-1.31756],[36.78047,-1.31761],[36.78032,-1.31763],[36.78019,-1.31762],[36.78006,-1.31758],[36.78004,-1.31754],[36.77995,-1.31749],[36.77984,-1.3175],[36.77977,-1.31753],[36.77968,-1.31756],[36.7796,-1.31757],[36.77953,-1.31759],[36.77943,-1.31761],[36.77934,-1.31765],[36.77927,-1.31762],[36.77914,-1.31765],[36.77902,-1.31766],[36.7789,-1.31768],[36.77877,-1.31764],[36.77868,-1.31756],[36.77862,-1.31739],[36.77861,-1.31732],[36.77861,-1.31724],[36.7786,-1.31713],[36.7786,-1.31703],[36.77858,-1.31695],[36.77851,-1.31684],[36.77842,-1.3167],[36.77833,-1.31657],[36.77828,-1.3165],[36.77817,-1.31642],[36.77806,-1.31635],[36.7779,-1.31626],[36.7778,-1.31624],[36.7777,-1.31623],[36.77748,-1.31624],[36.77738,-1.31626],[36.77727,-1.31628],[36.77716,-1.31632],[36.77703,-1.31637],[36.77679,-1.31646],[36.77642,-1.31655],[36.77631,-1.31656],[36.77613,-1.31657],[36.776,-1.31656],[36.77582,-1.31654],[36.77559,-1.31651],[36.77507,-1.31643],[36.77503,-1.31642],[36.77497,-1.31641],[36.77496,-1.31641],[36.77466,-1.31647],[36.7746,-1.31649],[36.77442,-1.31659],[36.774,-1.31673]]]}},{"type":"Feature","properties":{"name":"Lungalunga viwandani","source_tags":"landuse=residential"},"geometry":{"type":"Polygon","coordinates":[[[36.87136,-1.31057],[36.87135,-1.31058],[36.87135,-1.31073],[36.87135,-1.31075],[36.87136,-1.31078],[36.87136,-1.31085],[36.87136,-1.31089],[36.87138,-1.31091],[36.87138,-1.31094],[36.87139,-1.31104],[36.87144,-1.31104],[36.87144,-1.31108],[36.87143,-1.31109],[36.87143,-1.31115],[36.87144,-1.31129],[36.87145,-1.31142],[36.87146,-1.3115],[36.8715,-1.31183],[36.87153,-1.31189],[36.87158,-1.31208],[36.87212,-1.3123],[36.87351,-1.31289],[36.87393,-1.31269],[36.87438,-1.31248],[36.87443,-1.31247],[36.87508,-1.31225],[36.87524,-1.31219],[36.8756,-1.31187],[36.87562,-1.31185],[36.87557,-1.31151],[36.8755,-1.31123],[36.87549,-1.31119],[36.87548,-1.31114],[36.87547,-1.31108],[36.87547,-1.311],[36.87546,-1.31091],[36.87544,-1.3108],[36.87542,-1.31069],[36.87541,-1.31062],[36.87541,-1.31059],[36.87536,-1.31028],[36.87533,-1.31011],[36.87532,-1.31003],[36.87532,-1.31],[36.87531,-1.30995],[36.87531,-1.30992],[36.87529,-1.30985],[36.87529,-1.3098],[36.87525,-1.30981],[36.87524,-1.30978],[36.87493,-1.30984],[36.87484,-1.30986],[36.87479,-1.30986],[36.87452,-1.30991],[36.87452,-1.30993],[36.87437,-1.30996],[36.874,-1.31001],[36.87395,-1.31003],[36.87388,-1.31004],[36.87359,-1.31009],[36.87357,-1.3101],[36.87354,-1.3101],[36.87348,-1.31012],[36.87341,-1.31013],[36.87333,-1.31014],[36.87326,-1.31015],[36.87305,-1.31017],[36.87294,-1.3102],[36.8726,-1.31027],[36.87229,-1.31032],[36.87136,-1.31048],[36.87136,-1.31049],[36.87137,-1.31056],[36.87136,-1.31057]]]}},{"type":"Feature","properties":{"name":"Mathare Village 2","source_tags":"landuse=residential"},"geometry":{"type":"Polygon","coordinates":[[[36.84711,-1.26313],[36.84701,-1.26303],[36.84703,-1.26321],[36.84711,-1.26369],[36.84712,-1.26374],[36.84724,-1.26446],[36.84738,-1.26522],[36.84751,-1.26584],[36.84764,-1.26645],[36.84799,-1.26638],[36.8485,-1.26627],[36.84886,-1.2662],[36.84926,-1.26612],[36.84946,-1.26608],[36.8496,-1.26605],[36.85003,-1.26596],[36.85014,-1.26594],[36.85032,-1.26592],[36.85047,-1.2659],[36.8507,-1.26589],[36.85095,-1.2659],[36.85119,-1.26589],[36.85134,-1.26589],[36.8513,-1.26578],[36.85121,-1.26527],[36.85114,-1.26478],[36.85113,-1.2647],[36.8511,-1.26466],[36.85108,-1.26465],[36.85104,-1.26463],[36.85104,-1.26455],[36.85103,-1.26444],[36.85101,-1.26432],[36.85099,-1.26421],[36.85098,-1.26413],[36.85097,-1.26406],[36.85096,-1.26396],[36.85097,-1.26388],[36.85102,-1.26377],[36.85104,-1.26373],[36.85095,-1.26364],[36.85082,-1.26355],[36.85067,-1.26347],[36.85053,-1.26347],[36.85041,-1.26358],[36.85043,-1.26367],[36.85036,-1.26378],[36.85023,-1.26386],[36.85006,-1.2639],[36.84993,-1.26398],[36.84976,-1.26401],[36.84957,-1.26406],[36.84942,-1.26412],[36.84926,-1.26417],[36.84914,-1.2642],[36.84902,-1.26422],[36.84886,-1.26417],[36.84875,-1.2641],[36.84872,-1.26397],[36.8487,-1.26384],[36.84863,-1.26379],[36.84851,-1.26372],[36.84835,-1.26362],[36.84821,-1.26348],[36.84813,-1.26343],[36.84808,-1.2634],[36.84799,-1.26334],[36.84789,-1.26323],[36.8478,-1.26308],[36.84776,-1.26308],[36.84764,-1.26307],[36.84753,-1.26324],[36.84744,-1.2633],[36.84728,-1.26327],[36.84711,-1.26313]]]}},{"type":"Feature","properties":{"name":"Mabatini","source_tags":"landuse=residential"},"geometry":{"type":"Polygon","coordinates":[[[36.86214,-1.25952],[36.86205,-1.25961],[36.86205,-1.25974],[36.86213,-1.25996],[36.86239,-1.26063],[36.86254,-1.26073],[36.86261,-1.26082],[36.86268,-1.26089],[36.86283,-1.26119],[36.86295,-1.26114],[36.86324,-1.261],[36.86339,-1.26102],[36.86351,-1.26122],[36.86435,-1.26283],[36.86594,-1.26238],[36.86582,-1.26205],[36.86552,-1.26141],[36.86514,-1.26062],[36.86454,-1.25946],[36.864,-1.25835],[36.86321,-1.25866],[36.86305,-1.25874],[36.86263,-1.25904],[36.86235,-1.25934],[36.86214,-1.25952]]]}},{"type":"Feature","properties":{"name":"Mathare 3B","source_tags":"landuse=residential"},"geometry":{"type":"Polygon","coordinates":[[[36.85098,-1.26388],[36.85097,-1.26396],[36.85098,-1.26405],[36.851,-1.26421],[36.85104,-1.26449],[36.85104,-1.26453],[36.85104,-1.26455],[36.85104,-1.2646],[36.85108,-1.26462],[36.85119,-1.26465],[36.85122,-1.2651],[36.85134,-1.26581],[36.85137,-1.2659],[36.85177,-1.26589],[36.85245,-1.26589],[36.85306,-1.26588],[36.85376,-1.26586],[36.85443,-1.26585],[36.85491,-1.26585],[36.85513,-1.26585],[36.8551,-1.26557],[36.85505,-1.26533],[36.85501,-1.26514],[36.85495,-1.26485],[36.85491,-1.26464],[36.8549,-1.26437],[36.8549,-1.26412],[36.85485,-1.26398],[36.85477,-1.26398],[36.85464,-1.26395],[36.85441,-1.26391],[36.85419,-1.26386],[36.85397,-1.26381],[36.85378,-1.26379],[36.85365,-1.26371],[36.85356,-1.26368],[36.85342,-1.26364],[36.85331,-1.26364],[36.85317,-1.26366],[36.853,-1.26372],[36.8529,-1.26376],[36.85283,-1.26378],[36.85273,-1.26376],[36.85256,-1.26377],[36.85248,-1.26384],[36.85236,-1.26399],[36.85227,-1.26412],[36.85213,-1.26419],[36.85204,-1.26425],[36.85194,-1.26426],[36.85186,-1.2642],[36.85172,-1.26404],[36.85157,-1.26396],[36.85141,-1.26389],[36.85123,-1.26381],[36.85109,-1.26375],[36.85105,-1.26374],[36.85101,-1.2638],[36.85098,-1.26388]]]}},{"type":"Feature","properties":{"name":"Kisumu Ndogo","source_tags":"admin_level=10; boundary=administrative; place=village"},"geometry":{"type":"Polygon","coordinates":[[[36.78359,-1.31316],[36.78343,-1.31324],[36.78367,-1.31344],[36.78387,-1.31356],[36.78403,-1.31361],[36.78419,-1.31365],[36.78431,-1.3137],[36.78445,-1.31371],[36.78446,-1.31365],[36.78468,-1.31366],[36.78484,-1.31372],[36.78498,-1.31377],[36.78509,-1.31383],[36.78509,-1.31387],[36.78513,-1.31389],[36.78513,-1.31391],[36.78512,-1.31392],[36.78517,-1.31396],[36.78527,-1.31404],[36.78538,-1.3141],[36.78559,-1.31419],[36.78563,-1.31427],[36.78569,-1.31429],[36.78589,-1.31429],[36.78604,-1.31426],[36.78624,-1.3143],[36.7863,-1.31432],[36.78633,-1.31437],[36.78646,-1.31441],[36.78657,-1.31445],[36.78669,-1.31448],[36.78686,-1.31454],[36.78692,-1.31455],[36.78692,-1.3146],[36.787,-1.31463],[36.78715,-1.31467],[36.78738,-1.31471],[36.78752,-1.31471],[36.78759,-1.31472],[36.78782,-1.31474],[36.78796,-1.31473],[36.78811,-1.3147],[36.78829,-1.31465],[36.78864,-1.31454],[36.78882,-1.31449],[36.78888,-1.31446],[36.78895,-1.31444],[36.78902,-1.31444],[36.78908,-1.31445],[36.78914,-1.31447],[36.78919,-1.31452],[36.78926,-1.31455],[36.78931,-1.31454],[36.78951,-1.31455],[36.7899,-1.31417],[36.79012,-1.3139],[36.79018,-1.31377],[36.79021,-1.31369],[36.79027,-1.31353],[36.78998,-1.31337],[36.78989,-1.31326],[36.78977,-1.31339],[36.78968,-1.31343],[36.78967,-1.31343],[36.78959,-1.31347],[36.78953,-1.31348],[36.78944,-1.31351],[36.78922,-1.31356],[36.78907,-1.31359],[36.78892,-1.31362],[36.78873,-1.31365],[36.78863,-1.31366],[36.78859,-1.31364],[36.78857,-1.31364],[36.78851,-1.31366],[36.78843,-1.31368],[36.78842,-1.31361],[36.78839,-1.31344],[36.78839,-1.31334],[36.78823,-1.31337],[36.78822,-1.31334],[36.78815,-1.31336],[36.78813,-1.31329],[36.78799,-1.31331],[36.7879,-1.31332],[36.78787,-1.31334],[36.78773,-1.31334],[36.78763,-1.31338],[36.78753,-1.31339],[36.78728,-1.31338],[36.7873,-1.31332],[36.7873,-1.31324],[36.78729,-1.31316],[36.78725,-1.31317],[36.7872,-1.31317],[36.78716,-1.31318],[36.78711,-1.3132],[36.78707,-1.31322],[36.78706,-1.31324],[36.78702,-1.3133],[36.78682,-1.31328],[36.78678,-1.31326],[36.78664,-1.31322],[36.78666,-1.31307],[36.78667,-1.31304],[36.78667,-1.313],[36.78668,-1.31297],[36.78658,-1.31296],[36.78648,-1.31295],[36.78637,-1.31293],[36.78637,-1.31291],[36.78627,-1.3129],[36.78627,-1.3128],[36.78627,-1.31273],[36.78615,-1.31273],[36.78607,-1.31269],[36.78607,-1.31263],[36.78607,-1.31256],[36.78597,-1.31256],[36.78592,-1.31267],[36.78581,-1.3127],[36.78579,-1.31273],[36.78574,-1.31272],[36.78571,-1.31274],[36.78569,-1.31275],[36.78569,-1.31276],[36.78567,-1.31276],[36.78561,-1.31276],[36.78555,-1.31275],[36.78546,-1.31273],[36.78542,-1.31271],[36.78537,-1.3127],[36.78527,-1.31268],[36.78518,-1.31265],[36.78515,-1.31265],[36.7851,-1.31258],[36.78502,-1.31246],[36.78493,-1.31251],[36.78477,-1.31258],[36.78454,-1.31269],[36.78443,-1.31274],[36.78429,-1.31281],[36.7841,-1.31291],[36.7839,-1.31301],[36.78372,-1.3131],[36.78365,-1.31313],[36.78359,-1.31316]]]}},{"type":"Feature","properties":{"name":"Mathare North Area2","source_tags":"landuse=residential"},"geometry":{"type":"Polygon","coordinates":[[[36.87098,-1.25342],[36.87066,-1.25348],[36.87074,-1.25385],[36.8708,-1.25414],[36.87094,-1.25413],[36.87116,-1.25415],[36.87128,-1.25416],[36.87142,-1.25417],[36.87154,-1.25417],[36.87173,-1.25415],[36.87186,-1.25412],[36.87205,-1.2541],[36.87217,-1.25409],[36.87229,-1.25405],[36.87249,-1.25394],[36.87263,-1.25387],[36.87251,-1.25356],[36.87242,-1.2533],[36.87238,-1.25312],[36.87266,-1.25306],[36.87301,-1.25295],[36.87317,-1.25288],[36.87326,-1.25282],[36.87329,-1.25275],[36.87333,-1.25253],[36.87334,-1.25247],[36.87337,-1.25241],[36.87339,-1.25232],[36.87339,-1.25217],[36.87341,-1.25208],[36.87348,-1.25202],[36.87356,-1.25196],[36.87367,-1.2519],[36.8737,-1.25184],[36.8737,-1.25177],[36.87361,-1.25151],[36.87423,-1.25137],[36.87402,-1.25054],[36.87328,-1.25068],[36.87247,-1.25086],[36.87174,-1.25103],[36.87098,-1.25123],[36.87108,-1.25159],[36.87124,-1.25225],[36.87125,-1.25232],[36.87128,-1.25245],[36.87132,-1.25263],[36.87141,-1.25287],[36.87142,-1.25296],[36.87141,-1.2531],[36.8714,-1.25313],[36.87139,-1.25317],[36.87137,-1.2532],[36.87133,-1.25323],[36.87119,-1.25332],[36.87108,-1.25337],[36.87098,-1.25342]]]}},{"type":"Feature","properties":{"name":"Soweto West","source_tags":"admin_level=10; boundary=administrative; place=village"},"geometry":{"type":"Polygon","coordinates":[[[36.77509,-1.31488],[36.77507,-1.31494],[36.77507,-1.31502],[36.77508,-1.31514],[36.77511,-1.31521],[36.77516,-1.31529],[36.77521,-1.31536],[36.77526,-1.31551],[36.77524,-1.31554],[36.77526,-1.31561],[36.77529,-1.31568],[36.77531,-1.31573],[36.77534,-1.31578],[36.77536,-1.31583],[36.77538,-1.31587],[36.77541,-1.31594],[36.77547,-1.31604],[36.77554,-1.31618],[36.77559,-1.31626],[36.77562,-1.31633],[36.77563,-1.31649],[36.77585,-1.31652],[36.77613,-1.31654],[36.77631,-1.31651],[36.77643,-1.31649],[36.77673,-1.31642],[36.77701,-1.31633],[36.77725,-1.31624],[36.77749,-1.31618],[36.7777,-1.31617],[36.77793,-1.31623],[36.7783,-1.31643],[36.77834,-1.31649],[36.77844,-1.3166],[36.77853,-1.31655],[36.77855,-1.31653],[36.77858,-1.31651],[36.7786,-1.31648],[36.7786,-1.31643],[36.7786,-1.31638],[36.77858,-1.3163],[36.77852,-1.31623],[36.77854,-1.31621],[36.77853,-1.31617],[36.77853,-1.31612],[36.77854,-1.31607],[36.77855,-1.31599],[36.77857,-1.31595],[36.77859,-1.3159],[36.77861,-1.31587],[36.77864,-1.31582],[36.77861,-1.31578],[36.7787,-1.31565],[36.77867,-1.31561],[36.77864,-1.31535],[36.77852,-1.31536],[36.77848,-1.31536],[36.7784,-1.31536],[36.77827,-1.31536],[36.7782,-1.31536],[36.77802,-1.31534],[36.77784,-1.31531],[36.77767,-1.31525],[36.77765,-1.31524],[36.77747,-1.31516],[36.77738,-1.31512],[36.77727,-1.31506],[36.77718,-1.31499],[36.77709,-1.31492],[36.777,-1.31484],[36.77686,-1.31473],[36.7768,-1.31467],[36.77677,-1.31463],[36.77666,-1.31449],[36.77657,-1.31439],[36.77656,-1.31437],[36.77653,-1.31433],[36.77648,-1.31426],[36.77642,-1.31418],[36.7764,-1.31414],[36.77637,-1.3141],[36.77634,-1.31403],[36.77631,-1.314],[36.77627,-1.31393],[36.77624,-1.31387],[36.77623,-1.31383],[36.77621,-1.31375],[36.7762,-1.31367],[36.77615,-1.31368],[36.77603,-1.3137],[36.77593,-1.31372],[36.77581,-1.31372],[36.77572,-1.31372],[36.77567,-1.31372],[36.77557,-1.31372],[36.77558,-1.31378],[36.77555,-1.31389],[36.77551,-1.31399],[36.77543,-1.31406],[36.77535,-1.31415],[36.77528,-1.31422],[36.77524,-1.31426],[36.77519,-1.31431],[36.77531,-1.31445],[36.77522,-1.31458],[36.77519,-1.31465],[36.77516,-1.31471],[36.77513,-1.31479],[36.77509,-1.31488]]]}},{"type":"Feature","properties":{"name":"Mathare 3C","source_tags":"landuse=residential"},"geometry":{"type":"Polygon","coordinates":[[[36.85757,-1.26421],[36.85757,-1.26435],[36.85758,-1.26444],[36.85761,-1.26455],[36.85764,-1.26475],[36.85765,-1.26487],[36.85762,-1.26522],[36.85762,-1.26534],[36.85764,-1.26546],[36.85766,-1.26559],[36.85769,-1.26583],[36.85809,-1.26584],[36.85826,-1.26584],[36.85841,-1.26584],[36.85851,-1.26582],[36.85866,-1.26577],[36.8588,-1.26571],[36.85893,-1.26561],[36.85907,-1.26546],[36.8592,-1.26529],[36.85934,-1.26509],[36.85944,-1.26493],[36.85957,-1.26475],[36.85968,-1.26462],[36.8597,-1.26458],[36.8597,-1.26446],[36.85971,-1.26428],[36.85973,-1.26412],[36.85982,-1.26386],[36.8599,-1.26366],[36.85996,-1.26349],[36.86001,-1.26338],[36.86008,-1.26322],[36.86017,-1.26299],[36.86026,-1.26274],[36.86033,-1.26259],[36.86035,-1.2625],[36.86037,-1.26242],[36.8604,-1.26223],[36.86041,-1.26198],[36.8604,-1.26183],[36.86032,-1.26189],[36.86022,-1.26215],[36.86007,-1.26228],[36.85995,-1.26234],[36.85976,-1.26241],[36.85953,-1.26247],[36.85937,-1.26257],[36.85937,-1.26272],[36.85925,-1.26286],[36.85914,-1.26296],[36.85899,-1.26309],[36.85895,-1.26314],[36.85892,-1.26319],[36.85892,-1.26329],[36.85893,-1.2634],[36.85898,-1.2635],[36.85906,-1.26362],[36.85911,-1.26372],[36.85912,-1.26379],[36.85907,-1.26388],[36.85902,-1.26395],[36.85884,-1.26404],[36.85865,-1.26404],[36.85836,-1.26412],[36.85822,-1.26415],[36.85816,-1.26417],[36.85787,-1.26418],[36.85757,-1.26421]]]}},{"type":"Feature","properties":{"name":"Mathare 3A","source_tags":"landuse=residential"},"geometry":{"type":"Polygon","coordinates":[[[36.85499,-1.26388],[36.85491,-1.26391],[36.85495,-1.26409],[36.85497,-1.2642],[36.85497,-1.26429],[36.85496,-1.26453],[36.85499,-1.26479],[36.85504,-1.26505],[36.85507,-1.26522],[36.8551,-1.26532],[36.85515,-1.26559],[36.85518,-1.26586],[36.85555,-1.26585],[36.85608,-1.26585],[36.85668,-1.2657],[36.85672,-1.26571],[36.85669,-1.26585],[36.85698,-1.26583],[36.85741,-1.26583],[36.85767,-1.26583],[36.85763,-1.26558],[36.85761,-1.26534],[36.85761,-1.2652],[36.85764,-1.26487],[36.85763,-1.26475],[36.8576,-1.26455],[36.85757,-1.26444],[36.85756,-1.26435],[36.85756,-1.26422],[36.85739,-1.26425],[36.85722,-1.26416],[36.85703,-1.26413],[36.85675,-1.26404],[36.85655,-1.26398],[36.85631,-1.26401],[36.85608,-1.2641],[36.85589,-1.26413],[36.85573,-1.26406],[36.85522,-1.26387],[36.85505,-1.26387],[36.85499,-1.26388]]]}},{"type":"Feature","properties":{"name":"Sinai village","source_tags":"landuse=residential"},"geometry":{"type":"Polygon","coordinates":[[[36.87902,-1.30928],[36.87899,-1.3094],[36.87901,-1.30953],[36.87904,-1.30982],[36.87903,-1.30985],[36.87904,-1.30998],[36.87906,-1.31006],[36.87918,-1.31011],[36.87928,-1.31016],[36.87938,-1.31018],[36.8795,-1.31017],[36.87957,-1.31015],[36.87965,-1.31017],[36.87973,-1.31016],[36.87977,-1.31018],[36.88008,-1.31035],[36.88029,-1.31028],[36.88043,-1.31022],[36.88086,-1.31039],[36.88093,-1.31042],[36.88108,-1.31044],[36.88132,-1.31045],[36.88163,-1.31043],[36.88199,-1.30995],[36.88225,-1.30936],[36.88241,-1.30916],[36.88241,-1.30906],[36.88237,-1.30894],[36.88233,-1.30884],[36.88231,-1.30879],[36.88225,-1.30881],[36.8821,-1.30883],[36.88187,-1.3089],[36.8818,-1.30891],[36.88176,-1.30875],[36.88173,-1.30867],[36.88166,-1.30869],[36.88154,-1.30871],[36.88137,-1.30875],[36.88118,-1.30879],[36.881,-1.30881],[36.88041,-1.3089],[36.88028,-1.30894],[36.87995,-1.309],[36.87919,-1.30914],[36.8791,-1.30915],[36.87909,-1.30915],[36.87907,-1.30916],[36.87903,-1.30917],[36.87903,-1.3092],[36.87902,-1.30928]]]}},{"type":"Feature","properties":{"name":"Kisii village","source_tags":"landuse=residential"},"geometry":{"type":"Polygon","coordinates":[[[36.86552,-1.31607],[36.86548,-1.31608],[36.86572,-1.31627],[36.86595,-1.31645],[36.866,-1.31648],[36.86631,-1.31672],[36.86634,-1.31674],[36.86638,-1.31676],[36.86644,-1.31681],[36.86801,-1.31788],[36.86815,-1.31776],[36.86853,-1.31713],[36.86869,-1.3169],[36.86884,-1.31665],[36.86902,-1.31628],[36.86868,-1.31618],[36.86835,-1.31614],[36.86804,-1.31613],[36.86774,-1.31611],[36.8674,-1.31606],[36.86713,-1.31603],[36.86681,-1.31601],[36.86675,-1.31601],[36.86623,-1.31601],[36.86601,-1.316],[36.86569,-1.31605],[36.8656,-1.31606],[36.86552,-1.31607]]]}},{"type":"Feature","properties":{"name":"Mathare no10","source_tags":"landuse=residential"},"geometry":{"type":"Polygon","coordinates":[[[36.85976,-1.26427],[36.85974,-1.26456],[36.85988,-1.26441],[36.86001,-1.2643],[36.86014,-1.26421],[36.86027,-1.26413],[36.86044,-1.26404],[36.86058,-1.26398],[36.86074,-1.26392],[36.86088,-1.26387],[36.86107,-1.26381],[36.86126,-1.26375],[36.86138,-1.26371],[36.86154,-1.26366],[36.86199,-1.26353],[36.86187,-1.26302],[36.86159,-1.26321],[36.86153,-1.26265],[36.86142,-1.26249],[36.8614,-1.26241],[36.86129,-1.2621],[36.86128,-1.26203],[36.8612,-1.26166],[36.86141,-1.26153],[36.86134,-1.26137],[36.86121,-1.26146],[36.86106,-1.26154],[36.86091,-1.26157],[36.86081,-1.26163],[36.86063,-1.26165],[36.86043,-1.26181],[36.86044,-1.26191],[36.86044,-1.26223],[36.86042,-1.26249],[36.86037,-1.2626],[36.86028,-1.26279],[36.86018,-1.26308],[36.86011,-1.26323],[36.86005,-1.26338],[36.85995,-1.26363],[36.8598,-1.26408],[36.85978,-1.26415],[36.85976,-1.26427]]]}},{"type":"Feature","properties":{"name":"Mashimoni","source_tags":"landuse=residential"},"geometry":{"type":"Polygon","coordinates":[[[36.86148,-1.26159],[36.86124,-1.26176],[36.86131,-1.26209],[36.86142,-1.26236],[36.86149,-1.26261],[36.86169,-1.26238],[36.8617,-1.26233],[36.86185,-1.26224],[36.86198,-1.26233],[36.86204,-1.26229],[36.86211,-1.26239],[36.86226,-1.26231],[36.86252,-1.26205],[36.86271,-1.26195],[36.86269,-1.26184],[36.86307,-1.26168],[36.86327,-1.2616],[36.86328,-1.26136],[36.86322,-1.26126],[36.86314,-1.26126],[36.86296,-1.26134],[36.86288,-1.2612],[36.86282,-1.26122],[36.86266,-1.2609],[36.86259,-1.26084],[36.86252,-1.26074],[36.86242,-1.2607],[36.86218,-1.26072],[36.86206,-1.26089],[36.86186,-1.26106],[36.86173,-1.26114],[36.86167,-1.26115],[36.86164,-1.26116],[36.86145,-1.26123],[36.86138,-1.26135],[36.86148,-1.26159]]]}},{"type":"Feature","properties":{"name":"Deep Sea Slum","source_tags":"addr:city=Nairobi; addr:street=6th parklands Avenue; place=village"},"geometry":{"type":"Polygon","coordinates":[[[36.81312,-1.25307],[36.81233,-1.25421],[36.81477,-1.25375],[36.81475,-1.25362],[36.81473,-1.25345],[36.81471,-1.25324],[36.81463,-1.2531],[36.81502,-1.25302],[36.81505,-1.25271],[36.81457,-1.2529],[36.81439,-1.2529],[36.81417,-1.25289],[36.81396,-1.25289],[36.81381,-1.25289],[36.81349,-1.253],[36.8133,-1.25303],[36.81312,-1.25307]]]}}]}