{"type":"FeatureCollection","features":[{"type":"Feature","properties":{"name":"Nairobi"},"geometry":{"type":"Polygon","coordinates":[[[36.91722,-1.20077],[36.92033,-1.19688],[36.92433,-1.19187],[36.92826,-1.18695],[36.93676,-1.17588],[36.93356,-1.17503],[36.92338,-1.17174],[36.90693,-1.16545],[36.89533,-1.16516],[36.8893,-1.17419],[36.88926,-1.17817],[36.8892,-1.18448],[36.88667,-1.19651],[36.87454,-1.19741],[36.8598,-1.19324],[36.85144,-1.20512],[36.84321,-1.21889],[36.82993,-1.21793],[36.79523,-1.19776],[36.78707,-1.19669],[36.78638,-1.19875],[36.78284,-1.20752],[36.78644,-1.21257],[36.78282,-1.21771],[36.77774,-1.2167],[36.77325,-1.22685],[36.76665,-1.22777],[36.76416,-1.22809],[36.75688,-1.22462],[36.75522,-1.22367],[36.75315,-1.22242],[36.75113,-1.22419],[36.74996,-1.22626],[36.74649,-1.2364],[36.73472,-1.23575],[36.73203,-1.2404],[36.71621,-1.26081],[36.71006,-1.26108],[36.70165,-1.26118],[36.69901,-1.26403],[36.69416,-1.26924],[36.68903,-1.28048],[36.68734,-1.28463],[36.68303,-1.29172],[36.67557,-1.29985],[36.67035,-1.30477],[36.66642,-1.31422],[36.6688,-1.32298],[36.66964,-1.326],[36.67431,-1.32737],[36.67977,-1.32896],[36.68676,-1.34104],[36.69314,-1.35338],[36.703,-1.35236],[36.73483,-1.37852],[36.75078,-1.38473],[36.76789,-1.38925],[36.78285,-1.38889],[36.79347,-1.38577],[36.80945,-1.38758],[36.81563,-1.38205],[36.82107,-1.38287],[36.82569,-1.38535],[36.82985,-1.38758],[36.84339,-1.38756],[36.8494,-1.39568],[36.8598,-1.40006],[36.87129,-1.40707],[36.88259,-1.40629],[36.89462,-1.4119],[36.89086,-1.41396],[36.93182,-1.43288],[36.94265,-1.43349],[36.95159,-1.43801],[36.95705,-1.43864],[36.96159,-1.44498],[36.96363,-1.4401],[36.94761,-1.42176],[36.94443,-1.40722],[36.93736,-1.39991],[36.92708,-1.39435],[36.91678,-1.3778],[36.91218,-1.37018],[36.90838,-1.36297],[36.93475,-1.33894],[36.96125,-1.34866],[36.96715,-1.35439],[36.98439,-1.31538],[36.97472,-1.29015],[36.99082,-1.28321],[37.02679,-1.29209],[37.07603,-1.30458],[37.07666,-1.29003],[37.094,-1.27421],[37.10227,-1.27309],[37.10274,-1.2627],[37.09458,-1.25473],[37.09523,-1.24483],[37.0807,-1.23738],[37.07058,-1.21818],[37.05619,-1.20744],[37.04629,-1.20969],[37.0371,-1.21576],[37.01282,-1.2314],[37.01319,-1.23535],[37.00699,-1.23713],[37.00237,-1.23551],[36.99338,-1.2358],[36.9899,-1.23003],[36.98382,-1.22729],[36.97665,-1.22779],[36.96571,-1.23219],[36.9522,-1.23284],[36.94178,-1.23076],[36.92835,-1.22722],[36.91702,-1.22188],[36.90851,-1.21174],[36.90946,-1.21057],[36.91351,-1.20562],[36.91681,-1.20149],[36.91722,-1.20077]]]}}]}