{"type":"FeatureCollection","features":[{"type":"Feature","properties":{"name":"Embakasi West"},"geometry":{"type":"Polygon","coordinates":[[[36.89748,-1.27199],[36.90053,-1.26985],[36.90209,-1.26724],[36.90906,-1.26023],[36.91428,-1.25884],[36.9096,-1.25718],[36.90494,-1.25713],[36.90284,-1.25778],[36.90177,-1.25775],[36.90078,-1.25738],[36.89871,-1.25669],[36.89711,-1.25708],[36.89335,-1.25859],[36.89226,-1.25895],[36.89139,-1.25977],[36.88658,-1.26145],[36.88258,-1.26216],[36.87898,-1.26224],[36.87955,-1.26453],[36.87903,-1.26581],[36.87836,-1.26669],[36.8781,-1.26814],[36.87687,-1.26816],[36.87637,-1.26876],[36.87453,-1.26826],[36.87446,-1.26915],[36.87452,-1.27014],[36.87436,-1.27077],[36.87414,-1.27174],[36.87334,-1.27246],[36.87253,-1.2732],[36.87243,-1.27438],[36.87187,-1.27477],[36.87206,-1.27623],[36.87174,-1.27701],[36.87146,-1.27882],[36.87026,-1.27922],[36.86993,-1.28118],[36.86866,-1.28139],[36.86791,-1.28268],[36.86538,-1.28261],[36.86453,-1.28361],[36.8669,-1.28779],[36.87228,-1.28287],[36.87408,-1.2812],[36.8758,-1.28397],[36.87792,-1.28217],[36.88082,-1.28237],[36.87879,-1.27791],[36.88175,-1.27715],[36.88259,-1.28224],[36.88513,-1.29121],[36.8858,-1.29515],[36.88658,-1.29457],[36.89236,-1.29169],[36.89839,-1.2862],[36.89887,-1.28465],[36.90211,-1.28216],[36.89748,-1.27199]]]}},{"type":"Feature","properties":{"name":"Langata"},"geometry":{"type":"Polygon","coordinates":[[[36.81019,-1.31033],[36.80921,-1.31536],[36.80677,-1.31673],[36.80335,-1.31701],[36.80064,-1.3173],[36.80039,-1.31839],[36.79847,-1.31905],[36.79636,-1.31912],[36.79481,-1.32022],[36.79345,-1.31877],[36.79236,-1.31848],[36.79108,-1.31699],[36.78985,-1.31679],[36.78985,-1.31477],[36.78891,-1.31476],[36.78789,-1.31565],[36.78631,-1.31634],[36.78435,-1.31659],[36.78265,-1.31755],[36.78008,-1.31762],[36.77907,-1.31766],[36.77754,-1.31645],[36.77555,-1.3162],[36.77313,-1.31641],[36.77134,-1.31277],[36.76891,-1.31377],[36.76745,-1.31049],[36.75627,-1.31178],[36.75337,-1.30704],[36.74602,-1.30804],[36.74666,-1.30403],[36.74148,-1.30558],[36.73708,-1.30649],[36.72996,-1.30882],[36.73112,-1.30196],[36.73591,-1.30027],[36.73591,-1.29768],[36.7341,-1.29665],[36.72724,-1.296],[36.72517,-1.29807],[36.72257,-1.30312],[36.71869,-1.30299],[36.70716,-1.29833],[36.70522,-1.30455],[36.70133,-1.30209],[36.69538,-1.29911],[36.69058,-1.29742],[36.6854,-1.29613],[36.68385,-1.29988],[36.67557,-1.29985],[36.67035,-1.30477],[36.66642,-1.31422],[36.6688,-1.32298],[36.66964,-1.326],[36.67431,-1.32737],[36.67977,-1.32896],[36.68676,-1.34104],[36.69314,-1.35338],[36.703,-1.35236],[36.73483,-1.37852],[36.75078,-1.38473],[36.76789,-1.38925],[36.78285,-1.38889],[36.79347,-1.38577],[36.80945,-1.38758],[36.81563,-1.38205],[36.82107,-1.38287],[36.82569,-1.38535],[36.82985,-1.38758],[36.84339,-1.38756],[36.8494,-1.39568],[36.8598,-1.40006],[36.87129,-1.40707],[36.88259,-1.40629],[36.89462,-1.4119],[36.89086,-1.41396],[36.93182,-1.43288],[36.94265,-1.43349],[36.95159,-1.43801],[36.95705,-1.43864],[36.96159,-1.44498],[36.96363,-1.4401],[36.94761,-1.42176],[36.94443,-1.40722],[36.93736,-1.39991],[36.92708,-1.39435],[36.91678,-1.3778],[36.90078,-1.36508],[36.89547,-1.35907],[36.89322,-1.36118],[36.88323,-1.3501],[36.85176,-1.32947],[36.85232,-1.32809],[36.84066,-1.32125],[36.83287,-1.31651],[36.83093,-1.3145],[36.82879,-1.31035],[36.82569,-1.30358],[36.8228,-1.30486],[36.82156,-1.30558],[36.8188,-1.30605],[36.81561,-1.30531],[36.81392,-1.30609],[36.81024,-1.30808],[36.80826,-1.30811],[36.8073,-1.30901],[36.8083,-1.31014],[36.81019,-1.31033]]]}},{"type":"Feature","properties":{"name":"Embakasi South"},"geometry":{"type":"Polygon","coordinates":[[[36.88911,-1.33032],[36.89674,-1.32582],[36.89985,-1.32384],[36.88916,-1.30651],[36.8855,-1.30854],[36.88304,-1.30934],[36.88072,-1.31038],[36.87963,-1.31067],[36.87759,-1.31087],[36.87274,-1.31375],[36.87238,-1.31274],[36.87165,-1.31309],[36.87019,-1.3124],[36.86866,-1.31229],[36.86674,-1.31275],[36.86552,-1.3142],[36.86436,-1.31407],[36.86284,-1.31511],[36.8621,-1.31667],[36.85987,-1.31697],[36.85791,-1.31745],[36.85642,-1.31625],[36.85448,-1.3167],[36.85271,-1.31642],[36.85232,-1.31725],[36.85106,-1.31728],[36.84935,-1.31779],[36.8486,-1.31883],[36.84786,-1.31975],[36.84669,-1.31963],[36.84565,-1.32018],[36.84284,-1.32041],[36.84066,-1.32125],[36.85232,-1.32809],[36.85176,-1.32947],[36.88323,-1.3501],[36.89322,-1.36118],[36.89547,-1.35907],[36.90078,-1.36508],[36.91678,-1.3778],[36.91218,-1.37018],[36.90838,-1.36297],[36.89952,-1.35519],[36.88201,-1.3361],[36.88911,-1.33032]]]}},{"type":"Feature","properties":{"name":"Embakasi Central"},"geometry":{"type":"Polygon","coordinates":[[[36.92594,-1.26749],[36.92761,-1.26692],[36.92933,-1.26722],[36.92972,-1.26666],[36.9317,-1.26647],[36.93302,-1.26719],[36.93432,-1.26602],[36.93824,-1.26604],[36.93869,-1.26519],[36.93676,-1.26001],[36.93413,-1.25307],[36.92704,-1.25605],[36.92241,-1.25706],[36.91428,-1.25884],[36.90906,-1.26023],[36.90209,-1.26724],[36.90053,-1.26985],[36.89748,-1.27199],[36.90211,-1.28216],[36.90628,-1.27997],[36.91207,-1.29112],[36.91331,-1.29169],[36.91499,-1.29124],[36.91576,-1.29034],[36.9158,-1.28972],[36.91495,-1.28889],[36.91501,-1.28807],[36.91537,-1.28759],[36.91632,-1.28722],[36.91661,-1.28619],[36.91708,-1.28573],[36.91815,-1.28444],[36.91838,-1.28272],[36.91843,-1.28229],[36.91774,-1.28213],[36.91754,-1.28177],[36.91762,-1.28147],[36.91796,-1.28074],[36.91813,-1.28036],[36.91797,-1.27893],[36.91924,-1.2777],[36.92071,-1.27763],[36.92107,-1.27744],[36.92105,-1.27691],[36.9207,-1.27661],[36.92056,-1.27578],[36.9203,-1.27451],[36.92064,-1.27253],[36.92234,-1.27166],[36.92449,-1.27077],[36.92528,-1.26983],[36.92526,-1.26916],[36.92486,-1.26878],[36.92482,-1.2681],[36.92594,-1.26749]]]}},{"type":"Feature","properties":{"name":"Westlands"},"geometry":{"type":"Polygon","coordinates":[[[36.80321,-1.26608],[36.80827,-1.27181],[36.81019,-1.27331],[36.81245,-1.27446],[36.81422,-1.27303],[36.81456,-1.27124],[36.81577,-1.26952],[36.82075,-1.26895],[36.82335,-1.26891],[36.82773,-1.26852],[36.83422,-1.26662],[36.83747,-1.26428],[36.83849,-1.2636],[36.84021,-1.26351],[36.84122,-1.2625],[36.84143,-1.26161],[36.84245,-1.26095],[36.8451,-1.2501],[36.84173,-1.24596],[36.84121,-1.23534],[36.83318,-1.22342],[36.82993,-1.21793],[36.79523,-1.19776],[36.78707,-1.19669],[36.78638,-1.19875],[36.78284,-1.20752],[36.78644,-1.21257],[36.78282,-1.21771],[36.77774,-1.2167],[36.77325,-1.22685],[36.76665,-1.22777],[36.76416,-1.22809],[36.75688,-1.22462],[36.75522,-1.22367],[36.75315,-1.22242],[36.75113,-1.22419],[36.74996,-1.22626],[36.74649,-1.2364],[36.73472,-1.23575],[36.73203,-1.2404],[36.71621,-1.26081],[36.71979,-1.26388],[36.7279,-1.27108],[36.73084,-1.27281],[36.73554,-1.27614],[36.73866,-1.27793],[36.74322,-1.27706],[36.74787,-1.27491],[36.74928,-1.2741],[36.75061,-1.27496],[36.75469,-1.27351],[36.75841,-1.27316],[36.76182,-1.27002],[36.75851,-1.26701],[36.75684,-1.26694],[36.75511,-1.26593],[36.75377,-1.26431],[36.76221,-1.26369],[36.76635,-1.26214],[36.7681,-1.26076],[36.77956,-1.25878],[36.78419,-1.25936],[36.79318,-1.26114],[36.79581,-1.26118],[36.79933,-1.26173],[36.80321,-1.26608]]]}},{"type":"Feature","properties":{"name":"Dagoretti North"},"geometry":{"type":"Polygon","coordinates":[[[36.77956,-1.25878],[36.7681,-1.26076],[36.76635,-1.26214],[36.76221,-1.26369],[36.75377,-1.26431],[36.75511,-1.26593],[36.75684,-1.26694],[36.75851,-1.26701],[36.76182,-1.27002],[36.75841,-1.27316],[36.75469,-1.27351],[36.75061,-1.27496],[36.74928,-1.2741],[36.74787,-1.27491],[36.74322,-1.27706],[36.73866,-1.27793],[36.73554,-1.27614],[36.73597,-1.28021],[36.73779,-1.28492],[36.73939,-1.28592],[36.74197,-1.28746],[36.74546,-1.29038],[36.74925,-1.29263],[36.7511,-1.29265],[36.75313,-1.2932],[36.75683,-1.29757],[36.76087,-1.29871],[36.76828,-1.30023],[36.79162,-1.2999],[36.801,-1.29839],[36.8073,-1.29732],[36.80995,-1.29571],[36.81268,-1.29537],[36.81356,-1.29513],[36.81507,-1.29409],[36.82032,-1.29313],[36.81402,-1.28024],[36.81368,-1.27792],[36.81245,-1.27446],[36.81019,-1.27331],[36.80827,-1.27181],[36.80321,-1.26608],[36.79933,-1.26173],[36.79581,-1.26118],[36.79318,-1.26114],[36.78419,-1.25936],[36.77956,-1.25878]]]}},{"type":"Feature","properties":{"name":"Ruaraka"},"geometry":{"type":"Polygon","coordinates":[[[36.90009,-1.24241],[36.90034,-1.24229],[36.9009,-1.24184],[36.9011,-1.24154],[36.90232,-1.24155],[36.90227,-1.23983],[36.90444,-1.23871],[36.90525,-1.23913],[36.90653,-1.23854],[36.90854,-1.23803],[36.91001,-1.2385],[36.91186,-1.23769],[36.91079,-1.23613],[36.90926,-1.23521],[36.9079,-1.23511],[36.90615,-1.23352],[36.90479,-1.23426],[36.90379,-1.23439],[36.90283,-1.23535],[36.90197,-1.23534],[36.90029,-1.23549],[36.8989,-1.23509],[36.89806,-1.2345],[36.89727,-1.23605],[36.89549,-1.23716],[36.89466,-1.23799],[36.89199,-1.23824],[36.89066,-1.23808],[36.88835,-1.23767],[36.88678,-1.23693],[36.88606,-1.23686],[36.88513,-1.23768],[36.88358,-1.23768],[36.88287,-1.23808],[36.88165,-1.23956],[36.88111,-1.23964],[36.88088,-1.23918],[36.88026,-1.23913],[36.88002,-1.23978],[36.87951,-1.23983],[36.87875,-1.23938],[36.87822,-1.2398],[36.87795,-1.23993],[36.87764,-1.23978],[36.87686,-1.23895],[36.87612,-1.23974],[36.8758,-1.24081],[36.87486,-1.24086],[36.87474,-1.24049],[36.8741,-1.24049],[36.87404,-1.23969],[36.87317,-1.23974],[36.87304,-1.23936],[36.87187,-1.23916],[36.87138,-1.23876],[36.86995,-1.23858],[36.86712,-1.24393],[36.86673,-1.24479],[36.85718,-1.25475],[36.85552,-1.25646],[36.85324,-1.25809],[36.85104,-1.25868],[36.85164,-1.25945],[36.8536,-1.26061],[36.85627,-1.26325],[36.85782,-1.26294],[36.85951,-1.26317],[36.86167,-1.26135],[36.86167,-1.25982],[36.86285,-1.25888],[36.8639,-1.25829],[36.86459,-1.25756],[36.86645,-1.25737],[36.86764,-1.25708],[36.86967,-1.25614],[36.87013,-1.25568],[36.87037,-1.25484],[36.87122,-1.25436],[36.87238,-1.25424],[36.87376,-1.25297],[36.87434,-1.25258],[36.87493,-1.2524],[36.87622,-1.25235],[36.87675,-1.25221],[36.87725,-1.25162],[36.87725,-1.25133],[36.87687,-1.2507],[36.87694,-1.25014],[36.87767,-1.24924],[36.87788,-1.2492],[36.87937,-1.24889],[36.88029,-1.24959],[36.88102,-1.2495],[36.88152,-1.24842],[36.88391,-1.24953],[36.88455,-1.24923],[36.88538,-1.24855],[36.88607,-1.2488],[36.88638,-1.24939],[36.88684,-1.24907],[36.88974,-1.2546],[36.89041,-1.25464],[36.89071,-1.25387],[36.89117,-1.25368],[36.89255,-1.25345],[36.89348,-1.2528],[36.89371,-1.25219],[36.89287,-1.24979],[36.89352,-1.2491],[36.89373,-1.24832],[36.89501,-1.24802],[36.89532,-1.24589],[36.89653,-1.24593],[36.89659,-1.2456],[36.89639,-1.24525],[36.89622,-1.24438],[36.89634,-1.2438],[36.89671,-1.24357],[36.89854,-1.2435],[36.89963,-1.2431],[36.90009,-1.24241]]]}},{"type":"Feature","properties":{"name":"Roysambu"},"geometry":{"type":"Polygon","coordinates":[[[36.91722,-1.20077],[36.92033,-1.19688],[36.92433,-1.19187],[36.92826,-1.18695],[36.93676,-1.17588],[36.93356,-1.17503],[36.92338,-1.17174],[36.90693,-1.16545],[36.89533,-1.16516],[36.8893,-1.17419],[36.88926,-1.17817],[36.8892,-1.18448],[36.88667,-1.19651],[36.87454,-1.19741],[36.8598,-1.19324],[36.85144,-1.20512],[36.84321,-1.21889],[36.82993,-1.21793],[36.83318,-1.22342],[36.84121,-1.23534],[36.84173,-1.24596],[36.8451,-1.2501],[36.84245,-1.26095],[36.84709,-1.25872],[36.84979,-1.25878],[36.85104,-1.25868],[36.85324,-1.25809],[36.85552,-1.25646],[36.85718,-1.25475],[36.86673,-1.24479],[36.86712,-1.24393],[36.86995,-1.23858],[36.87086,-1.23681],[36.8737,-1.23383],[36.88814,-1.2221],[36.89587,-1.21624],[36.89936,-1.21494],[36.90487,-1.21168],[36.90851,-1.21174],[36.90946,-1.21057],[36.91351,-1.20562],[36.91681,-1.20149],[36.91722,-1.20077]]]}},{"type":"Feature","properties":{"name":"Embakasi North"},"geometry":{"type":"Polygon","coordinates":[[[36.90034,-1.24229],[36.90009,-1.24241],[36.89963,-1.2431],[36.89854,-1.2435],[36.89671,-1.24357],[36.89634,-1.2438],[36.89622,-1.24438],[36.89639,-1.24525],[36.89659,-1.2456],[36.89653,-1.24593],[36.89532,-1.24589],[36.89501,-1.24802],[36.89373,-1.24832],[36.89352,-1.2491],[36.89287,-1.24979],[36.89371,-1.25219],[36.89348,-1.2528],[36.89255,-1.25345],[36.89117,-1.25368],[36.89071,-1.25387],[36.89041,-1.25464],[36.88974,-1.2546],[36.88684,-1.24907],[36.88638,-1.24939],[36.88607,-1.2488],[36.88538,-1.24855],[36.88455,-1.24923],[36.88391,-1.24953],[36.88152,-1.24842],[36.88102,-1.2495],[36.88029,-1.24959],[36.87937,-1.24889],[36.87788,-1.2492],[36.87845,-1.25254],[36.87898,-1.26224],[36.88258,-1.26216],[36.88658,-1.26145],[36.89139,-1.25977],[36.89226,-1.25895],[36.89335,-1.25859],[36.89711,-1.25708],[36.89871,-1.25669],[36.90197,-1.25585],[36.9033,-1.2532],[36.90378,-1.25208],[36.90838,-1.24922],[36.91076,-1.24694],[36.91171,-1.24686],[36.91404,-1.24622],[36.91546,-1.24501],[36.91647,-1.24355],[36.91769,-1.24272],[36.92109,-1.24237],[36.92563,-1.24291],[36.92746,-1.24246],[36.92684,-1.24145],[36.92503,-1.24155],[36.92394,-1.24028],[36.92219,-1.24005],[36.92098,-1.24117],[36.91936,-1.24099],[36.91742,-1.23943],[36.91631,-1.23928],[36.91521,-1.2385],[36.91395,-1.23812],[36.91296,-1.23746],[36.91186,-1.23769],[36.91001,-1.2385],[36.90854,-1.23803],[36.90653,-1.23854],[36.90525,-1.23913],[36.90444,-1.23871],[36.90227,-1.23983],[36.90232,-1.24155],[36.9011,-1.24154],[36.9009,-1.24184],[36.90034,-1.24229]]]}},{"type":"Feature","properties":{"name":"Embakasi East"},"geometry":{"type":"Polygon","coordinates":[[[36.88658,-1.29457],[36.8858,-1.29515],[36.88607,-1.29642],[36.88769,-1.30215],[36.88916,-1.30651],[36.89985,-1.32384],[36.89674,-1.32582],[36.88911,-1.33032],[36.88201,-1.3361],[36.89952,-1.35519],[36.90838,-1.36297],[36.93475,-1.33894],[36.96125,-1.34866],[36.96715,-1.35439],[36.98439,-1.31538],[36.97472,-1.29015],[36.99082,-1.28321],[36.98103,-1.26909],[36.96799,-1.26092],[36.93944,-1.26011],[36.93676,-1.26001],[36.93869,-1.26519],[36.93824,-1.26604],[36.93432,-1.26602],[36.93302,-1.26719],[36.9317,-1.26647],[36.92972,-1.26666],[36.92933,-1.26722],[36.92761,-1.26692],[36.92594,-1.26749],[36.92482,-1.2681],[36.92486,-1.26878],[36.92526,-1.26916],[36.92528,-1.26983],[36.92449,-1.27077],[36.92234,-1.27166],[36.92064,-1.27253],[36.9203,-1.27451],[36.92056,-1.27578],[36.9207,-1.27661],[36.92105,-1.27691],[36.92107,-1.27744],[36.92071,-1.27763],[36.91924,-1.2777],[36.91797,-1.27893],[36.91813,-1.28036],[36.91796,-1.28074],[36.91762,-1.28147],[36.91754,-1.28177],[36.91774,-1.28213],[36.91843,-1.28229],[36.91838,-1.28272],[36.91815,-1.28444],[36.91708,-1.28573],[36.91661,-1.28619],[36.91632,-1.28722],[36.91537,-1.28759],[36.91501,-1.28807],[36.91495,-1.28889],[36.9158,-1.28972],[36.91576,-1.29034],[36.91499,-1.29124],[36.91331,-1.29169],[36.91207,-1.29112],[36.90628,-1.27997],[36.90211,-1.28216],[36.89887,-1.28465],[36.89839,-1.2862],[36.89236,-1.29169],[36.88658,-1.29457]]]}},{"type":"Feature","properties":{"name":"Kibra"},"geometry":{"type":"Polygon","coordinates":[[[36.80064,-1.3173],[36.80335,-1.31701],[36.80677,-1.31673],[36.80921,-1.31536],[36.81019,-1.31033],[36.8083,-1.31014],[36.8073,-1.30901],[36.80826,-1.30811],[36.81024,-1.30808],[36.81392,-1.30609],[36.81561,-1.30531],[36.8188,-1.30605],[36.82156,-1.30558],[36.8228,-1.30486],[36.82569,-1.30358],[36.82404,-1.3001],[36.82377,-1.29898],[36.82183,-1.29543],[36.82032,-1.29313],[36.81507,-1.29409],[36.81356,-1.29513],[36.81268,-1.29537],[36.80995,-1.29571],[36.8073,-1.29732],[36.801,-1.29839],[36.79162,-1.2999],[36.76828,-1.30023],[36.76087,-1.29871],[36.74666,-1.30403],[36.74602,-1.30804],[36.75337,-1.30704],[36.75627,-1.31178],[36.76745,-1.31049],[36.76891,-1.31377],[36.77134,-1.31277],[36.77313,-1.31641],[36.77555,-1.3162],[36.77754,-1.31645],[36.77907,-1.31766],[36.78008,-1.31762],[36.78265,-1.31755],[36.78435,-1.31659],[36.78631,-1.31634],[36.78789,-1.31565],[36.78891,-1.31476],[36.78985,-1.31477],[36.78985,-1.31679],[36.79108,-1.31699],[36.79236,-1.31848],[36.79345,-1.31877],[36.79481,-1.32022],[36.79636,-1.31912],[36.79847,-1.31905],[36.80039,-1.31839],[36.80064,-1.3173]]]}},{"type":"Feature","properties":{"name":"Dagoretti South"},"geometry":{"type":"Polygon","coordinates":[[[36.7511,-1.29265],[36.74925,-1.29263],[36.74546,-1.29038],[36.74197,-1.28746],[36.73939,-1.28592],[36.73779,-1.28492],[36.73597,-1.28021],[36.73554,-1.27614],[36.73084,-1.27281],[36.7279,-1.27108],[36.71979,-1.26388],[36.71621,-1.26081],[36.71006,-1.26108],[36.70165,-1.26118],[36.69901,-1.26403],[36.69416,-1.26924],[36.68903,-1.28048],[36.68734,-1.28463],[36.68303,-1.29172],[36.67557,-1.29985],[36.68385,-1.29988],[36.6854,-1.29613],[36.69058,-1.29742],[36.69538,-1.29911],[36.70133,-1.30209],[36.70522,-1.30455],[36.70716,-1.29833],[36.71869,-1.30299],[36.72257,-1.30312],[36.72517,-1.29807],[36.72724,-1.296],[36.7341,-1.29665],[36.73591,-1.29768],[36.73591,-1.30027],[36.73112,-1.30196],[36.72996,-1.30882],[36.73708,-1.30649],[36.74148,-1.30558],[36.74666,-1.30403],[36.76087,-1.29871],[36.75683,-1.29757],[36.75313,-1.2932],[36.7511,-1.29265]]]}},{"type":"Feature","properties":{"name":"Kasarani"},"geometry":{"type":"Polygon","coordinates":[[[37.00237,-1.23551],[36.99338,-1.2358],[36.9899,-1.23003],[36.98382,-1.22729],[36.97665,-1.22779],[36.96571,-1.23219],[36.9522,-1.23284],[36.94178,-1.23076],[36.92835,-1.22722],[36.91702,-1.22188],[36.90851,-1.21174],[36.90487,-1.21168],[36.89936,-1.21494],[36.89587,-1.21624],[36.88814,-1.2221],[36.8737,-1.23383],[36.87086,-1.23681],[36.86995,-1.23858],[36.87138,-1.23876],[36.87187,-1.23916],[36.87304,-1.23936],[36.87317,-1.23974],[36.87404,-1.23969],[36.8741,-1.24049],[36.87474,-1.24049],[36.87486,-1.24086],[36.8758,-1.24081],[36.87612,-1.23974],[36.87686,-1.23895],[36.87764,-1.23978],[36.87795,-1.23993],[36.87822,-1.2398],[36.87875,-1.23938],[36.87951,-1.23983],[36.88002,-1.23978],[36.88026,-1.23913],[36.88088,-1.23918],[36.88111,-1.23964],[36.88165,-1.23956],[36.88287,-1.23808],[36.88358,-1.23768],[36.88513,-1.23768],[36.88606,-1.23686],[36.88678,-1.23693],[36.88835,-1.23767],[36.89066,-1.23808],[36.89199,-1.23824],[36.89466,-1.23799],[36.89549,-1.23716],[36.89727,-1.23605],[36.89806,-1.2345],[36.8989,-1.23509],[36.90029,-1.23549],[36.90197,-1.23534],[36.90283,-1.23535],[36.90379,-1.23439],[36.90479,-1.23426],[36.90615,-1.23352],[36.9079,-1.23511],[36.90926,-1.23521],[36.91079,-1.23613],[36.91186,-1.23769],[36.91296,-1.23746],[36.91395,-1.23812],[36.91521,-1.2385],[36.91631,-1.23928],[36.91742,-1.23943],[36.91936,-1.24099],[36.92098,-1.24117],[36.92219,-1.24005],[36.92394,-1.24028],[36.92503,-1.24155],[36.92684,-1.24145],[36.92746,-1.24246],[36.92563,-1.24291],[36.92109,-1.24237],[36.91769,-1.24272],[36.91647,-1.24355],[36.91546,-1.24501],[36.91404,-1.24622],[36.91171,-1.24686],[36.91076,-1.24694],[36.90838,-1.24922],[36.90378,-1.25208],[36.9033,-1.2532],[36.90197,-1.25585],[36.89871,-1.25669],[36.90078,-1.25738],[36.90177,-1.25775],[36.90284,-1.25778],[36.90494,-1.25713],[36.9096,-1.25718],[36.91428,-1.25884],[36.92241,-1.25706],[36.92704,-1.25605],[36.93413,-1.25307],[36.93676,-1.26001],[36.93944,-1.26011],[36.96799,-1.26092],[36.98103,-1.26909],[36.99082,-1.28321],[37.02679,-1.29209],[37.07603,-1.30458],[37.07666,-1.29003],[37.094,-1.27421],[37.10227,-1.27309],[37.10274,-1.2627],[37.09458,-1.25473],[37.09523,-1.24483],[37.0807,-1.23738],[37.07058,-1.21818],[37.05619,-1.20744],[37.04629,-1.20969],[37.0371,-1.21576],[37.01282,-1.2314],[37.01319,-1.23535],[37.00699,-1.23713],[37.00237,-1.23551]]]}},{"type":"Feature","properties":{"name":"Starehe"},"geometry":{"type":"Polygon","coordinates":[[[36.8444,-1.28024],[36.8464,-1.28019],[36.84368,-1.2675],[36.84263,-1.26431],[36.8393,-1.26397],[36.83825,-1.26447],[36.83747,-1.26428],[36.83422,-1.26662],[36.82773,-1.26852],[36.82335,-1.26891],[36.82075,-1.26895],[36.81577,-1.26952],[36.81456,-1.27124],[36.81422,-1.27303],[36.81245,-1.27446],[36.81368,-1.27792],[36.81402,-1.28024],[36.82032,-1.29313],[36.82183,-1.29543],[36.82377,-1.29898],[36.82404,-1.3001],[36.82569,-1.30358],[36.82879,-1.31035],[36.83093,-1.3145],[36.83287,-1.31651],[36.84066,-1.32125],[36.84284,-1.32041],[36.84565,-1.32018],[36.84669,-1.31963],[36.84786,-1.31975],[36.8486,-1.31883],[36.84935,-1.31779],[36.85106,-1.31728],[36.85232,-1.31725],[36.85271,-1.31642],[36.85448,-1.3167],[36.85642,-1.31625],[36.8579,-1.31469],[36.85973,-1.3136],[36.8612,-1.31183],[36.86096,-1.3087],[36.85669,-1.30192],[36.85669,-1.30072],[36.84947,-1.30204],[36.84559,-1.30193],[36.8441,-1.30101],[36.84321,-1.30031],[36.83842,-1.29211],[36.84266,-1.29265],[36.85091,-1.29457],[36.85191,-1.29375],[36.8522,-1.29282],[36.85233,-1.29138],[36.85243,-1.28988],[36.84906,-1.28973],[36.84794,-1.28894],[36.84688,-1.28807],[36.84589,-1.28786],[36.8441,-1.28764],[36.84351,-1.28692],[36.84252,-1.2881],[36.84128,-1.28799],[36.83998,-1.28676],[36.83761,-1.28705],[36.83561,-1.2862],[36.83536,-1.28576],[36.83739,-1.28559],[36.83854,-1.28488],[36.83976,-1.28496],[36.84103,-1.28365],[36.84435,-1.28295],[36.8444,-1.28024]]]}},{"type":"Feature","properties":{"name":"Makadara"},"geometry":{"type":"Polygon","coordinates":[[[36.88607,-1.29642],[36.8858,-1.29515],[36.88513,-1.29121],[36.88259,-1.28224],[36.88175,-1.27715],[36.87879,-1.27791],[36.88082,-1.28237],[36.87792,-1.28217],[36.8758,-1.28397],[36.87408,-1.2812],[36.87228,-1.28287],[36.8669,-1.28779],[36.86453,-1.28361],[36.86348,-1.28368],[36.86262,-1.28415],[36.86135,-1.28442],[36.86021,-1.28587],[36.8592,-1.28651],[36.85785,-1.28712],[36.85687,-1.28787],[36.85512,-1.28807],[36.85465,-1.28868],[36.85416,-1.28921],[36.85339,-1.28973],[36.85263,-1.28985],[36.85243,-1.28988],[36.85233,-1.29138],[36.8522,-1.29282],[36.85191,-1.29375],[36.85091,-1.29457],[36.84266,-1.29265],[36.83842,-1.29211],[36.84321,-1.30031],[36.8441,-1.30101],[36.84559,-1.30193],[36.84947,-1.30204],[36.85669,-1.30072],[36.85669,-1.30192],[36.86096,-1.3087],[36.8612,-1.31183],[36.85973,-1.3136],[36.8579,-1.31469],[36.85642,-1.31625],[36.85791,-1.31745],[36.85987,-1.31697],[36.8621,-1.31667],[36.86284,-1.31511],[36.86436,-1.31407],[36.86552,-1.3142],[36.86674,-1.31275],[36.86866,-1.31229],[36.87019,-1.3124],[36.87165,-1.31309],[36.87238,-1.31274],[36.87274,-1.31375],[36.87759,-1.31087],[36.87963,-1.31067],[36.88072,-1.31038],[36.88304,-1.30934],[36.8855,-1.30854],[36.88916,-1.30651],[36.88769,-1.30215],[36.88607,-1.29642]]]}},{"type":"Feature","properties":{"name":"Mathare"},"geometry":{"type":"Polygon","coordinates":[[[36.85095,-1.26622],[36.85714,-1.26622],[36.85888,-1.26614],[36.85969,-1.26488],[36.86039,-1.2644],[36.86599,-1.2627],[36.86734,-1.26229],[36.86964,-1.26159],[36.87422,-1.26231],[36.87632,-1.26263],[36.87898,-1.26224],[36.87845,-1.25254],[36.87788,-1.2492],[36.87767,-1.24924],[36.87694,-1.25014],[36.87687,-1.2507],[36.87725,-1.25133],[36.87725,-1.25162],[36.87675,-1.25221],[36.87622,-1.25235],[36.87493,-1.2524],[36.87434,-1.25258],[36.87376,-1.25297],[36.87238,-1.25424],[36.87122,-1.25436],[36.87037,-1.25484],[36.87013,-1.25568],[36.86967,-1.25614],[36.86764,-1.25708],[36.86645,-1.25737],[36.86459,-1.25756],[36.8639,-1.25829],[36.86285,-1.25888],[36.86167,-1.25982],[36.86167,-1.26135],[36.85951,-1.26317],[36.85782,-1.26294],[36.85627,-1.26325],[36.8536,-1.26061],[36.85164,-1.25945],[36.85104,-1.25868],[36.84979,-1.25878],[36.84709,-1.25872],[36.84245,-1.26095],[36.84143,-1.26161],[36.84122,-1.2625],[36.84021,-1.26351],[36.83849,-1.2636],[36.83747,-1.26428],[36.83825,-1.26447],[36.8393,-1.26397],[36.84263,-1.26431],[36.84368,-1.2675],[36.8473,-1.26671],[36.84901,-1.26647],[36.85095,-1.26622]]]}},{"type":"Feature","properties":{"name":"Kamukunji"},"geometry":{"type":"Polygon","coordinates":[[[36.85243,-1.28988],[36.85263,-1.28985],[36.85339,-1.28973],[36.85416,-1.28921],[36.85465,-1.28868],[36.85512,-1.28807],[36.85687,-1.28787],[36.85785,-1.28712],[36.8592,-1.28651],[36.86021,-1.28587],[36.86135,-1.28442],[36.86262,-1.28415],[36.86348,-1.28368],[36.86453,-1.28361],[36.86538,-1.28261],[36.86791,-1.28268],[36.86866,-1.28139],[36.86993,-1.28118],[36.87026,-1.27922],[36.87146,-1.27882],[36.87174,-1.27701],[36.87206,-1.27623],[36.87187,-1.27477],[36.87243,-1.27438],[36.87253,-1.2732],[36.87334,-1.27246],[36.87414,-1.27174],[36.87436,-1.27077],[36.87452,-1.27014],[36.87446,-1.26915],[36.87453,-1.26826],[36.87637,-1.26876],[36.87687,-1.26816],[36.8781,-1.26814],[36.87836,-1.26669],[36.87903,-1.26581],[36.87955,-1.26453],[36.87898,-1.26224],[36.87632,-1.26263],[36.87422,-1.26231],[36.86964,-1.26159],[36.86734,-1.26229],[36.86599,-1.2627],[36.86039,-1.2644],[36.85969,-1.26488],[36.85888,-1.26614],[36.85714,-1.26622],[36.85095,-1.26622],[36.84901,-1.26647],[36.8473,-1.26671],[36.84368,-1.2675],[36.8464,-1.28019],[36.8444,-1.28024],[36.84435,-1.28295],[36.84103,-1.28365],[36.83976,-1.28496],[36.83854,-1.28488],[36.83739,-1.28559],[36.83536,-1.28576],[36.83561,-1.2862],[36.83761,-1.28705],[36.83998,-1.28676],[36.84128,-1.28799],[36.84252,-1.2881],[36.84351,-1.28692],[36.8441,-1.28764],[36.84589,-1.28786],[36.84688,-1.28807],[36.84794,-1.28894],[36.84906,-1.28973],[36.85243,-1.28988]]]}}]}