{"type":"FeatureCollection","features":[{"type":"Feature","properties":{"name":"Umoja II","subcounty":"Embakasi West"},"geometry":{"type":"Polygon","coordinates":[[[36.88658,-1.29457],[36.89236,-1.29169],[36.89839,-1.2862],[36.89887,-1.28465],[36.90211,-1.28216],[36.89748,-1.27199],[36.89503,-1.27385],[36.88658,-1.29457]]]}},{"type":"Feature","properties":{"name":"Nairobi West","subcounty":"Langata"},"geometry":{"type":"Polygon","coordinates":[[[36.82879,-1.31035],[36.82569,-1.30358],[36.8228,-1.30486],[36.82156,-1.30558],[36.8188,-1.30605],[36.81561,-1.30531],[36.81392,-1.30609],[36.81024,-1.30808],[36.80826,-1.30811],[36.8073,-1.30901],[36.8083,-1.31014],[36.81019,-1.31033],[36.81272,-1.31131],[36.8164,-1.3122],[36.81502,-1.31293],[36.81262,-1.31307],[36.8065,-1.32254],[36.79523,-1.32462],[36.79782,-1.33342],[36.8302,-1.32863],[36.82879,-1.31035]]]}},{"type":"Feature","properties":{"name":"Kwa Njenga","subcounty":"Embakasi South"},"geometry":{"type":"Polygon","coordinates":[[[36.87597,-1.31644],[36.87048,-1.32477],[36.88201,-1.3361],[36.88911,-1.33032],[36.88717,-1.32213],[36.87597,-1.31644]]]}},{"type":"Feature","properties":{"name":"Kayole North","subcounty":"Embakasi Central"},"geometry":{"type":"Polygon","coordinates":[[[36.92392,-1.26118],[36.91817,-1.26586],[36.91563,-1.26845],[36.9137,-1.27094],[36.9203,-1.27451],[36.92064,-1.27253],[36.92234,-1.27166],[36.92449,-1.27077],[36.92528,-1.26983],[36.92526,-1.26916],[36.92486,-1.26878],[36.92482,-1.2681],[36.92594,-1.26749],[36.92523,-1.2661],[36.92551,-1.26552],[36.92392,-1.26118]]]}},{"type":"Feature","properties":{"name":"Parklands/Highridge","subcounty":"Westlands"},"geometry":{"type":"Polygon","coordinates":[[[36.80261,-1.25256],[36.80054,-1.25256],[36.79769,-1.25075],[36.79536,-1.25075],[36.79458,-1.25178],[36.79044,-1.25023],[36.78389,-1.24936],[36.78002,-1.24875],[36.77804,-1.24881],[36.77419,-1.25641],[36.77956,-1.25878],[36.78419,-1.25936],[36.79318,-1.26114],[36.79581,-1.26118],[36.79933,-1.26173],[36.80321,-1.26608],[36.80417,-1.26564],[36.81116,-1.25528],[36.8078,-1.25528],[36.80417,-1.25502],[36.80261,-1.25256]]]}},{"type":"Feature","properties":{"name":"Kileleshwa","subcounty":"Dagoretti North"},"geometry":{"type":"Polygon","coordinates":[[[36.77956,-1.25878],[36.7681,-1.26076],[36.76635,-1.26214],[36.76221,-1.26369],[36.75377,-1.26431],[36.75511,-1.26593],[36.75684,-1.26694],[36.75851,-1.26701],[36.76182,-1.27002],[36.76259,-1.27062],[36.76557,-1.27114],[36.76998,-1.26842],[36.77373,-1.26842],[36.77593,-1.26674],[36.77749,-1.26751],[36.78021,-1.26674],[36.78124,-1.26609],[36.78306,-1.26777],[36.77917,-1.27464],[36.77775,-1.2802],[36.77606,-1.28461],[36.77516,-1.28888],[36.77244,-1.28927],[36.77334,-1.29328],[36.77619,-1.29289],[36.78137,-1.28668],[36.78552,-1.28603],[36.78746,-1.28305],[36.79187,-1.2837],[36.79407,-1.2824],[36.7951,-1.28137],[36.7951,-1.27891],[36.79951,-1.27554],[36.80119,-1.27541],[36.803,-1.27671],[36.80521,-1.27671],[36.80624,-1.27619],[36.80883,-1.27735],[36.81245,-1.27446],[36.81019,-1.27331],[36.80827,-1.27181],[36.80321,-1.26608],[36.79933,-1.26173],[36.79581,-1.26118],[36.79318,-1.26114],[36.78419,-1.25936],[36.77956,-1.25878]]]}},{"type":"Feature","properties":{"name":"Komarock","subcounty":"Embakasi Central"},"geometry":{"type":"Polygon","coordinates":[[[36.90211,-1.28216],[36.90628,-1.27997],[36.90825,-1.27829],[36.90991,-1.27599],[36.9137,-1.27094],[36.91563,-1.26845],[36.91817,-1.26586],[36.92392,-1.26118],[36.92241,-1.25706],[36.91428,-1.25884],[36.90906,-1.26023],[36.90209,-1.26724],[36.90053,-1.26985],[36.89748,-1.27199],[36.90211,-1.28216]]]}},{"type":"Feature","properties":{"name":"Korogocho","subcounty":"Ruaraka"},"geometry":{"type":"Polygon","coordinates":[[[36.88684,-1.24907],[36.88974,-1.2546],[36.89041,-1.25464],[36.89071,-1.25387],[36.89117,-1.25368],[36.89255,-1.25345],[36.89348,-1.2528],[36.89371,-1.25219],[36.89287,-1.24979],[36.89352,-1.2491],[36.89373,-1.24832],[36.89501,-1.24802],[36.89532,-1.24589],[36.89653,-1.24593],[36.89659,-1.2456],[36.89639,-1.24525],[36.89622,-1.24438],[36.89634,-1.2438],[36.89671,-1.24357],[36.89854,-1.2435],[36.89963,-1.2431],[36.90009,-1.24241],[36.89929,-1.24277],[36.89796,-1.24276],[36.89709,-1.24275],[36.89626,-1.24335],[36.89519,-1.24284],[36.8939,-1.24284],[36.8936,-1.24403],[36.89113,-1.24432],[36.89069,-1.24567],[36.88979,-1.24636],[36.88869,-1.24644],[36.88885,-1.24758],[36.88821,-1.24764],[36.88839,-1.24857],[36.88778,-1.24898],[36.88684,-1.24907]]]}},{"type":"Feature","properties":{"name":"Githurai","subcounty":"Roysambu"},"geometry":{"type":"Polygon","coordinates":[[[36.88814,-1.2221],[36.89587,-1.21624],[36.89936,-1.21494],[36.90487,-1.21168],[36.90851,-1.21174],[36.90946,-1.21057],[36.91351,-1.20562],[36.91681,-1.20149],[36.91722,-1.20077],[36.914,-1.20044],[36.9118,-1.19902],[36.91076,-1.19643],[36.90661,-1.1928],[36.88667,-1.19651],[36.89567,-1.19753],[36.89729,-1.20251],[36.89625,-1.20407],[36.89405,-1.2064],[36.89107,-1.2165],[36.88874,-1.22051],[36.88814,-1.2221]]]}},{"type":"Feature","properties":{"name":"Kangemi","subcounty":"Westlands"},"geometry":{"type":"Polygon","coordinates":[[[36.75377,-1.26431],[36.73993,-1.26525],[36.74051,-1.26952],[36.74997,-1.26952],[36.75061,-1.27496],[36.75469,-1.27351],[36.75841,-1.27316],[36.76182,-1.27002],[36.75851,-1.26701],[36.75684,-1.26694],[36.75511,-1.26593],[36.75377,-1.26431]]]}},{"type":"Feature","properties":{"name":"Nyayo Highrise","subcounty":"Langata"},"geometry":{"type":"Polygon","coordinates":[[[36.81019,-1.31033],[36.80921,-1.31536],[36.81036,-1.31512],[36.81262,-1.31307],[36.81502,-1.31293],[36.8164,-1.3122],[36.81272,-1.31131],[36.81019,-1.31033]]]}},{"type":"Feature","properties":{"name":"Dandora Area III","subcounty":"Embakasi North"},"geometry":{"type":"Polygon","coordinates":[[[36.90034,-1.24229],[36.90044,-1.24884],[36.9033,-1.2532],[36.90378,-1.25208],[36.90838,-1.24922],[36.90653,-1.23854],[36.90525,-1.23913],[36.90444,-1.23871],[36.90227,-1.23983],[36.90232,-1.24155],[36.9011,-1.24154],[36.9009,-1.24184],[36.90034,-1.24229]]]}},{"type":"Feature","properties":{"name":"Lower Savannah","subcounty":"Embakasi East"},"geometry":{"type":"Polygon","coordinates":[[[36.88658,-1.29457],[36.8858,-1.29515],[36.88607,-1.29642],[36.88769,-1.30215],[36.88916,-1.30651],[36.89068,-1.30584],[36.89289,-1.30558],[36.89638,-1.30325],[36.8969,-1.30144],[36.89846,-1.30118],[36.89846,-1.2995],[36.89768,-1.2982],[36.90105,-1.29794],[36.90221,-1.29704],[36.90338,-1.29704],[36.90351,-1.29509],[36.9048,-1.29522],[36.9061,-1.29522],[36.90739,-1.29406],[36.90687,-1.2925],[36.90211,-1.28216],[36.89887,-1.28465],[36.89839,-1.2862],[36.89236,-1.29169],[36.88658,-1.29457]]]}},{"type":"Feature","properties":{"name":"Kahawa","subcounty":"Roysambu"},"geometry":{"type":"Polygon","coordinates":[[[36.91722,-1.20077],[36.92033,-1.19688],[36.88926,-1.17817],[36.8892,-1.18448],[36.88667,-1.19651],[36.90661,-1.1928],[36.91076,-1.19643],[36.9118,-1.19902],[36.914,-1.20044],[36.91722,-1.20077]]]}},{"type":"Feature","properties":{"name":"Kayole South","subcounty":"Embakasi Central"},"geometry":{"type":"Polygon","coordinates":[[[36.90628,-1.27997],[36.91207,-1.29112],[36.91331,-1.29169],[36.91499,-1.29124],[36.91576,-1.29034],[36.9158,-1.28972],[36.91495,-1.28889],[36.91501,-1.28807],[36.91537,-1.28759],[36.91632,-1.28722],[36.91661,-1.28619],[36.91708,-1.28573],[36.91815,-1.28444],[36.91838,-1.28272],[36.91573,-1.28226],[36.91471,-1.28165],[36.91333,-1.28097],[36.91106,-1.28032],[36.91034,-1.2798],[36.90928,-1.27892],[36.90825,-1.27829],[36.90628,-1.27997]]]}},{"type":"Feature","properties":{"name":"Mountain View","subcounty":"Westlands"},"geometry":{"type":"Polygon","coordinates":[[[36.73993,-1.26525],[36.73009,-1.26525],[36.72413,-1.26369],[36.72154,-1.26395],[36.71979,-1.26388],[36.7279,-1.27108],[36.73084,-1.27281],[36.73554,-1.27614],[36.73866,-1.27793],[36.74322,-1.27706],[36.74787,-1.27491],[36.74928,-1.2741],[36.75061,-1.27496],[36.74997,-1.26952],[36.74051,-1.26952],[36.73993,-1.26525]]]}},{"type":"Feature","properties":{"name":"Kilimani","subcounty":"Dagoretti North"},"geometry":{"type":"Polygon","coordinates":[[[36.76182,-1.27002],[36.75897,-1.28512],[36.75754,-1.28577],[36.7534,-1.28888],[36.7511,-1.29265],[36.75313,-1.2932],[36.75683,-1.29757],[36.76087,-1.29871],[36.76828,-1.30023],[36.79162,-1.2999],[36.801,-1.29839],[36.8073,-1.29732],[36.80995,-1.29571],[36.81268,-1.29537],[36.81356,-1.29513],[36.81507,-1.29409],[36.82032,-1.29313],[36.81402,-1.28024],[36.81368,-1.27792],[36.81245,-1.27446],[36.80883,-1.27735],[36.80624,-1.27619],[36.80521,-1.27671],[36.803,-1.27671],[36.80119,-1.27541],[36.79951,-1.27554],[36.7951,-1.27891],[36.7951,-1.28137],[36.79407,-1.2824],[36.79187,-1.2837],[36.78746,-1.28305],[36.78552,-1.28603],[36.78137,-1.28668],[36.77619,-1.29289],[36.77334,-1.29328],[36.77244,-1.28927],[36.77516,-1.28888],[36.77606,-1.28461],[36.77775,-1.2802],[36.77917,-1.27464],[36.78306,-1.26777],[36.78124,-1.26609],[36.78021,-1.26674],[36.77749,-1.26751],[36.77593,-1.26674],[36.77373,-1.26842],[36.76998,-1.26842],[36.76557,-1.27114],[36.76259,-1.27062],[36.76182,-1.27002]]]}},{"type":"Feature","properties":{"name":"Lindi","subcounty":"Kibra"},"geometry":{"type":"Polygon","coordinates":[[[36.78179,-1.31343],[36.78631,-1.31634],[36.78789,-1.31565],[36.78891,-1.31476],[36.78985,-1.31477],[36.78985,-1.31679],[36.79108,-1.31699],[36.79236,-1.31848],[36.79345,-1.31877],[36.79481,-1.32022],[36.79636,-1.31912],[36.79847,-1.31905],[36.80039,-1.31839],[36.80064,-1.3173],[36.7965,-1.31266],[36.79245,-1.31049],[36.78624,-1.31129],[36.78179,-1.31343]]]}},{"type":"Feature","properties":{"name":"Dandora Area II","subcounty":"Embakasi North"},"geometry":{"type":"Polygon","coordinates":[[[36.89117,-1.25368],[36.89335,-1.25859],[36.89711,-1.25708],[36.89871,-1.25669],[36.90197,-1.25585],[36.9033,-1.2532],[36.90044,-1.24884],[36.90034,-1.24229],[36.90009,-1.24241],[36.89963,-1.2431],[36.89854,-1.2435],[36.89671,-1.24357],[36.89634,-1.2438],[36.89622,-1.24438],[36.89639,-1.24525],[36.89659,-1.2456],[36.89653,-1.24593],[36.89532,-1.24589],[36.89501,-1.24802],[36.89373,-1.24832],[36.89352,-1.2491],[36.89287,-1.24979],[36.89371,-1.25219],[36.89348,-1.2528],[36.89255,-1.25345],[36.89117,-1.25368]]]}},{"type":"Feature","properties":{"name":"Riruta","subcounty":"Dagoretti South"},"geometry":{"type":"Polygon","coordinates":[[[36.7511,-1.29265],[36.74925,-1.29263],[36.74546,-1.29038],[36.74197,-1.28746],[36.73939,-1.28592],[36.73779,-1.28492],[36.72517,-1.2881],[36.72413,-1.29121],[36.72724,-1.296],[36.7341,-1.29665],[36.73591,-1.29768],[36.73591,-1.30027],[36.73747,-1.29963],[36.73889,-1.29924],[36.74045,-1.29898],[36.74226,-1.29794],[36.74252,-1.29691],[36.74407,-1.29678],[36.74472,-1.29574],[36.74731,-1.29574],[36.74822,-1.29432],[36.75313,-1.2932],[36.7511,-1.29265]]]}},{"type":"Feature","properties":{"name":"Ngando","subcounty":"Dagoretti South"},"geometry":{"type":"Polygon","coordinates":[[[36.75313,-1.2932],[36.74822,-1.29432],[36.74731,-1.29574],[36.74472,-1.29574],[36.74407,-1.29678],[36.74252,-1.29691],[36.74226,-1.29794],[36.74045,-1.29898],[36.73889,-1.29924],[36.73747,-1.29963],[36.73591,-1.30027],[36.73112,-1.30196],[36.72996,-1.30882],[36.73708,-1.30649],[36.74148,-1.30558],[36.74666,-1.30403],[36.76087,-1.29871],[36.75683,-1.29757],[36.75313,-1.2932]]]}},{"type":"Feature","properties":{"name":"Dandora Area I","subcounty":"Embakasi North"},"geometry":{"type":"Polygon","coordinates":[[[36.88974,-1.2546],[36.88258,-1.26216],[36.88658,-1.26145],[36.89139,-1.25977],[36.89226,-1.25895],[36.89335,-1.25859],[36.89117,-1.25368],[36.89071,-1.25387],[36.89041,-1.25464],[36.88974,-1.2546]]]}},{"type":"Feature","properties":{"name":"Laini Saba","subcounty":"Kibra"},"geometry":{"type":"Polygon","coordinates":[[[36.8073,-1.30901],[36.80335,-1.31701],[36.80677,-1.31673],[36.80921,-1.31536],[36.81019,-1.31033],[36.8083,-1.31014],[36.8073,-1.30901]]]}},{"type":"Feature","properties":{"name":"Ruai","subcounty":"Kasarani"},"geometry":{"type":"Polygon","coordinates":[[[36.95013,-1.24602],[36.94938,-1.24839],[36.94612,-1.24848],[36.94416,-1.24949],[36.94348,-1.25815],[36.93944,-1.26011],[36.96799,-1.26092],[36.98103,-1.26909],[36.99082,-1.28321],[37.02679,-1.29209],[37.07603,-1.30458],[37.07666,-1.29003],[37.094,-1.27421],[37.10227,-1.27309],[37.10274,-1.2627],[37.09458,-1.25473],[37.09523,-1.24483],[37.0807,-1.23738],[37.07058,-1.21818],[37.05619,-1.20744],[37.04629,-1.20969],[37.0371,-1.21576],[37.01282,-1.2314],[37.01319,-1.23535],[37.00699,-1.23713],[37.00237,-1.23551],[36.99935,-1.2411],[36.99533,-1.2446],[36.99171,-1.24602],[36.98562,-1.24602],[36.98096,-1.24356],[36.97642,-1.24576],[36.9737,-1.24615],[36.97111,-1.24952],[36.96956,-1.25172],[36.96697,-1.24913],[36.96282,-1.24861],[36.95881,-1.24706],[36.95363,-1.2468],[36.95013,-1.24602]]]}},{"type":"Feature","properties":{"name":"Woodley/Kenyatta Golf","subcounty":"Kibra"},"geometry":{"type":"Polygon","coordinates":[[[36.82569,-1.30358],[36.82404,-1.3001],[36.82377,-1.29898],[36.82183,-1.29543],[36.82032,-1.29313],[36.81507,-1.29409],[36.81356,-1.29513],[36.81268,-1.29537],[36.80995,-1.29571],[36.8073,-1.29732],[36.801,-1.29839],[36.79162,-1.2999],[36.76828,-1.30023],[36.76087,-1.29871],[36.74666,-1.30403],[36.74602,-1.30804],[36.75337,-1.30704],[36.75627,-1.31178],[36.76745,-1.31049],[36.76802,-1.30765],[36.77698,-1.30688],[36.78894,-1.30638],[36.78975,-1.30892],[36.79245,-1.31049],[36.7965,-1.31266],[36.80064,-1.3173],[36.80335,-1.31701],[36.8073,-1.30901],[36.80826,-1.30811],[36.81024,-1.30808],[36.81392,-1.30609],[36.81561,-1.30531],[36.8188,-1.30605],[36.82156,-1.30558],[36.8228,-1.30486],[36.82569,-1.30358]]]}},{"type":"Feature","properties":{"name":"Dandora Area IV","subcounty":"Embakasi North"},"geometry":{"type":"Polygon","coordinates":[[[36.90838,-1.24922],[36.91076,-1.24694],[36.91171,-1.24686],[36.91404,-1.24622],[36.91546,-1.24501],[36.91647,-1.24355],[36.91769,-1.24272],[36.92109,-1.24237],[36.92563,-1.24291],[36.92746,-1.24246],[36.92684,-1.24145],[36.92503,-1.24155],[36.92394,-1.24028],[36.92219,-1.24005],[36.92098,-1.24117],[36.91936,-1.24099],[36.91742,-1.23943],[36.91631,-1.23928],[36.91521,-1.2385],[36.91395,-1.23812],[36.91296,-1.23746],[36.91186,-1.23769],[36.91001,-1.2385],[36.90854,-1.23803],[36.90653,-1.23854],[36.90838,-1.24922]]]}},{"type":"Feature","properties":{"name":"Kasarani","subcounty":"Kasarani"},"geometry":{"type":"Polygon","coordinates":[[[36.88814,-1.2221],[36.8737,-1.23383],[36.87086,-1.23681],[36.86995,-1.23858],[36.87138,-1.23876],[36.87187,-1.23916],[36.87304,-1.23936],[36.87317,-1.23974],[36.87404,-1.23969],[36.8741,-1.24049],[36.87474,-1.24049],[36.87486,-1.24086],[36.8758,-1.24081],[36.87612,-1.23974],[36.87686,-1.23895],[36.87764,-1.23978],[36.87795,-1.23993],[36.87822,-1.2398],[36.87875,-1.23938],[36.87951,-1.23983],[36.88002,-1.23978],[36.88026,-1.23913],[36.88088,-1.23918],[36.88111,-1.23964],[36.88165,-1.23956],[36.88287,-1.23808],[36.88358,-1.23768],[36.88513,-1.23768],[36.88606,-1.23686],[36.88678,-1.23693],[36.88835,-1.23767],[36.89066,-1.23808],[36.89199,-1.23824],[36.89466,-1.23799],[36.89549,-1.23716],[36.89727,-1.23605],[36.89806,-1.2345],[36.8989,-1.23509],[36.90029,-1.23549],[36.90197,-1.23534],[36.90283,-1.23535],[36.90379,-1.23439],[36.90479,-1.23426],[36.90487,-1.21168],[36.89936,-1.21494],[36.89587,-1.21624],[36.88814,-1.2221]]]}},{"type":"Feature","properties":{"name":"Karura","subcounty":"Westlands"},"geometry":{"type":"Polygon","coordinates":[[[36.80321,-1.26608],[36.80827,-1.27181],[36.81019,-1.27331],[36.81245,-1.27446],[36.81422,-1.27303],[36.81456,-1.27124],[36.81577,-1.26952],[36.82075,-1.26895],[36.82335,-1.26891],[36.82773,-1.26852],[36.83422,-1.26662],[36.83747,-1.26428],[36.83849,-1.2636],[36.84021,-1.26351],[36.84122,-1.2625],[36.84143,-1.26161],[36.84245,-1.26095],[36.8451,-1.2501],[36.84173,-1.24596],[36.84121,-1.23534],[36.83318,-1.22342],[36.82993,-1.21793],[36.79523,-1.19776],[36.78707,-1.19669],[36.78638,-1.19875],[36.78284,-1.20752],[36.78644,-1.21257],[36.78282,-1.21771],[36.77774,-1.2167],[36.77325,-1.22685],[36.76665,-1.22777],[36.76416,-1.22809],[36.75688,-1.22462],[36.75522,-1.22367],[36.75315,-1.22242],[36.75113,-1.22419],[36.74996,-1.22626],[36.75444,-1.22847],[36.76065,-1.23624],[36.76402,-1.23624],[36.76609,-1.23702],[36.76946,-1.23702],[36.77283,-1.23702],[36.77853,-1.23909],[36.78215,-1.23935],[36.78707,-1.24013],[36.79096,-1.24375],[36.79225,-1.2466],[36.79795,-1.24867],[36.80158,-1.24971],[36.80313,-1.25049],[36.80261,-1.25256],[36.80417,-1.25502],[36.8078,-1.25528],[36.81116,-1.25528],[36.80417,-1.26564],[36.80321,-1.26608]]]}},{"type":"Feature","properties":{"name":"Utalii","subcounty":"Ruaraka"},"geometry":{"type":"Polygon","coordinates":[[[36.8639,-1.25829],[36.86384,-1.25785],[36.86414,-1.25736],[36.86541,-1.2566],[36.86627,-1.25622],[36.86779,-1.2561],[36.86644,-1.25209],[36.86844,-1.25161],[36.86892,-1.25098],[36.86914,-1.24939],[36.86893,-1.24795],[36.86951,-1.24685],[36.86673,-1.24479],[36.85718,-1.25475],[36.85552,-1.25646],[36.85324,-1.25809],[36.85104,-1.25868],[36.85164,-1.25945],[36.8536,-1.26061],[36.85627,-1.26325],[36.85782,-1.26294],[36.85951,-1.26317],[36.86167,-1.26135],[36.86167,-1.25982],[36.86285,-1.25888],[36.8639,-1.25829]]]}},{"type":"Feature","properties":{"name":"Gatina","subcounty":"Dagoretti North"},"geometry":{"type":"Polygon","coordinates":[[[36.75061,-1.27496],[36.74928,-1.2741],[36.74787,-1.27491],[36.7534,-1.28888],[36.75754,-1.28577],[36.75897,-1.28512],[36.76182,-1.27002],[36.75841,-1.27316],[36.75469,-1.27351],[36.75061,-1.27496]]]}},{"type":"Feature","properties":{"name":"Sarangombe","subcounty":"Kibra"},"geometry":{"type":"Polygon","coordinates":[[[36.78179,-1.31343],[36.77765,-1.31076],[36.77698,-1.30688],[36.76802,-1.30765],[36.76745,-1.31049],[36.76891,-1.31377],[36.77134,-1.31277],[36.77313,-1.31641],[36.77555,-1.3162],[36.77754,-1.31645],[36.77907,-1.31766],[36.78008,-1.31762],[36.78265,-1.31755],[36.78435,-1.31659],[36.78631,-1.31634],[36.78179,-1.31343]]]}},{"type":"Feature","properties":{"name":"Makina","subcounty":"Kibra"},"geometry":{"type":"Polygon","coordinates":[[[36.79245,-1.31049],[36.78975,-1.30892],[36.78894,-1.30638],[36.77698,-1.30688],[36.77765,-1.31076],[36.78179,-1.31343],[36.78624,-1.31129],[36.79245,-1.31049]]]}},{"type":"Feature","properties":{"name":"Ziwani/Kariokor","subcounty":"Starehe"},"geometry":{"type":"Polygon","coordinates":[[[36.83524,-1.27756],[36.83173,-1.28173],[36.83388,-1.28322],[36.83536,-1.28576],[36.83739,-1.28559],[36.83854,-1.28488],[36.83976,-1.28496],[36.84103,-1.28365],[36.84435,-1.28295],[36.8444,-1.28024],[36.84277,-1.28038],[36.83679,-1.27768],[36.83524,-1.27756]]]}},{"type":"Feature","properties":{"name":"Landimawe","subcounty":"Starehe"},"geometry":{"type":"Polygon","coordinates":[[[36.82879,-1.31035],[36.83002,-1.30941],[36.83075,-1.30873],[36.83104,-1.308],[36.83062,-1.30748],[36.83061,-1.30679],[36.83166,-1.30678],[36.83299,-1.30647],[36.835,-1.30649],[36.83571,-1.30692],[36.83591,-1.30789],[36.8363,-1.30827],[36.83786,-1.30844],[36.83891,-1.30812],[36.84052,-1.30678],[36.8414,-1.30771],[36.84139,-1.30862],[36.84091,-1.30889],[36.84089,-1.3102],[36.84324,-1.31113],[36.84355,-1.31201],[36.84469,-1.31294],[36.84774,-1.31432],[36.84834,-1.31404],[36.84876,-1.31416],[36.85032,-1.31416],[36.85109,-1.31555],[36.85271,-1.31642],[36.85448,-1.3167],[36.85642,-1.31625],[36.8579,-1.31469],[36.85973,-1.3136],[36.8612,-1.31183],[36.86096,-1.3087],[36.85669,-1.30192],[36.85669,-1.30072],[36.84947,-1.30204],[36.84559,-1.30193],[36.8441,-1.30101],[36.84321,-1.30031],[36.83842,-1.29211],[36.83686,-1.28992],[36.83573,-1.28927],[36.83446,-1.28924],[36.83358,-1.2896],[36.82844,-1.2921],[36.82183,-1.29543],[36.82377,-1.29898],[36.82404,-1.3001],[36.82569,-1.30358],[36.82879,-1.31035]]]}},{"type":"Feature","properties":{"name":"Uthiru/Ruthimitu","subcounty":"Dagoretti South"},"geometry":{"type":"Polygon","coordinates":[[[36.71979,-1.26388],[36.71621,-1.26081],[36.71006,-1.26108],[36.70165,-1.26118],[36.69901,-1.26403],[36.69416,-1.26924],[36.68903,-1.28048],[36.68734,-1.28463],[36.69046,-1.28629],[36.69564,-1.28642],[36.69641,-1.28448],[36.69913,-1.28448],[36.70108,-1.2824],[36.70509,-1.28059],[36.7126,-1.2793],[36.71739,-1.2771],[36.7279,-1.27108],[36.71979,-1.26388]]]}},{"type":"Feature","properties":{"name":"Viwandani","subcounty":"Makadara"},"geometry":{"type":"Polygon","coordinates":[[[36.88607,-1.29642],[36.87072,-1.29839],[36.85669,-1.30072],[36.85669,-1.30192],[36.86096,-1.3087],[36.8612,-1.31183],[36.85973,-1.3136],[36.8579,-1.31469],[36.85642,-1.31625],[36.85791,-1.31745],[36.85987,-1.31697],[36.8621,-1.31667],[36.86284,-1.31511],[36.86436,-1.31407],[36.86552,-1.3142],[36.86674,-1.31275],[36.86866,-1.31229],[36.87019,-1.3124],[36.87165,-1.31309],[36.87238,-1.31274],[36.87274,-1.31375],[36.87759,-1.31087],[36.87963,-1.31067],[36.88072,-1.31038],[36.88304,-1.30934],[36.8855,-1.30854],[36.88916,-1.30651],[36.88769,-1.30215],[36.88607,-1.29642]]]}},{"type":"Feature","properties":{"name":"Mutuini","subcounty":"Dagoretti South"},"geometry":{"type":"Polygon","coordinates":[[[36.68734,-1.28463],[36.68303,-1.29172],[36.67557,-1.29985],[36.68385,-1.29988],[36.6854,-1.29613],[36.69058,-1.29742],[36.69538,-1.29911],[36.70133,-1.30209],[36.70522,-1.30455],[36.70716,-1.29833],[36.71869,-1.30299],[36.72257,-1.30312],[36.72102,-1.29794],[36.71351,-1.29548],[36.71105,-1.29315],[36.70911,-1.29419],[36.7082,-1.29574],[36.70457,-1.29509],[36.70082,-1.29173],[36.7003,-1.2872],[36.70108,-1.28551],[36.70108,-1.2824],[36.69913,-1.28448],[36.69641,-1.28448],[36.69564,-1.28642],[36.69046,-1.28629],[36.68734,-1.28463]]]}},{"type":"Feature","properties":{"name":"Mugumo-Ini","subcounty":"Langata"},"geometry":{"type":"Polygon","coordinates":[[[36.81262,-1.31307],[36.81036,-1.31512],[36.80921,-1.31536],[36.80677,-1.31673],[36.80335,-1.31701],[36.80064,-1.3173],[36.80039,-1.31839],[36.79847,-1.31905],[36.79636,-1.31912],[36.79481,-1.32022],[36.79345,-1.31877],[36.79236,-1.31848],[36.79108,-1.31699],[36.78985,-1.31679],[36.78985,-1.31477],[36.78891,-1.31476],[36.78789,-1.31565],[36.78631,-1.31634],[36.78435,-1.31659],[36.78265,-1.31755],[36.78008,-1.31762],[36.77907,-1.31766],[36.77754,-1.31645],[36.77555,-1.3162],[36.77313,-1.31641],[36.77801,-1.32921],[36.77101,-1.32921],[36.77179,-1.33491],[36.7749,-1.3362],[36.77075,-1.33905],[36.76376,-1.34294],[36.76039,-1.35226],[36.76013,-1.3564],[36.76091,-1.35951],[36.7648,-1.36501],[36.76583,-1.36903],[36.76765,-1.37265],[36.76789,-1.38925],[36.78285,-1.38889],[36.79347,-1.38577],[36.80945,-1.38758],[36.81563,-1.38205],[36.82107,-1.38287],[36.82569,-1.38535],[36.82985,-1.38758],[36.84339,-1.38756],[36.8494,-1.39568],[36.8598,-1.40006],[36.87129,-1.40707],[36.88259,-1.40629],[36.89462,-1.4119],[36.89086,-1.41396],[36.93182,-1.43288],[36.94265,-1.43349],[36.95159,-1.43801],[36.95705,-1.43864],[36.96159,-1.44498],[36.96363,-1.4401],[36.94761,-1.42176],[36.94443,-1.40722],[36.93736,-1.39991],[36.92708,-1.39435],[36.91678,-1.3778],[36.90078,-1.36508],[36.89547,-1.35907],[36.89322,-1.36118],[36.88323,-1.3501],[36.85176,-1.32947],[36.8302,-1.32863],[36.79782,-1.33342],[36.79523,-1.32462],[36.8065,-1.32254],[36.81262,-1.31307]]]}},{"type":"Feature","properties":{"name":"Waithaka","subcounty":"Dagoretti South"},"geometry":{"type":"Polygon","coordinates":[[[36.7279,-1.27108],[36.71739,-1.2771],[36.7126,-1.2793],[36.70509,-1.28059],[36.70108,-1.2824],[36.70108,-1.28551],[36.7003,-1.2872],[36.70082,-1.29173],[36.70457,-1.29509],[36.7082,-1.29574],[36.70911,-1.29419],[36.71105,-1.29315],[36.71351,-1.29548],[36.72102,-1.29794],[36.72257,-1.30312],[36.72517,-1.29807],[36.72724,-1.296],[36.72413,-1.29121],[36.72517,-1.2881],[36.73779,-1.28492],[36.73597,-1.28021],[36.73554,-1.27614],[36.73084,-1.27281],[36.7279,-1.27108]]]}},{"type":"Feature","properties":{"name":"Babadogo","subcounty":"Ruaraka"},"geometry":{"type":"Polygon","coordinates":[[[36.89113,-1.24432],[36.89109,-1.24361],[36.88858,-1.24372],[36.88844,-1.24145],[36.89092,-1.24144],[36.89107,-1.24005],[36.89066,-1.23808],[36.88835,-1.23767],[36.88678,-1.23693],[36.88606,-1.23686],[36.88513,-1.23768],[36.88358,-1.23768],[36.88287,-1.23808],[36.88165,-1.23956],[36.88111,-1.23964],[36.88088,-1.23918],[36.88026,-1.23913],[36.88002,-1.23978],[36.87951,-1.23983],[36.87875,-1.23938],[36.87822,-1.2398],[36.87795,-1.23993],[36.87764,-1.23978],[36.87686,-1.23895],[36.87612,-1.23974],[36.8758,-1.24081],[36.87486,-1.24086],[36.87474,-1.24049],[36.8741,-1.24049],[36.87404,-1.23969],[36.87317,-1.23974],[36.87304,-1.23936],[36.87187,-1.23916],[36.87138,-1.23876],[36.86995,-1.23858],[36.86712,-1.24393],[36.86673,-1.24479],[36.86951,-1.24685],[36.87078,-1.24712],[36.87534,-1.247],[36.8765,-1.2476],[36.87732,-1.24842],[36.87788,-1.2492],[36.87937,-1.24889],[36.88029,-1.24959],[36.88102,-1.2495],[36.88152,-1.24842],[36.88391,-1.24953],[36.88455,-1.24923],[36.88538,-1.24855],[36.88607,-1.2488],[36.88638,-1.24939],[36.88684,-1.24907],[36.88778,-1.24898],[36.88839,-1.24857],[36.88821,-1.24764],[36.88885,-1.24758],[36.88869,-1.24644],[36.88979,-1.24636],[36.89069,-1.24567],[36.89113,-1.24432]]]}},{"type":"Feature","properties":{"name":"Kitisuru","subcounty":"Westlands"},"geometry":{"type":"Polygon","coordinates":[[[36.80261,-1.25256],[36.80313,-1.25049],[36.80158,-1.24971],[36.79795,-1.24867],[36.79225,-1.2466],[36.79096,-1.24375],[36.78707,-1.24013],[36.78215,-1.23935],[36.77853,-1.23909],[36.77283,-1.23702],[36.76946,-1.23702],[36.76609,-1.23702],[36.76402,-1.23624],[36.76065,-1.23624],[36.75444,-1.22847],[36.74996,-1.22626],[36.74649,-1.2364],[36.73472,-1.23575],[36.73203,-1.2404],[36.71621,-1.26081],[36.71979,-1.26388],[36.72154,-1.26395],[36.72413,-1.26369],[36.73009,-1.26525],[36.73993,-1.26525],[36.75377,-1.26431],[36.76221,-1.26369],[36.76635,-1.26214],[36.7681,-1.26076],[36.77956,-1.25878],[36.77419,-1.25641],[36.77804,-1.24881],[36.78002,-1.24875],[36.78389,-1.24936],[36.79044,-1.25023],[36.79458,-1.25178],[36.79536,-1.25075],[36.79769,-1.25075],[36.80054,-1.25256],[36.80261,-1.25256]]]}},{"type":"Feature","properties":{"name":"Harambee","subcounty":"Makadara"},"geometry":{"type":"Polygon","coordinates":[[[36.8669,-1.28779],[36.86807,-1.28886],[36.86781,-1.29418],[36.87726,-1.29292],[36.88513,-1.29121],[36.88259,-1.28224],[36.88175,-1.27715],[36.87879,-1.27791],[36.88082,-1.28237],[36.87792,-1.28217],[36.8758,-1.28397],[36.87408,-1.2812],[36.87228,-1.28287],[36.8669,-1.28779]]]}},{"type":"Feature","properties":{"name":"Mihango","subcounty":"Embakasi East"},"geometry":{"type":"Polygon","coordinates":[[[36.9203,-1.27451],[36.92056,-1.27578],[36.9207,-1.27661],[36.92105,-1.27691],[36.92107,-1.27744],[36.92071,-1.27763],[36.91924,-1.2777],[36.91797,-1.27893],[36.91813,-1.28036],[36.91796,-1.28074],[36.91762,-1.28147],[36.91754,-1.28177],[36.91774,-1.28213],[36.91843,-1.28229],[36.91838,-1.28272],[36.91815,-1.28444],[36.91708,-1.28573],[36.91661,-1.28619],[36.91632,-1.28722],[36.91537,-1.28759],[36.91501,-1.28807],[36.91495,-1.28889],[36.9158,-1.28972],[36.91576,-1.29034],[36.91594,-1.29082],[36.91659,-1.29302],[36.91801,-1.29587],[36.93045,-1.30571],[36.94288,-1.30079],[36.95842,-1.29186],[36.96127,-1.29432],[36.97472,-1.29015],[36.99082,-1.28321],[36.98103,-1.26909],[36.96799,-1.26092],[36.93944,-1.26011],[36.93676,-1.26001],[36.93869,-1.26519],[36.93824,-1.26604],[36.93432,-1.26602],[36.93302,-1.26719],[36.9317,-1.26647],[36.92972,-1.26666],[36.92933,-1.26722],[36.92761,-1.26692],[36.92594,-1.26749],[36.92482,-1.2681],[36.92486,-1.26878],[36.92526,-1.26916],[36.92528,-1.26983],[36.92449,-1.27077],[36.92234,-1.27166],[36.92064,-1.27253],[36.9203,-1.27451]]]}},{"type":"Feature","properties":{"name":"Njiru","subcounty":"Kasarani"},"geometry":{"type":"Polygon","coordinates":[[[36.92241,-1.25706],[36.92704,-1.25605],[36.93413,-1.25307],[36.93676,-1.26001],[36.93944,-1.26011],[36.94348,-1.25815],[36.94416,-1.24949],[36.94612,-1.24848],[36.94938,-1.24839],[36.95013,-1.24602],[36.94728,-1.24498],[36.94301,-1.2455],[36.94081,-1.24589],[36.93796,-1.24485],[36.93524,-1.24395],[36.93006,-1.24252],[36.92746,-1.24246],[36.92563,-1.24291],[36.92109,-1.24237],[36.91769,-1.24272],[36.91647,-1.24355],[36.91546,-1.24501],[36.91404,-1.24622],[36.91171,-1.24686],[36.91076,-1.24694],[36.90838,-1.24922],[36.90378,-1.25208],[36.9033,-1.2532],[36.90197,-1.25585],[36.89871,-1.25669],[36.90078,-1.25738],[36.90177,-1.25775],[36.90284,-1.25778],[36.90494,-1.25713],[36.9096,-1.25718],[36.91428,-1.25884],[36.92241,-1.25706]]]}},{"type":"Feature","properties":{"name":"Umoja I","subcounty":"Embakasi West"},"geometry":{"type":"Polygon","coordinates":[[[36.89503,-1.27385],[36.89204,-1.27526],[36.88483,-1.27685],[36.88175,-1.27715],[36.88259,-1.28224],[36.88513,-1.29121],[36.8858,-1.29515],[36.88658,-1.29457],[36.89503,-1.27385]]]}},{"type":"Feature","properties":{"name":"Kabiro","subcounty":"Dagoretti North"},"geometry":{"type":"Polygon","coordinates":[[[36.73554,-1.27614],[36.73597,-1.28021],[36.73779,-1.28492],[36.73939,-1.28592],[36.74197,-1.28746],[36.73866,-1.27793],[36.73554,-1.27614]]]}},{"type":"Feature","properties":{"name":"Karen","subcounty":"Langata"},"geometry":{"type":"Polygon","coordinates":[[[36.72724,-1.296],[36.72517,-1.29807],[36.72257,-1.30312],[36.71869,-1.30299],[36.70716,-1.29833],[36.70522,-1.30455],[36.70133,-1.30209],[36.69538,-1.29911],[36.69058,-1.29742],[36.6854,-1.29613],[36.68385,-1.29988],[36.67557,-1.29985],[36.67035,-1.30477],[36.66642,-1.31422],[36.6688,-1.32298],[36.66964,-1.326],[36.67431,-1.32737],[36.67977,-1.32896],[36.68676,-1.34104],[36.69314,-1.35338],[36.703,-1.35236],[36.73483,-1.37852],[36.75078,-1.38473],[36.76789,-1.38925],[36.76765,-1.37265],[36.76583,-1.36903],[36.7648,-1.36501],[36.76091,-1.35951],[36.76013,-1.3564],[36.76039,-1.35226],[36.76376,-1.34294],[36.77075,-1.33905],[36.7749,-1.3362],[36.77179,-1.33491],[36.77101,-1.32921],[36.77801,-1.32921],[36.77313,-1.31641],[36.77134,-1.31277],[36.76891,-1.31377],[36.76745,-1.31049],[36.75627,-1.31178],[36.75337,-1.30704],[36.74602,-1.30804],[36.74666,-1.30403],[36.74148,-1.30558],[36.73708,-1.30649],[36.72996,-1.30882],[36.73112,-1.30196],[36.73591,-1.30027],[36.73591,-1.29768],[36.7341,-1.29665],[36.72724,-1.296]]]}},{"type":"Feature","properties":{"name":"Ngara","subcounty":"Starehe"},"geometry":{"type":"Polygon","coordinates":[[[36.81245,-1.27446],[36.81531,-1.27618],[36.81718,-1.27627],[36.81879,-1.27749],[36.82044,-1.27789],[36.82107,-1.27904],[36.8224,-1.27972],[36.82573,-1.27962],[36.82779,-1.27995],[36.83008,-1.28119],[36.83173,-1.28173],[36.83524,-1.27756],[36.83424,-1.27667],[36.83635,-1.27053],[36.83222,-1.26913],[36.83422,-1.26662],[36.82773,-1.26852],[36.82335,-1.26891],[36.82075,-1.26895],[36.81577,-1.26952],[36.81456,-1.27124],[36.81422,-1.27303],[36.81245,-1.27446]]]}},{"type":"Feature","properties":{"name":"Zimmerman","subcounty":"Roysambu"},"geometry":{"type":"Polygon","coordinates":[[[36.88667,-1.19651],[36.87454,-1.19741],[36.8598,-1.19324],[36.85144,-1.20512],[36.84321,-1.21889],[36.89729,-1.20251],[36.89567,-1.19753],[36.88667,-1.19651]]]}},{"type":"Feature","properties":{"name":"Kahawa West","subcounty":"Roysambu"},"geometry":{"type":"Polygon","coordinates":[[[36.92033,-1.19688],[36.92433,-1.19187],[36.92826,-1.18695],[36.93676,-1.17588],[36.93356,-1.17503],[36.92338,-1.17174],[36.90693,-1.16545],[36.89533,-1.16516],[36.8893,-1.17419],[36.88926,-1.17817],[36.92033,-1.19688]]]}},{"type":"Feature","properties":{"name":"Claycity","subcounty":"Kasarani"},"geometry":{"type":"Polygon","coordinates":[[[36.90487,-1.21168],[36.90479,-1.23426],[36.90615,-1.23352],[36.9079,-1.23511],[36.90685,-1.23002],[36.91149,-1.2314],[36.91312,-1.23514],[36.92237,-1.23642],[36.92734,-1.23139],[36.92837,-1.23022],[36.92835,-1.22722],[36.91702,-1.22188],[36.90851,-1.21174],[36.90487,-1.21168]]]}},{"type":"Feature","properties":{"name":"Mwiki","subcounty":"Kasarani"},"geometry":{"type":"Polygon","coordinates":[[[37.00237,-1.23551],[36.99338,-1.2358],[36.9899,-1.23003],[36.98382,-1.22729],[36.97665,-1.22779],[36.96571,-1.23219],[36.9522,-1.23284],[36.94178,-1.23076],[36.92835,-1.22722],[36.92837,-1.23022],[36.92734,-1.23139],[36.92237,-1.23642],[36.91312,-1.23514],[36.91149,-1.2314],[36.90685,-1.23002],[36.9079,-1.23511],[36.90926,-1.23521],[36.91079,-1.23613],[36.91186,-1.23769],[36.91296,-1.23746],[36.91395,-1.23812],[36.91521,-1.2385],[36.91631,-1.23928],[36.91742,-1.23943],[36.91936,-1.24099],[36.92098,-1.24117],[36.92219,-1.24005],[36.92394,-1.24028],[36.92503,-1.24155],[36.92684,-1.24145],[36.92746,-1.24246],[36.93006,-1.24252],[36.93524,-1.24395],[36.93796,-1.24485],[36.94081,-1.24589],[36.94301,-1.2455],[36.94728,-1.24498],[36.95013,-1.24602],[36.95363,-1.2468],[36.95881,-1.24706],[36.96282,-1.24861],[36.96697,-1.24913],[36.96956,-1.25172],[36.97111,-1.24952],[36.9737,-1.24615],[36.97642,-1.24576],[36.98096,-1.24356],[36.98562,-1.24602],[36.99171,-1.24602],[36.99533,-1.2446],[36.99935,-1.2411],[37.00237,-1.23551]]]}},{"type":"Feature","properties":{"name":"Nairobi South","subcounty":"Starehe"},"geometry":{"type":"Polygon","coordinates":[[[36.82879,-1.31035],[36.83093,-1.3145],[36.83287,-1.31651],[36.84066,-1.32125],[36.84284,-1.32041],[36.84565,-1.32018],[36.84669,-1.31963],[36.84786,-1.31975],[36.8486,-1.31883],[36.84935,-1.31779],[36.85106,-1.31728],[36.85232,-1.31725],[36.85271,-1.31642],[36.85109,-1.31555],[36.85032,-1.31416],[36.84876,-1.31416],[36.84834,-1.31404],[36.84774,-1.31432],[36.84469,-1.31294],[36.84355,-1.31201],[36.84324,-1.31113],[36.84089,-1.3102],[36.84091,-1.30889],[36.84139,-1.30862],[36.8414,-1.30771],[36.84052,-1.30678],[36.83891,-1.30812],[36.83786,-1.30844],[36.8363,-1.30827],[36.83591,-1.30789],[36.83571,-1.30692],[36.835,-1.30649],[36.83299,-1.30647],[36.83166,-1.30678],[36.83061,-1.30679],[36.83062,-1.30748],[36.83104,-1.308],[36.83075,-1.30873],[36.83002,-1.30941],[36.82879,-1.31035]]]}},{"type":"Feature","properties":{"name":"Imara Daima","subcounty":"Embakasi South"},"geometry":{"type":"Polygon","coordinates":[[[36.91678,-1.3778],[36.91218,-1.37018],[36.90838,-1.36297],[36.89952,-1.35519],[36.88201,-1.3361],[36.87876,-1.3381],[36.8638,-1.33092],[36.85638,-1.32955],[36.85232,-1.32809],[36.85176,-1.32947],[36.88323,-1.3501],[36.89322,-1.36118],[36.89547,-1.35907],[36.90078,-1.36508],[36.91678,-1.3778]]]}},{"type":"Feature","properties":{"name":"Utawala","subcounty":"Embakasi East"},"geometry":{"type":"Polygon","coordinates":[[[36.88916,-1.30651],[36.89985,-1.32384],[36.90837,-1.31757],[36.89846,-1.30118],[36.8969,-1.30144],[36.89638,-1.30325],[36.89289,-1.30558],[36.89068,-1.30584],[36.88916,-1.30651]]]}},{"type":"Feature","properties":{"name":"Upper Savannah","subcounty":"Embakasi East"},"geometry":{"type":"Polygon","coordinates":[[[36.90211,-1.28216],[36.90687,-1.2925],[36.90895,-1.2925],[36.90985,-1.29315],[36.91207,-1.29112],[36.90628,-1.27997],[36.90211,-1.28216]]]}},{"type":"Feature","properties":{"name":"South-C","subcounty":"Langata"},"geometry":{"type":"Polygon","coordinates":[[[36.8302,-1.32863],[36.85176,-1.32947],[36.85232,-1.32809],[36.84066,-1.32125],[36.83287,-1.31651],[36.83093,-1.3145],[36.82879,-1.31035],[36.8302,-1.32863]]]}},{"type":"Feature","properties":{"name":"Kwa Reuben","subcounty":"Embakasi South"},"geometry":{"type":"Polygon","coordinates":[[[36.87597,-1.31644],[36.87963,-1.31067],[36.87759,-1.31087],[36.87274,-1.31375],[36.87238,-1.31274],[36.87165,-1.31309],[36.87019,-1.3124],[36.86866,-1.31229],[36.86674,-1.31275],[36.86552,-1.3142],[36.86436,-1.31407],[36.86284,-1.31511],[36.8621,-1.31667],[36.85987,-1.31697],[36.85791,-1.31745],[36.85642,-1.31625],[36.85448,-1.3167],[36.85271,-1.31642],[36.85232,-1.31725],[36.85106,-1.31728],[36.84935,-1.31779],[36.8486,-1.31883],[36.84786,-1.31975],[36.84669,-1.31963],[36.84565,-1.32018],[36.84284,-1.32041],[36.84066,-1.32125],[36.85232,-1.32809],[36.85638,-1.32955],[36.8638,-1.33092],[36.87876,-1.3381],[36.88201,-1.3361],[36.87048,-1.32477],[36.87597,-1.31644]]]}},{"type":"Feature","properties":{"name":"Kware","subcounty":"Embakasi South"},"geometry":{"type":"Polygon","coordinates":[[[36.88911,-1.33032],[36.89674,-1.32582],[36.89489,-1.32234],[36.89385,-1.32273],[36.89153,-1.3172],[36.89038,-1.31773],[36.88629,-1.31089],[36.88393,-1.31162],[36.88304,-1.30934],[36.88072,-1.31038],[36.87963,-1.31067],[36.87597,-1.31644],[36.88717,-1.32213],[36.88911,-1.33032]]]}},{"type":"Feature","properties":{"name":"Pipeline","subcounty":"Embakasi South"},"geometry":{"type":"Polygon","coordinates":[[[36.88304,-1.30934],[36.88393,-1.31162],[36.88629,-1.31089],[36.89038,-1.31773],[36.89153,-1.3172],[36.89385,-1.32273],[36.89489,-1.32234],[36.89674,-1.32582],[36.89985,-1.32384],[36.88916,-1.30651],[36.8855,-1.30854],[36.88304,-1.30934]]]}},{"type":"Feature","properties":{"name":"Embakasi","subcounty":"Embakasi East"},"geometry":{"type":"Polygon","coordinates":[[[36.88201,-1.3361],[36.89952,-1.35519],[36.90838,-1.36297],[36.93475,-1.33894],[36.96125,-1.34866],[36.96715,-1.35439],[36.98439,-1.31538],[36.97472,-1.29015],[36.96127,-1.29432],[36.95842,-1.29186],[36.94288,-1.30079],[36.93045,-1.30571],[36.91801,-1.29587],[36.91659,-1.29302],[36.91594,-1.29082],[36.91576,-1.29034],[36.91499,-1.29124],[36.91331,-1.29169],[36.91207,-1.29112],[36.90985,-1.29315],[36.90895,-1.2925],[36.90687,-1.2925],[36.90739,-1.29406],[36.9061,-1.29522],[36.9048,-1.29522],[36.90351,-1.29509],[36.90338,-1.29704],[36.90221,-1.29704],[36.90105,-1.29794],[36.89768,-1.2982],[36.89846,-1.2995],[36.89846,-1.30118],[36.90837,-1.31757],[36.89985,-1.32384],[36.89674,-1.32582],[36.88911,-1.33032],[36.88201,-1.3361]]]}},{"type":"Feature","properties":{"name":"Roysambu","subcounty":"Roysambu"},"geometry":{"type":"Polygon","coordinates":[[[36.89729,-1.20251],[36.84321,-1.21889],[36.82993,-1.21793],[36.83318,-1.22342],[36.84121,-1.23534],[36.84173,-1.24596],[36.8451,-1.2501],[36.84245,-1.26095],[36.84709,-1.25872],[36.84979,-1.25878],[36.85104,-1.25868],[36.85324,-1.25809],[36.85552,-1.25646],[36.85718,-1.25475],[36.86673,-1.24479],[36.86712,-1.24393],[36.86995,-1.23858],[36.87086,-1.23681],[36.8737,-1.23383],[36.88814,-1.2221],[36.88874,-1.22051],[36.89107,-1.2165],[36.89405,-1.2064],[36.89625,-1.20407],[36.89729,-1.20251]]]}},{"type":"Feature","properties":{"name":"Mlango Kubwa","subcounty":"Mathare"},"geometry":{"type":"Polygon","coordinates":[[[36.85045,-1.26411],[36.85018,-1.26375],[36.85001,-1.26411],[36.84966,-1.26428],[36.84862,-1.26449],[36.84834,-1.26408],[36.84799,-1.264],[36.84757,-1.2633],[36.8474,-1.26319],[36.84698,-1.26379],[36.84642,-1.26328],[36.84539,-1.26295],[36.84466,-1.26362],[36.84355,-1.26348],[36.84314,-1.26362],[36.84267,-1.26368],[36.84263,-1.26431],[36.84368,-1.2675],[36.8473,-1.26671],[36.84901,-1.26647],[36.85095,-1.26622],[36.85045,-1.26411]]]}},{"type":"Feature","properties":{"name":"California","subcounty":"Kamukunji"},"geometry":{"type":"Polygon","coordinates":[[[36.85243,-1.28988],[36.85263,-1.28985],[36.85149,-1.28543],[36.85022,-1.27944],[36.8464,-1.28019],[36.84681,-1.2824],[36.84794,-1.28894],[36.84906,-1.28973],[36.85243,-1.28988]]]}},{"type":"Feature","properties":{"name":"Eastleigh North","subcounty":"Kamukunji"},"geometry":{"type":"Polygon","coordinates":[[[36.84368,-1.2675],[36.8464,-1.28019],[36.85022,-1.27944],[36.85171,-1.2792],[36.84901,-1.26647],[36.8473,-1.26671],[36.84368,-1.2675]]]}},{"type":"Feature","properties":{"name":"Eastleigh South","subcounty":"Kamukunji"},"geometry":{"type":"Polygon","coordinates":[[[36.85263,-1.28985],[36.85339,-1.28973],[36.85416,-1.28921],[36.85465,-1.28868],[36.85512,-1.28807],[36.85687,-1.28787],[36.85785,-1.28712],[36.8592,-1.28651],[36.86021,-1.28587],[36.86135,-1.28442],[36.86262,-1.28415],[36.86348,-1.28368],[36.86453,-1.28361],[36.86435,-1.28306],[36.86347,-1.28302],[36.86151,-1.28352],[36.86039,-1.28414],[36.85922,-1.28449],[36.85664,-1.28566],[36.85562,-1.28585],[36.8539,-1.28518],[36.85292,-1.28518],[36.85171,-1.2792],[36.85022,-1.27944],[36.85149,-1.28543],[36.85263,-1.28985]]]}},{"type":"Feature","properties":{"name":"Maringo/Hamza","subcounty":"Makadara"},"geometry":{"type":"Polygon","coordinates":[[[36.8858,-1.29515],[36.88513,-1.29121],[36.87726,-1.29292],[36.86781,-1.29418],[36.86807,-1.28886],[36.8669,-1.28779],[36.86453,-1.28361],[36.86348,-1.28368],[36.86262,-1.28415],[36.86135,-1.28442],[36.86021,-1.28587],[36.8592,-1.28651],[36.85785,-1.28712],[36.85687,-1.28787],[36.85512,-1.28807],[36.85465,-1.28868],[36.85416,-1.28921],[36.85339,-1.28973],[36.85263,-1.28985],[36.85243,-1.28988],[36.85233,-1.29138],[36.8522,-1.29282],[36.85191,-1.29375],[36.85432,-1.29237],[36.86191,-1.28925],[36.86264,-1.29138],[36.86248,-1.29411],[36.8616,-1.29662],[36.86732,-1.2974],[36.87072,-1.29839],[36.88607,-1.29642],[36.8858,-1.29515]]]}},{"type":"Feature","properties":{"name":"Makongeni","subcounty":"Makadara"},"geometry":{"type":"Polygon","coordinates":[[[36.85669,-1.30072],[36.87072,-1.29839],[36.86732,-1.2974],[36.8616,-1.29662],[36.86248,-1.29411],[36.86264,-1.29138],[36.86191,-1.28925],[36.85432,-1.29237],[36.85191,-1.29375],[36.85091,-1.29457],[36.84266,-1.29265],[36.83842,-1.29211],[36.84321,-1.30031],[36.8441,-1.30101],[36.84559,-1.30193],[36.84947,-1.30204],[36.85669,-1.30072]]]}},{"type":"Feature","properties":{"name":"Mowlem","subcounty":"Embakasi West"},"geometry":{"type":"Polygon","coordinates":[[[36.89748,-1.27199],[36.90053,-1.26985],[36.90209,-1.26724],[36.90906,-1.26023],[36.91428,-1.25884],[36.9096,-1.25718],[36.90494,-1.25713],[36.90284,-1.25778],[36.90177,-1.25775],[36.90078,-1.25738],[36.90004,-1.25826],[36.89864,-1.25866],[36.89368,-1.25935],[36.89252,-1.25958],[36.89194,-1.26038],[36.89166,-1.26094],[36.89126,-1.2652],[36.89035,-1.26641],[36.88133,-1.27456],[36.88175,-1.27715],[36.88483,-1.27685],[36.89204,-1.27526],[36.89503,-1.27385],[36.89748,-1.27199]]]}},{"type":"Feature","properties":{"name":"Kariobangi South","subcounty":"Embakasi West"},"geometry":{"type":"Polygon","coordinates":[[[36.89335,-1.25859],[36.89226,-1.25895],[36.89139,-1.25977],[36.88658,-1.26145],[36.88258,-1.26216],[36.87898,-1.26224],[36.87955,-1.26453],[36.87903,-1.26581],[36.87836,-1.26669],[36.8781,-1.26814],[36.87687,-1.26816],[36.87637,-1.26876],[36.87453,-1.26826],[36.87446,-1.26915],[36.87452,-1.27014],[36.87436,-1.27077],[36.87414,-1.27174],[36.87334,-1.27246],[36.87253,-1.2732],[36.87243,-1.27438],[36.87187,-1.27477],[36.87206,-1.27623],[36.87174,-1.27701],[36.87146,-1.27882],[36.87026,-1.27922],[36.86993,-1.28118],[36.86866,-1.28139],[36.86791,-1.28268],[36.86538,-1.28261],[36.86453,-1.28361],[36.8669,-1.28779],[36.87228,-1.28287],[36.87408,-1.2812],[36.8758,-1.28397],[36.87792,-1.28217],[36.88082,-1.28237],[36.87879,-1.27791],[36.88175,-1.27715],[36.88133,-1.27456],[36.89035,-1.26641],[36.89126,-1.2652],[36.89166,-1.26094],[36.89194,-1.26038],[36.89252,-1.25958],[36.89368,-1.25935],[36.89864,-1.25866],[36.90004,-1.25826],[36.90078,-1.25738],[36.89871,-1.25669],[36.89711,-1.25708],[36.89335,-1.25859]]]}},{"type":"Feature","properties":{"name":"Airbase","subcounty":"Kamukunji"},"geometry":{"type":"Polygon","coordinates":[[[36.84901,-1.26647],[36.85171,-1.2792],[36.85292,-1.28518],[36.8539,-1.28518],[36.85562,-1.28585],[36.85664,-1.28566],[36.85922,-1.28449],[36.86039,-1.28414],[36.86151,-1.28352],[36.86347,-1.28302],[36.86435,-1.28306],[36.86453,-1.28361],[36.86538,-1.28261],[36.86791,-1.28268],[36.86866,-1.28139],[36.86993,-1.28118],[36.87026,-1.27922],[36.87146,-1.27882],[36.87174,-1.27701],[36.87206,-1.27623],[36.87187,-1.27477],[36.87243,-1.27438],[36.87253,-1.2732],[36.87334,-1.27246],[36.87414,-1.27174],[36.87436,-1.27077],[36.87452,-1.27014],[36.87446,-1.26915],[36.87453,-1.26826],[36.87637,-1.26876],[36.87687,-1.26816],[36.8781,-1.26814],[36.87836,-1.26669],[36.87903,-1.26581],[36.87955,-1.26453],[36.87898,-1.26224],[36.87632,-1.26263],[36.87422,-1.26231],[36.86964,-1.26159],[36.86734,-1.26229],[36.86599,-1.2627],[36.86039,-1.2644],[36.85969,-1.26488],[36.85888,-1.26614],[36.85714,-1.26622],[36.85095,-1.26622],[36.84901,-1.26647]]]}},{"type":"Feature","properties":{"name":"Matopeni","subcounty":"Embakasi Central"},"geometry":{"type":"Polygon","coordinates":[[[36.92594,-1.26749],[36.92761,-1.26692],[36.92933,-1.26722],[36.92972,-1.26666],[36.9317,-1.26647],[36.93302,-1.26719],[36.93432,-1.26602],[36.93824,-1.26604],[36.93869,-1.26519],[36.93676,-1.26001],[36.93413,-1.25307],[36.92704,-1.25605],[36.92241,-1.25706],[36.92392,-1.26118],[36.92551,-1.26552],[36.92523,-1.2661],[36.92594,-1.26749]]]}},{"type":"Feature","properties":{"name":"Kayole Central","subcounty":"Embakasi Central"},"geometry":{"type":"Polygon","coordinates":[[[36.9137,-1.27094],[36.90991,-1.27599],[36.90825,-1.27829],[36.90928,-1.27892],[36.91034,-1.2798],[36.91106,-1.28032],[36.91333,-1.28097],[36.91471,-1.28165],[36.91573,-1.28226],[36.91838,-1.28272],[36.91843,-1.28229],[36.91774,-1.28213],[36.91754,-1.28177],[36.91762,-1.28147],[36.91796,-1.28074],[36.91813,-1.28036],[36.91797,-1.27893],[36.91924,-1.2777],[36.92071,-1.27763],[36.92107,-1.27744],[36.92105,-1.27691],[36.9207,-1.27661],[36.92056,-1.27578],[36.9203,-1.27451],[36.9137,-1.27094]]]}},{"type":"Feature","properties":{"name":"Kariobangi North","subcounty":"Embakasi North"},"geometry":{"type":"Polygon","coordinates":[[[36.88684,-1.24907],[36.88638,-1.24939],[36.88607,-1.2488],[36.88538,-1.24855],[36.88455,-1.24923],[36.88391,-1.24953],[36.88152,-1.24842],[36.88102,-1.2495],[36.88029,-1.24959],[36.87937,-1.24889],[36.87788,-1.2492],[36.87845,-1.25254],[36.87898,-1.26224],[36.88258,-1.26216],[36.88974,-1.2546],[36.88684,-1.24907]]]}},{"type":"Feature","properties":{"name":"Huruma","subcounty":"Mathare"},"geometry":{"type":"Polygon","coordinates":[[[36.87422,-1.26231],[36.87427,-1.25817],[36.87556,-1.25715],[36.87376,-1.25297],[36.87238,-1.25424],[36.87122,-1.25436],[36.87037,-1.25484],[36.87013,-1.25568],[36.87087,-1.25755],[36.86882,-1.25884],[36.86895,-1.26046],[36.86699,-1.26101],[36.86697,-1.26158],[36.86734,-1.26229],[36.86964,-1.26159],[36.87422,-1.26231]]]}},{"type":"Feature","properties":{"name":"Ngei","subcounty":"Mathare"},"geometry":{"type":"Polygon","coordinates":[[[36.86734,-1.26229],[36.86697,-1.26158],[36.86699,-1.26101],[36.86895,-1.26046],[36.86882,-1.25884],[36.87087,-1.25755],[36.87013,-1.25568],[36.86967,-1.25614],[36.86764,-1.25708],[36.86645,-1.25737],[36.86459,-1.25756],[36.8639,-1.25829],[36.86599,-1.2627],[36.86734,-1.26229]]]}},{"type":"Feature","properties":{"name":"Hospital","subcounty":"Mathare"},"geometry":{"type":"Polygon","coordinates":[[[36.83747,-1.26428],[36.83825,-1.26447],[36.8393,-1.26397],[36.84263,-1.26431],[36.84267,-1.26368],[36.84314,-1.26362],[36.84355,-1.26348],[36.84466,-1.26362],[36.84539,-1.26295],[36.84642,-1.26328],[36.84698,-1.26379],[36.8474,-1.26319],[36.84757,-1.2633],[36.84799,-1.264],[36.84834,-1.26408],[36.84862,-1.26449],[36.84966,-1.26428],[36.85001,-1.26411],[36.85018,-1.26375],[36.85045,-1.26411],[36.85091,-1.26415],[36.85157,-1.26446],[36.85208,-1.26449],[36.85229,-1.26435],[36.85538,-1.26435],[36.8558,-1.26457],[36.85674,-1.26471],[36.85866,-1.26466],[36.85891,-1.26373],[36.85951,-1.26317],[36.85782,-1.26294],[36.85627,-1.26325],[36.8536,-1.26061],[36.85164,-1.25945],[36.85104,-1.25868],[36.84979,-1.25878],[36.84709,-1.25872],[36.84245,-1.26095],[36.84143,-1.26161],[36.84122,-1.2625],[36.84021,-1.26351],[36.83849,-1.2636],[36.83747,-1.26428]]]}},{"type":"Feature","properties":{"name":"Mabatini","subcounty":"Mathare"},"geometry":{"type":"Polygon","coordinates":[[[36.85951,-1.26317],[36.85891,-1.26373],[36.85866,-1.26466],[36.85674,-1.26471],[36.8558,-1.26457],[36.85538,-1.26435],[36.85229,-1.26435],[36.85208,-1.26449],[36.85157,-1.26446],[36.85091,-1.26415],[36.85045,-1.26411],[36.85095,-1.26622],[36.85714,-1.26622],[36.85888,-1.26614],[36.85969,-1.26488],[36.86039,-1.2644],[36.86599,-1.2627],[36.8639,-1.25829],[36.86285,-1.25888],[36.86167,-1.25982],[36.86167,-1.26135],[36.85951,-1.26317]]]}},{"type":"Feature","properties":{"name":"Kiamaiko","subcounty":"Mathare"},"geometry":{"type":"Polygon","coordinates":[[[36.87898,-1.26224],[36.87845,-1.25254],[36.87788,-1.2492],[36.87767,-1.24924],[36.87694,-1.25014],[36.87687,-1.2507],[36.87725,-1.25133],[36.87725,-1.25162],[36.87675,-1.25221],[36.87622,-1.25235],[36.87493,-1.2524],[36.87434,-1.25258],[36.87376,-1.25297],[36.87556,-1.25715],[36.87427,-1.25817],[36.87422,-1.26231],[36.87632,-1.26263],[36.87898,-1.26224]]]}},{"type":"Feature","properties":{"name":"Kawangware","subcounty":"Dagoretti North"},"geometry":{"type":"Polygon","coordinates":[[[36.73866,-1.27793],[36.74197,-1.28746],[36.74546,-1.29038],[36.74925,-1.29263],[36.7511,-1.29265],[36.7534,-1.28888],[36.74787,-1.27491],[36.74322,-1.27706],[36.73866,-1.27793]]]}},{"type":"Feature","properties":{"name":"Mathare North","subcounty":"Ruaraka"},"geometry":{"type":"Polygon","coordinates":[[[36.8639,-1.25829],[36.86459,-1.25756],[36.86645,-1.25737],[36.86764,-1.25708],[36.86967,-1.25614],[36.87013,-1.25568],[36.87037,-1.25484],[36.87122,-1.25436],[36.87238,-1.25424],[36.87376,-1.25297],[36.87434,-1.25258],[36.87493,-1.2524],[36.87622,-1.25235],[36.87675,-1.25221],[36.87725,-1.25162],[36.87725,-1.25133],[36.87687,-1.2507],[36.87694,-1.25014],[36.87767,-1.24924],[36.87788,-1.2492],[36.87732,-1.24842],[36.8765,-1.2476],[36.87534,-1.247],[36.87078,-1.24712],[36.86951,-1.24685],[36.86893,-1.24795],[36.86914,-1.24939],[36.86892,-1.25098],[36.86844,-1.25161],[36.86644,-1.25209],[36.86779,-1.2561],[36.86627,-1.25622],[36.86541,-1.2566],[36.86414,-1.25736],[36.86384,-1.25785],[36.8639,-1.25829]]]}},{"type":"Feature","properties":{"name":"Lucky Summer","subcounty":"Ruaraka"},"geometry":{"type":"Polygon","coordinates":[[[36.90009,-1.24241],[36.90034,-1.24229],[36.9009,-1.24184],[36.9011,-1.24154],[36.90232,-1.24155],[36.90227,-1.23983],[36.90444,-1.23871],[36.90525,-1.23913],[36.90653,-1.23854],[36.90854,-1.23803],[36.91001,-1.2385],[36.91186,-1.23769],[36.91079,-1.23613],[36.90926,-1.23521],[36.9079,-1.23511],[36.90615,-1.23352],[36.90479,-1.23426],[36.90379,-1.23439],[36.90283,-1.23535],[36.90197,-1.23534],[36.90029,-1.23549],[36.8989,-1.23509],[36.89806,-1.2345],[36.89727,-1.23605],[36.89549,-1.23716],[36.89466,-1.23799],[36.89199,-1.23824],[36.89066,-1.23808],[36.89107,-1.24005],[36.89092,-1.24144],[36.88844,-1.24145],[36.88858,-1.24372],[36.89109,-1.24361],[36.89113,-1.24432],[36.8936,-1.24403],[36.8939,-1.24284],[36.89519,-1.24284],[36.89626,-1.24335],[36.89709,-1.24275],[36.89796,-1.24276],[36.89929,-1.24277],[36.90009,-1.24241]]]}},{"type":"Feature","properties":{"name":"Pumwani","subcounty":"Kamukunji"},"geometry":{"type":"Polygon","coordinates":[[[36.83536,-1.28576],[36.83561,-1.2862],[36.83761,-1.28705],[36.83998,-1.28676],[36.84128,-1.28799],[36.84252,-1.2881],[36.84351,-1.28692],[36.8441,-1.28764],[36.84589,-1.28786],[36.84688,-1.28807],[36.84794,-1.28894],[36.84681,-1.2824],[36.8464,-1.28019],[36.8444,-1.28024],[36.84435,-1.28295],[36.84103,-1.28365],[36.83976,-1.28496],[36.83854,-1.28488],[36.83739,-1.28559],[36.83536,-1.28576]]]}},{"type":"Feature","properties":{"name":"Nairobi Central","subcounty":"Starehe"},"geometry":{"type":"Polygon","coordinates":[[[36.82032,-1.29313],[36.82183,-1.29543],[36.82844,-1.2921],[36.83358,-1.2896],[36.83446,-1.28924],[36.83573,-1.28927],[36.83686,-1.28992],[36.83842,-1.29211],[36.84266,-1.29265],[36.85091,-1.29457],[36.85191,-1.29375],[36.8522,-1.29282],[36.85233,-1.29138],[36.85243,-1.28988],[36.84906,-1.28973],[36.84794,-1.28894],[36.84688,-1.28807],[36.84589,-1.28786],[36.8441,-1.28764],[36.84351,-1.28692],[36.84252,-1.2881],[36.84128,-1.28799],[36.83998,-1.28676],[36.83761,-1.28705],[36.83561,-1.2862],[36.83536,-1.28576],[36.83388,-1.28322],[36.83173,-1.28173],[36.83008,-1.28119],[36.82779,-1.27995],[36.82573,-1.27962],[36.8224,-1.27972],[36.82107,-1.27904],[36.82044,-1.27789],[36.81879,-1.27749],[36.81718,-1.27627],[36.81531,-1.27618],[36.81245,-1.27446],[36.81368,-1.27792],[36.81402,-1.28024],[36.82032,-1.29313]]]}},{"type":"Feature","properties":{"name":"Pangani","subcounty":"Starehe"},"geometry":{"type":"Polygon","coordinates":[[[36.83422,-1.26662],[36.83222,-1.26913],[36.83635,-1.27053],[36.83424,-1.27667],[36.83524,-1.27756],[36.83679,-1.27768],[36.84277,-1.28038],[36.8444,-1.28024],[36.8464,-1.28019],[36.84368,-1.2675],[36.84263,-1.26431],[36.8393,-1.26397],[36.83825,-1.26447],[36.83747,-1.26428],[36.83422,-1.26662]]]}}]}